AIRPORT_IATA,AIRPORT_ICAO,UTC DATE/TIME,METAR,DESCRIPTION
LHR,EGLL,2019-05-21 23:50:00,EGLL 212350Z AUTO VRB02KT 9999 NCD 12/05 Q1020 NOSIG,Day: 21st Time: 23:50 UTC Wind speed: 2kt Temperature: 12C Dew point: 5C Pressure: 1020 hPa Visibility: 9999 m
LHR,EGLL,2019-05-21 23:20:00,EGLL 212320Z AUTO VRB03KT 9999 NCD 13/05 Q1020 NOSIG,Day: 21st Time: 23:20 UTC Wind speed: 3kt Temperature: 13C Dew point: 5C Pressure: 1020 hPa Visibility: 9999 m
LHR,EGLL,2019-05-21 22:50:00,EGLL 212250Z AUTO 35004KT 310V020 9999 NCD 14/06 Q1020 NOSIG,Day: 21st Time: 22:50 UTC Wind direction: 350 Wind speed: 4kt Temperature: 14C Dew point: 6C Pressure: 1020 hPa Visibility: 9999 m
LHR,EGLL,2019-05-21 22:20:00,EGLL 212220Z AUTO 35004KT 9999 NCD 14/06 Q1020 NOSIG,Day: 21st Time: 22:20 UTC Wind direction: 350 Wind speed: 4kt Temperature: 14C Dew point: 6C Pressure: 1020 hPa Visibility: 9999 m
LHR,EGLL,2019-05-21 21:50:00,EGLL 212150Z AUTO 35003KT 9999 NCD 16/06 Q1020 NOSIG,Day: 21st Time: 21:50 UTC Wind direction: 350 Wind speed: 3kt Temperature: 16C Dew point: 6C Pressure: 1020 hPa Visibility: 9999 m
LHR,EGLL,2019-05-21 21:20:00,EGLL 212120Z AUTO 36003KT 9999 NCD 16/06 Q1020 NOSIG,Day: 21st Time: 21:20 UTC Wind direction: 360 Wind speed: 3kt Temperature: 16C Dew point: 6C Pressure: 1020 hPa Visibility: 9999 m
LHR,EGLL,2019-05-21 20:50:00,EGLL 212050Z AUTO 36004KT 320V040 9999 NCD 17/06 Q1020 NOSIG,Day: 21st Time: 20:50 UTC Wind direction: 360 Wind speed: 4kt Temperature: 17C Dew point: 6C Pressure: 1020 hPa Visibility: 9999 m
LHR,EGLL,2019-05-21 20:20:00,EGLL 212020Z AUTO VRB03KT 9999 NCD 17/06 Q1019 NOSIG,Day: 21st Time: 20:20 UTC Wind speed: 3kt Temperature: 17C Dew point: 6C Pressure: 1019 hPa Visibility: 9999 m
LHR,EGLL,2019-05-21 19:50:00,EGLL 211950Z AUTO 32004KT 290V350 9999 NCD 18/06 Q1019 NOSIG,Day: 21st Time: 19:50 UTC Wind direction: 320 Wind speed: 4kt Temperature: 18C Dew point: 6C Pressure: 1019 hPa Visibility: 9999 m
LHR,EGLL,2019-05-21 19:20:00,EGLL 211920Z AUTO VRB03KT 9999 NCD 18/06 Q1019 NOSIG,Day: 21st Time: 19:20 UTC Wind speed: 3kt Temperature: 18C Dew point: 6C Pressure: 1019 hPa Visibility: 9999 m
LHR,EGLL,2019-05-21 18:50:00,EGLL 211850Z AUTO 33005KT 280V020 9999 NCD 19/06 Q1019 NOSIG,Day: 21st Time: 18:50 UTC Wind direction: 330 Wind speed: 5kt Temperature: 19C Dew point: 6C Pressure: 1019 hPa Visibility: 9999 m
LHR,EGLL,2019-05-21 18:20:00,EGLL 211820Z AUTO 34006KT 280V030 9999 NCD 20/05 Q1019 NOSIG,Day: 21st Time: 18:20 UTC Wind direction: 340 Wind speed: 6kt Temperature: 20C Dew point: 5C Pressure: 1019 hPa Visibility: 9999 m
LHR,EGLL,2019-05-21 17:50:00,EGLL 211750Z AUTO 35007KT 310V030 9999 NCD 20/05 Q1018 NOSIG,Day: 21st Time: 17:50 UTC Wind direction: 350 Wind speed: 7kt Temperature: 20C Dew point: 5C Pressure: 1018 hPa Visibility: 9999 m
LHR,EGLL,2019-05-21 17:20:00,EGLL 211720Z AUTO VRB05KT 9999 NCD 19/05 Q1018 NOSIG,Day: 21st Time: 17:20 UTC Wind speed: 5kt Temperature: 19C Dew point: 5C Pressure: 1018 hPa Visibility: 9999 m
LHR,EGLL,2019-05-21 16:50:00,EGLL 211650Z AUTO 31007KT 9999 NCD 20/05 Q1018 NOSIG,Day: 21st Time: 16:50 UTC Wind direction: 310 Wind speed: 7kt Temperature: 20C Dew point: 5C Pressure: 1018 hPa Visibility: 9999 m
LHR,EGLL,2019-05-21 16:20:00,EGLL 211620Z AUTO 30007KT 280V350 9999 NCD 20/05 Q1018 NOSIG,Day: 21st Time: 16:20 UTC Wind direction: 300 Wind speed: 7kt Temperature: 20C Dew point: 5C Pressure: 1018 hPa Visibility: 9999 m
LHR,EGLL,2019-05-21 15:50:00,EGLL 211550Z AUTO 32007KT 290V010 9999 NCD 20/05 Q1018,Day: 21st Time: 15:50 UTC Wind direction: 320 Wind speed: 7kt Temperature: 20C Dew point: 5C Pressure: 1018 hPa Visibility: 9999 m
LHR,EGLL,2019-05-21 15:20:00,EGLL 211520Z AUTO 33006KT 300V010 9999 NCD 21/06 Q1018,Day: 21st Time: 15:20 UTC Wind direction: 330 Wind speed: 6kt Temperature: 21C Dew point: 6C Pressure: 1018 hPa Visibility: 9999 m
LHR,EGLL,2019-05-21 14:50:00,EGLL 211450Z AUTO 31008KT 270V340 9999 NCD 21/05 Q1018 NOSIG,Day: 21st Time: 14:50 UTC Wind direction: 310 Wind speed: 8kt Temperature: 21C Dew point: 5C Pressure: 1018 hPa Visibility: 9999 m
LHR,EGLL,2019-05-21 14:20:00,EGLL 211420Z AUTO 33006KT 260V020 9999 NCD 20/06 Q1018 NOSIG,Day: 21st Time: 14:20 UTC Wind direction: 330 Wind speed: 6kt Temperature: 20C Dew point: 6C Pressure: 1018 hPa Visibility: 9999 m
LHR,EGLL,2019-05-21 13:50:00,EGLL 211350Z AUTO 31007KT 270V340 9999 NCD 19/06 Q1018,Day: 21st Time: 13:50 UTC Wind direction: 310 Wind speed: 7kt Temperature: 19C Dew point: 6C Pressure: 1018 hPa Visibility: 9999 m
LHR,EGLL,2019-05-21 13:20:00,EGLL 211320Z AUTO 31007KT 260V010 9999 NCD 19/06 Q1018 NOSIG,Day: 21st Time: 13:20 UTC Wind direction: 310 Wind speed: 7kt Temperature: 19C Dew point: 6C Pressure: 1018 hPa Visibility: 9999 m
LHR,EGLL,2019-05-21 12:50:00,EGLL 211250Z AUTO 32005KT 270V030 9999 NCD 20/06 Q1018 NOSIG,Day: 21st Time: 12:50 UTC Wind direction: 320 Wind speed: 5kt Temperature: 20C Dew point: 6C Pressure: 1018 hPa Visibility: 9999 m
LHR,EGLL,2019-05-21 12:20:00,EGLL 211220Z AUTO 33008KT 280V030 9999 FEW048 19/06 Q1018,Day: 21st Time: 12:20 UTC Wind direction: 330 Wind speed: 8kt Temperature: 19C Dew point: 6C Pressure: 1018 hPa Visibility: 9999 m
LHR,EGLL,2019-05-21 11:50:00,EGLL 211150Z AUTO 33008KT 290V030 9999 NCD 19/06 Q1018 NOSIG,Day: 21st Time: 11:50 UTC Wind direction: 330 Wind speed: 8kt Temperature: 19C Dew point: 6C Pressure: 1018 hPa Visibility: 9999 m
LHR,EGLL,2019-05-21 11:20:00,EGLL 211120Z AUTO 29009KT 270V330 9999 NCD 18/06 Q1018,Day: 21st Time: 11:20 UTC Wind direction: 290 Wind speed: 9kt Temperature: 18C Dew point: 6C Pressure: 1018 hPa Visibility: 9999 m
LHR,EGLL,2019-05-21 10:50:00,EGLL 211050Z AUTO 32007KT 280V010 9999 NCD 18/06 Q1018 NOSIG,Day: 21st Time: 10:50 UTC Wind direction: 320 Wind speed: 7kt Temperature: 18C Dew point: 6C Pressure: 1018 hPa Visibility: 9999 m
LHR,EGLL,2019-05-21 10:20:00,EGLL 211020Z AUTO 29007KT 250V350 9999 NCD 18/05 Q1018 NOSIG,Day: 21st Time: 10:20 UTC Wind direction: 290 Wind speed: 7kt Temperature: 18C Dew point: 5C Pressure: 1018 hPa Visibility: 9999 m
LHR,EGLL,2019-05-21 09:50:00,EGLL 210950Z AUTO 31007KT 260V040 9999 NCD 17/07 Q1018 NOSIG,Day: 21st Time: 09:50 UTC Wind direction: 310 Wind speed: 7kt Temperature: 17C Dew point: 7C Pressure: 1018 hPa Visibility: 9999 m
LHR,EGLL,2019-05-21 09:20:00,EGLL 210920Z AUTO 33007KT 280V020 9999 NCD 17/06 Q1019,Day: 21st Time: 09:20 UTC Wind direction: 330 Wind speed: 7kt Temperature: 17C Dew point: 6C Pressure: 1019 hPa Visibility: 9999 m
LHR,EGLL,2019-05-21 08:50:00,EGLL 210850Z AUTO 31006KT 260V010 9999 NCD 16/07 Q1019,Day: 21st Time: 08:50 UTC Wind direction: 310 Wind speed: 6kt Temperature: 16C Dew point: 7C Pressure: 1019 hPa Visibility: 9999 m
LHR,EGLL,2019-05-21 08:20:00,EGLL 210820Z AUTO 33006KT 290V010 9999 NCD 15/07 Q1019 NOSIG,Day: 21st Time: 08:20 UTC Wind direction: 330 Wind speed: 6kt Temperature: 15C Dew point: 7C Pressure: 1019 hPa Visibility: 9999 m
LHR,EGLL,2019-05-21 07:50:00,EGLL 210750Z AUTO 32006KT 290V010 9999 NCD 14/07 Q1019 NOSIG,Day: 21st Time: 07:50 UTC Wind direction: 320 Wind speed: 6kt Temperature: 14C Dew point: 7C Pressure: 1019 hPa Visibility: 9999 m
LHR,EGLL,2019-05-21 07:20:00,EGLL 210720Z AUTO 35005KT 280V040 9999 NCD 14/08 Q1018,Day: 21st Time: 07:20 UTC Wind direction: 350 Wind speed: 5kt Temperature: 14C Dew point: 8C Pressure: 1018 hPa Visibility: 9999 m
LHR,EGLL,2019-05-21 06:50:00,EGLL 210650Z AUTO VRB02KT 9999 NCD 13/07 Q1018,Day: 21st Time: 06:50 UTC Wind speed: 2kt Temperature: 13C Dew point: 7C Pressure: 1018 hPa Visibility: 9999 m
LHR,EGLL,2019-05-21 06:20:00,EGLL 210620Z AUTO VRB03KT 9999 NCD 12/07 Q1018,Day: 21st Time: 06:20 UTC Wind speed: 3kt Temperature: 12C Dew point: 7C Pressure: 1018 hPa Visibility: 9999 m
LHR,EGLL,2019-05-21 05:50:00,EGLL 210550Z AUTO VRB03KT 9999 NCD 11/07 Q1017 NOSIG,Day: 21st Time: 05:50 UTC Wind speed: 3kt Temperature: 11C Dew point: 7C Pressure: 1017 hPa Visibility: 9999 m
LHR,EGLL,2019-05-21 05:20:00,EGLL 210520Z AUTO VRB03KT 9999 NCD 11/07 Q1017 NOSIG,Day: 21st Time: 05:20 UTC Wind speed: 3kt Temperature: 11C Dew point: 7C Pressure: 1017 hPa Visibility: 9999 m
LHR,EGLL,2019-05-21 04:50:00,EGLL 210450Z AUTO 30003KT 9999 NCD 10/07 Q1017 NOSIG,Day: 21st Time: 04:50 UTC Wind direction: 300 Wind speed: 3kt Temperature: 10C Dew point: 7C Pressure: 1017 hPa Visibility: 9999 m
LHR,EGLL,2019-05-21 04:20:00,EGLL 210420Z AUTO 30004KT 9999 NCD 10/07 Q1017 NOSIG,Day: 21st Time: 04:20 UTC Wind direction: 300 Wind speed: 4kt Temperature: 10C Dew point: 7C Pressure: 1017 hPa Visibility: 9999 m
LHR,EGLL,2019-05-21 03:50:00,EGLL 210350Z AUTO 30004KT 9999 NCD 10/07 Q1017 NOSIG,Day: 21st Time: 03:50 UTC Wind direction: 300 Wind speed: 4kt Temperature: 10C Dew point: 7C Pressure: 1017 hPa Visibility: 9999 m
LHR,EGLL,2019-05-21 03:20:00,EGLL 210320Z AUTO 27003KT 9999 NCD 10/07 Q1017 NOSIG,Day: 21st Time: 03:20 UTC Wind direction: 270 Wind speed: 3kt Temperature: 10C Dew point: 7C Pressure: 1017 hPa Visibility: 9999 m
LHR,EGLL,2019-05-21 02:50:00,EGLL 210250Z AUTO VRB03KT 9999 NCD 10/07 Q1016,Day: 21st Time: 02:50 UTC Wind speed: 3kt Temperature: 10C Dew point: 7C Pressure: 1016 hPa Visibility: 9999 m
LHR,EGLL,2019-05-21 02:20:00,EGLL 210220Z AUTO VRB02KT 9999 NCD 11/07 Q1016,Day: 21st Time: 02:20 UTC Wind speed: 2kt Temperature: 11C Dew point: 7C Pressure: 1016 hPa Visibility: 9999 m
LHR,EGLL,2019-05-21 01:50:00,EGLL 210150Z AUTO 36004KT 310V030 9999 NCD 11/07 Q1016 NOSIG,Day: 21st Time: 01:50 UTC Wind direction: 360 Wind speed: 4kt Temperature: 11C Dew point: 7C Pressure: 1016 hPa Visibility: 9999 m
LHR,EGLL,2019-05-21 01:20:00,EGLL 210120Z AUTO 32004KT 290V350 9999 NCD 11/08 Q1016,Day: 21st Time: 01:20 UTC Wind direction: 320 Wind speed: 4kt Temperature: 11C Dew point: 8C Pressure: 1016 hPa Visibility: 9999 m
LHR,EGLL,2019-05-21 00:50:00,EGLL 210050Z AUTO 32004KT 9999 NCD 12/08 Q1016 NOSIG,Day: 21st Time: 00:50 UTC Wind direction: 320 Wind speed: 4kt Temperature: 12C Dew point: 8C Pressure: 1016 hPa Visibility: 9999 m
LHR,EGLL,2019-05-21 00:20:00,EGLL 210020Z AUTO 30004KT 9999 NCD 12/08 Q1016 NOSIG,Day: 21st Time: 00:20 UTC Wind direction: 300 Wind speed: 4kt Temperature: 12C Dew point: 8C Pressure: 1016 hPa Visibility: 9999 m
ATH,LGAV,2019-05-21 23:50:00,LGAV 212350Z VRB01KT CAVOK 17/13 Q1013 NOSIG,Day: 21st Time: 23:50 UTC Wind speed: 1kt Temperature: 17C Dew point: 13C Pressure: 1013 hPa Visibility: Sky and visibility OK
ATH,LGAV,2019-05-21 23:20:00,LGAV 212320Z VRB01KT CAVOK 18/12 Q1013 NOSIG,Day: 21st Time: 23:20 UTC Wind speed: 1kt Temperature: 18C Dew point: 12C Pressure: 1013 hPa Visibility: Sky and visibility OK
ATH,LGAV,2019-05-21 22:50:00,LGAV 212250Z 08001KT CAVOK 17/13 Q1014 NOSIG,Day: 21st Time: 22:50 UTC Wind direction: 80 Wind speed: 1kt Temperature: 17C Dew point: 13C Pressure: 1014 hPa Visibility: Sky and visibility OK
ATH,LGAV,2019-05-21 22:20:00,LGAV 212220Z VRB02KT CAVOK 18/13 Q1014 NOSIG,Day: 21st Time: 22:20 UTC Wind speed: 2kt Temperature: 18C Dew point: 13C Pressure: 1014 hPa Visibility: Sky and visibility OK
ATH,LGAV,2019-05-21 21:50:00,LGAV 212150Z 03002KT CAVOK 19/13 Q1014 NOSIG,Day: 21st Time: 21:50 UTC Wind direction: 30 Wind speed: 2kt Temperature: 19C Dew point: 13C Pressure: 1014 hPa Visibility: Sky and visibility OK
ATH,LGAV,2019-05-21 21:20:00,LGAV 212120Z VRB01KT CAVOK 19/13 Q1014 NOSIG,Day: 21st Time: 21:20 UTC Wind speed: 1kt Temperature: 19C Dew point: 13C Pressure: 1014 hPa Visibility: Sky and visibility OK
ATH,LGAV,2019-05-21 20:50:00,LGAV 212050Z 14001KT CAVOK 19/14 Q1014 NOSIG,Day: 21st Time: 20:50 UTC Wind direction: 140 Wind speed: 1kt Temperature: 19C Dew point: 14C Pressure: 1014 hPa Visibility: Sky and visibility OK
ATH,LGAV,2019-05-21 20:20:00,LGAV 212020Z 21004KT CAVOK 19/14 Q1014 NOSIG,Day: 21st Time: 20:20 UTC Wind direction: 210 Wind speed: 4kt Temperature: 19C Dew point: 14C Pressure: 1014 hPa Visibility: Sky and visibility OK
ATH,LGAV,2019-05-21 19:50:00,LGAV 211950Z 22005KT CAVOK 19/13 Q1014 NOSIG,Day: 21st Time: 19:50 UTC Wind direction: 220 Wind speed: 5kt Temperature: 19C Dew point: 13C Pressure: 1014 hPa Visibility: Sky and visibility OK
ATH,LGAV,2019-05-21 19:20:00,LGAV 211920Z 20006KT CAVOK 20/13 Q1014 NOSIG,Day: 21st Time: 19:20 UTC Wind direction: 200 Wind speed: 6kt Temperature: 20C Dew point: 13C Pressure: 1014 hPa Visibility: Sky and visibility OK
ATH,LGAV,2019-05-21 18:50:00,LGAV 211850Z 21007KT CAVOK 20/13 Q1014 NOSIG,Day: 21st Time: 18:50 UTC Wind direction: 210 Wind speed: 7kt Temperature: 20C Dew point: 13C Pressure: 1014 hPa Visibility: Sky and visibility OK
ATH,LGAV,2019-05-21 18:20:00,LGAV 211820Z 20008KT CAVOK 21/12 Q1014 NOSIG,Day: 21st Time: 18:20 UTC Wind direction: 200 Wind speed: 8kt Temperature: 21C Dew point: 12C Pressure: 1014 hPa Visibility: Sky and visibility OK
ATH,LGAV,2019-05-21 17:50:00,LGAV 211750Z 19006KT CAVOK 22/11 Q1014 NOSIG,Day: 21st Time: 17:50 UTC Wind direction: 190 Wind speed: 6kt Temperature: 22C Dew point: 11C Pressure: 1014 hPa Visibility: Sky and visibility OK
ATH,LGAV,2019-05-21 17:20:00,LGAV 211720Z 19003KT CAVOK 22/12 Q1014 NOSIG,Day: 21st Time: 17:20 UTC Wind direction: 190 Wind speed: 3kt Temperature: 22C Dew point: 12C Pressure: 1014 hPa Visibility: Sky and visibility OK
ATH,LGAV,2019-05-21 16:50:00,LGAV 211650Z 21003KT CAVOK 22/11 Q1014 NOSIG,Day: 21st Time: 16:50 UTC Wind direction: 210 Wind speed: 3kt Temperature: 22C Dew point: 11C Pressure: 1014 hPa Visibility: Sky and visibility OK
ATH,LGAV,2019-05-21 16:20:00,LGAV 211620Z 19010KT CAVOK 23/11 Q1014 NOSIG,Day: 21st Time: 16:20 UTC Wind direction: 190 Wind speed: 10kt Temperature: 23C Dew point: 11C Pressure: 1014 hPa Visibility: Sky and visibility OK
ATH,LGAV,2019-05-21 15:50:00,LGAV 211550Z 20012KT CAVOK 24/11 Q1014 NOSIG,Day: 21st Time: 15:50 UTC Wind direction: 200 Wind speed: 12kt Temperature: 24C Dew point: 11C Pressure: 1014 hPa Visibility: Sky and visibility OK
ATH,LGAV,2019-05-21 15:20:00,LGAV 211520Z 19012KT CAVOK 26/09 Q1014 NOSIG,Day: 21st Time: 15:20 UTC Wind direction: 190 Wind speed: 12kt Temperature: 26C Dew point: 9C Pressure: 1014 hPa Visibility: Sky and visibility OK
ATH,LGAV,2019-05-21 14:50:00,LGAV 211450Z 19010KT CAVOK 27/09 Q1014 NOSIG,Day: 21st Time: 14:50 UTC Wind direction: 190 Wind speed: 10kt Temperature: 27C Dew point: 9C Pressure: 1014 hPa Visibility: Sky and visibility OK
ATH,LGAV,2019-05-21 14:20:00,LGAV 211420Z 19009KT CAVOK 26/09 Q1014 NOSIG,Day: 21st Time: 14:20 UTC Wind direction: 190 Wind speed: 9kt Temperature: 26C Dew point: 9C Pressure: 1014 hPa Visibility: Sky and visibility OK
ATH,LGAV,2019-05-21 13:50:00,LGAV 211350Z 20010KT CAVOK 27/08 Q1014 NOSIG,Day: 21st Time: 13:50 UTC Wind direction: 200 Wind speed: 10kt Temperature: 27C Dew point: 8C Pressure: 1014 hPa Visibility: Sky and visibility OK
ATH,LGAV,2019-05-21 13:20:00,LGAV 211320Z 21011KT CAVOK 27/09 Q1014 NOSIG,Day: 21st Time: 13:20 UTC Wind direction: 210 Wind speed: 11kt Temperature: 27C Dew point: 9C Pressure: 1014 hPa Visibility: Sky and visibility OK
ATH,LGAV,2019-05-21 12:50:00,LGAV 211250Z 19009KT 9999 FEW025 27/07 Q1014 NOSIG,Day: 21st Time: 12:50 UTC Wind direction: 190 Wind speed: 9kt Temperature: 27C Dew point: 7C Pressure: 1014 hPa Visibility: 9999 m
ATH,LGAV,2019-05-21 12:20:00,LGAV 211220Z 19009KT 9999 FEW025 26/08 Q1014 NOSIG,Day: 21st Time: 12:20 UTC Wind direction: 190 Wind speed: 9kt Temperature: 26C Dew point: 8C Pressure: 1014 hPa Visibility: 9999 m
ATH,LGAV,2019-05-21 11:50:00,LGAV 211150Z 16008KT 110V210 9999 FEW025 25/12 Q1014 NOSIG,Day: 21st Time: 11:50 UTC Wind direction: 160 Wind speed: 8kt Temperature: 25C Dew point: 12C Pressure: 1014 hPa Visibility: 9999 m
ATH,LGAV,2019-05-21 11:20:00,LGAV 211120Z 11007KT 9999 FEW025 23/15 Q1014 NOSIG,Day: 21st Time: 11:20 UTC Wind direction: 110 Wind speed: 7kt Temperature: 23C Dew point: 15C Pressure: 1014 hPa Visibility: 9999 m
ATH,LGAV,2019-05-21 10:50:00,LGAV 211050Z 12005KT 090V160 9999 FEW025 23/16 Q1014 NOSIG,Day: 21st Time: 10:50 UTC Wind direction: 120 Wind speed: 5kt Temperature: 23C Dew point: 16C Pressure: 1014 hPa Visibility: 9999 m
ATH,LGAV,2019-05-21 10:20:00,LGAV 211020Z 10008KT 080V140 9999 FEW025 23/15 Q1014 NOSIG,Day: 21st Time: 10:20 UTC Wind direction: 100 Wind speed: 8kt Temperature: 23C Dew point: 15C Pressure: 1014 hPa Visibility: 9999 m
ATH,LGAV,2019-05-21 09:50:00,LGAV 210950Z 10008KT 050V120 9999 FEW025 24/15 Q1014 NOSIG,Day: 21st Time: 09:50 UTC Wind direction: 100 Wind speed: 8kt Temperature: 24C Dew point: 15C Pressure: 1014 hPa Visibility: 9999 m
ATH,LGAV,2019-05-21 09:20:00,LGAV 210920Z VRB03KT 9999 FEW025 25/14 Q1014 NOSIG,Day: 21st Time: 09:20 UTC Wind speed: 3kt Temperature: 25C Dew point: 14C Pressure: 1014 hPa Visibility: 9999 m
ATH,LGAV,2019-05-21 08:50:00,LGAV 210850Z 09004KT 050V150 CAVOK 24/15 Q1014 NOSIG,Day: 21st Time: 08:50 UTC Wind direction: 90 Wind speed: 4kt Temperature: 24C Dew point: 15C Pressure: 1014 hPa Visibility: Sky and visibility OK
ATH,LGAV,2019-05-21 08:20:00,LGAV 210820Z 10007KT 060V120 CAVOK 23/16 Q1014 NOSIG,Day: 21st Time: 08:20 UTC Wind direction: 100 Wind speed: 7kt Temperature: 23C Dew point: 16C Pressure: 1014 hPa Visibility: Sky and visibility OK
ATH,LGAV,2019-05-21 07:50:00,LGAV 210750Z 10008KT CAVOK 23/16 Q1014 NOSIG,Day: 21st Time: 07:50 UTC Wind direction: 100 Wind speed: 8kt Temperature: 23C Dew point: 16C Pressure: 1014 hPa Visibility: Sky and visibility OK
ATH,LGAV,2019-05-21 07:20:00,LGAV 210720Z VRB01KT CAVOK 23/11 Q1014 NOSIG,Day: 21st Time: 07:20 UTC Wind speed: 1kt Temperature: 23C Dew point: 11C Pressure: 1014 hPa Visibility: Sky and visibility OK
ATH,LGAV,2019-05-21 06:50:00,LGAV 210650Z 00000KT CAVOK 22/14 Q1014 NOSIG,Day: 21st Time: 06:50 UTC Wind direction: 0 Wind speed: 0kt Temperature: 22C Dew point: 14C Pressure: 1014 hPa Visibility: Sky and visibility OK
ATH,LGAV,2019-05-21 06:20:00,LGAV 210620Z VRB02KT CAVOK 21/14 Q1014 NOSIG,Day: 21st Time: 06:20 UTC Wind speed: 2kt Temperature: 21C Dew point: 14C Pressure: 1014 hPa Visibility: Sky and visibility OK
ATH,LGAV,2019-05-21 05:50:00,LGAV 210550Z VRB02KT CAVOK 20/15 Q1014 NOSIG,Day: 21st Time: 05:50 UTC Wind speed: 2kt Temperature: 20C Dew point: 15C Pressure: 1014 hPa Visibility: Sky and visibility OK
ATH,LGAV,2019-05-21 05:20:00,LGAV 210520Z VRB03KT CAVOK 18/14 Q1014 NOSIG,Day: 21st Time: 05:20 UTC Wind speed: 3kt Temperature: 18C Dew point: 14C Pressure: 1014 hPa Visibility: Sky and visibility OK
ATH,LGAV,2019-05-21 04:50:00,LGAV 210450Z VRB01KT CAVOK 17/14 Q1014 NOSIG,Day: 21st Time: 04:50 UTC Wind speed: 1kt Temperature: 17C Dew point: 14C Pressure: 1014 hPa Visibility: Sky and visibility OK
ATH,LGAV,2019-05-21 04:20:00,LGAV 210420Z 29002KT CAVOK 16/13 Q1013 NOSIG,Day: 21st Time: 04:20 UTC Wind direction: 290 Wind speed: 2kt Temperature: 16C Dew point: 13C Pressure: 1013 hPa Visibility: Sky and visibility OK
ATH,LGAV,2019-05-21 03:50:00,LGAV 210350Z 15004KT CAVOK 15/12 Q1013 NOSIG,Day: 21st Time: 03:50 UTC Wind direction: 150 Wind speed: 4kt Temperature: 15C Dew point: 12C Pressure: 1013 hPa Visibility: Sky and visibility OK
ATH,LGAV,2019-05-21 03:20:00,LGAV 210320Z 35003KT CAVOK 16/13 Q1013 NOSIG,Day: 21st Time: 03:20 UTC Wind direction: 350 Wind speed: 3kt Temperature: 16C Dew point: 13C Pressure: 1013 hPa Visibility: Sky and visibility OK
ATH,LGAV,2019-05-21 02:50:00,LGAV 210250Z VRB03KT CAVOK 15/13 Q1013 NOSIG,Day: 21st Time: 02:50 UTC Wind speed: 3kt Temperature: 15C Dew point: 13C Pressure: 1013 hPa Visibility: Sky and visibility OK
ATH,LGAV,2019-05-21 02:20:00,LGAV 210220Z VRB03KT 9999 SCT030 16/13 Q1013 NOSIG,Day: 21st Time: 02:20 UTC Wind speed: 3kt Temperature: 16C Dew point: 13C Pressure: 1013 hPa Visibility: 9999 m
ATH,LGAV,2019-05-21 01:50:00,LGAV 210150Z VRB01KT 9999 SCT030 17/15 Q1013 NOSIG,Day: 21st Time: 01:50 UTC Wind speed: 1kt Temperature: 17C Dew point: 15C Pressure: 1013 hPa Visibility: 9999 m
ATH,LGAV,2019-05-21 00:50:00,LGAV 210050Z VRB01KT 9999 SCT030 16/14 Q1013 NOSIG,Day: 21st Time: 00:50 UTC Wind speed: 1kt Temperature: 16C Dew point: 14C Pressure: 1013 hPa Visibility: 9999 m
ATH,LGAV,2019-05-21 00:20:00,LGAV 210020Z VRB01KT 9999 SCT040 17/14 Q1014 NOSIG,Day: 21st Time: 00:20 UTC Wind speed: 1kt Temperature: 17C Dew point: 14C Pressure: 1014 hPa Visibility: 9999 m
LCY,EGLC,2019-05-21 23:50:00,EGLC 212350Z AUTO 00000KT 9999 NCD 14/09 Q1020,Day: 21st Time: 23:50 UTC Wind direction: 0 Wind speed: 0kt Temperature: 14C Dew point: 9C Pressure: 1020 hPa Visibility: 9999 m
LCY,EGLC,2019-05-21 23:20:00,EGLC 212320Z AUTO VRB02KT 9999 NCD 14/09 Q1020,Day: 21st Time: 23:20 UTC Wind speed: 2kt Temperature: 14C Dew point: 9C Pressure: 1020 hPa Visibility: 9999 m
LCY,EGLC,2019-05-21 22:50:00,EGLC 212250Z AUTO VRB02KT 9999 NCD 15/07 Q1020,Day: 21st Time: 22:50 UTC Wind speed: 2kt Temperature: 15C Dew point: 7C Pressure: 1020 hPa Visibility: 9999 m
LCY,EGLC,2019-05-21 22:20:00,EGLC 212220Z AUTO VRB02KT 9999 NCD 16/06 Q1020,Day: 21st Time: 22:20 UTC Wind speed: 2kt Temperature: 16C Dew point: 6C Pressure: 1020 hPa Visibility: 9999 m
LCY,EGLC,2019-05-21 21:50:00,EGLC 212150Z AUTO 33004KT 280V350 9999 NCD 16/06 Q1019,Day: 21st Time: 21:50 UTC Wind direction: 330 Wind speed: 4kt Temperature: 16C Dew point: 6C Pressure: 1019 hPa Visibility: 9999 m
LCY,EGLC,2019-05-21 21:20:00,EGLC 212120Z AUTO 34004KT 290V030 9999 NCD 17/07 Q1019,Day: 21st Time: 21:20 UTC Wind direction: 340 Wind speed: 4kt Temperature: 17C Dew point: 7C Pressure: 1019 hPa Visibility: 9999 m
LCY,EGLC,2019-05-21 20:50:00,EGLC 212050Z AUTO 33004KT 230V020 9999 NCD 17/06 Q1019,Day: 21st Time: 20:50 UTC Wind direction: 330 Wind speed: 4kt Temperature: 17C Dew point: 6C Pressure: 1019 hPa Visibility: 9999 m
LCY,EGLC,2019-05-21 20:20:00,EGLC 212020Z AUTO 32005KT 270V010 9999 NCD 18/06 Q1019,Day: 21st Time: 20:20 UTC Wind direction: 320 Wind speed: 5kt Temperature: 18C Dew point: 6C Pressure: 1019 hPa Visibility: 9999 m
LCY,EGLC,2019-05-21 19:50:00,EGLC 211950Z AUTO 32004KT 240V010 9999 NCD 18/06 Q1019,Day: 21st Time: 19:50 UTC Wind direction: 320 Wind speed: 4kt Temperature: 18C Dew point: 6C Pressure: 1019 hPa Visibility: 9999 m
LCY,EGLC,2019-05-21 19:20:00,EGLC 211920Z AUTO 30006KT 260V350 9999 NCD 19/06 Q1018,Day: 21st Time: 19:20 UTC Wind direction: 300 Wind speed: 6kt Temperature: 19C Dew point: 6C Pressure: 1018 hPa Visibility: 9999 m
LCY,EGLC,2019-05-21 18:20:00,EGLC 211820Z AUTO 33006KT 290V020 9999 NCD 20/06 Q1018,Day: 21st Time: 18:20 UTC Wind direction: 330 Wind speed: 6kt Temperature: 20C Dew point: 6C Pressure: 1018 hPa Visibility: 9999 m
LCY,EGLC,2019-05-21 17:50:00,EGLC 211750Z AUTO 34006KT 300V020 9999 NCD 20/06 Q1018,Day: 21st Time: 17:50 UTC Wind direction: 340 Wind speed: 6kt Temperature: 20C Dew point: 6C Pressure: 1018 hPa Visibility: 9999 m
LCY,EGLC,2019-05-21 17:20:00,EGLC 211720Z AUTO 33006KT 280V040 9999 NCD 20/06 Q1018,Day: 21st Time: 17:20 UTC Wind direction: 330 Wind speed: 6kt Temperature: 20C Dew point: 6C Pressure: 1018 hPa Visibility: 9999 m
LCY,EGLC,2019-05-21 16:50:00,EGLC 211650Z AUTO 33007KT 280V030 9999 NCD 20/06 Q1018,Day: 21st Time: 16:50 UTC Wind direction: 330 Wind speed: 7kt Temperature: 20C Dew point: 6C Pressure: 1018 hPa Visibility: 9999 m
LCY,EGLC,2019-05-21 16:20:00,EGLC 211620Z AUTO 33008KT 240V030 9999 NCD 20/06 Q1018,Day: 21st Time: 16:20 UTC Wind direction: 330 Wind speed: 8kt Temperature: 20C Dew point: 6C Pressure: 1018 hPa Visibility: 9999 m
LCY,EGLC,2019-05-21 15:50:00,EGLC 211550Z AUTO 33006KT 280V020 9999 NCD 19/06 Q1018,Day: 21st Time: 15:50 UTC Wind direction: 330 Wind speed: 6kt Temperature: 19C Dew point: 6C Pressure: 1018 hPa Visibility: 9999 m
LCY,EGLC,2019-05-21 15:20:00,EGLC 211520Z AUTO 33008KT 280V030 9999 NCD 19/06 Q1018,Day: 21st Time: 15:20 UTC Wind direction: 330 Wind speed: 8kt Temperature: 19C Dew point: 6C Pressure: 1018 hPa Visibility: 9999 m
LCY,EGLC,2019-05-21 14:50:00,EGLC 211450Z AUTO 31007KT 250V020 9999 NCD 19/06 Q1018,Day: 21st Time: 14:50 UTC Wind direction: 310 Wind speed: 7kt Temperature: 19C Dew point: 6C Pressure: 1018 hPa Visibility: 9999 m
LCY,EGLC,2019-05-21 14:20:00,EGLC 211420Z AUTO 30009KT 260V340 9999 NCD 19/06 Q1018,Day: 21st Time: 14:20 UTC Wind direction: 300 Wind speed: 9kt Temperature: 19C Dew point: 6C Pressure: 1018 hPa Visibility: 9999 m
LCY,EGLC,2019-05-21 13:50:00,EGLC 211350Z AUTO 30007KT 250V020 9999 NCD 20/06 Q1018,Day: 21st Time: 13:50 UTC Wind direction: 300 Wind speed: 7kt Temperature: 20C Dew point: 6C Pressure: 1018 hPa Visibility: 9999 m
LCY,EGLC,2019-05-21 13:20:00,EGLC 211320Z AUTO 30009KT 280V350 9999 NCD 19/06 Q1018,Day: 21st Time: 13:20 UTC Wind direction: 300 Wind speed: 9kt Temperature: 19C Dew point: 6C Pressure: 1018 hPa Visibility: 9999 m
LCY,EGLC,2019-05-21 12:50:00,EGLC 211250Z AUTO 31008KT 280V030 9999 NCD 19/06 Q1018,Day: 21st Time: 12:50 UTC Wind direction: 310 Wind speed: 8kt Temperature: 19C Dew point: 6C Pressure: 1018 hPa Visibility: 9999 m
LCY,EGLC,2019-05-21 12:20:00,EGLC 211220Z AUTO 28009KT 250V330 9999 NCD 20/06 Q1018,Day: 21st Time: 12:20 UTC Wind direction: 280 Wind speed: 9kt Temperature: 20C Dew point: 6C Pressure: 1018 hPa Visibility: 9999 m
LCY,EGLC,2019-05-21 11:50:00,EGLC 211150Z AUTO VRB06KT 9999 NCD 19/06 Q1018,Day: 21st Time: 11:50 UTC Wind speed: 6kt Temperature: 19C Dew point: 6C Pressure: 1018 hPa Visibility: 9999 m
LCY,EGLC,2019-05-21 11:20:00,EGLC 211120Z AUTO 28010KT 240V340 9999 NCD 19/05 Q1018,Day: 21st Time: 11:20 UTC Wind direction: 280 Wind speed: 10kt Temperature: 19C Dew point: 5C Pressure: 1018 hPa Visibility: 9999 m
LCY,EGLC,2019-05-21 10:50:00,EGLC 211050Z AUTO 30007KT 260V030 9999 NCD 19/05 Q1018,Day: 21st Time: 10:50 UTC Wind direction: 300 Wind speed: 7kt Temperature: 19C Dew point: 5C Pressure: 1018 hPa Visibility: 9999 m
LCY,EGLC,2019-05-21 10:20:00,EGLC 211020Z AUTO 30008KT 230V010 9999 NCD 18/05 Q1018,Day: 21st Time: 10:20 UTC Wind direction: 300 Wind speed: 8kt Temperature: 18C Dew point: 5C Pressure: 1018 hPa Visibility: 9999 m
LCY,EGLC,2019-05-21 09:50:00,EGLC 210950Z AUTO 29011KT 9999 NCD 17/05 Q1018,Day: 21st Time: 09:50 UTC Wind direction: 290 Wind speed: 11kt Temperature: 17C Dew point: 5C Pressure: 1018 hPa Visibility: 9999 m
LCY,EGLC,2019-05-21 09:20:00,EGLC 210920Z AUTO 30007KT 260V010 9999 NCD 17/06 Q1018,Day: 21st Time: 09:20 UTC Wind direction: 300 Wind speed: 7kt Temperature: 17C Dew point: 6C Pressure: 1018 hPa Visibility: 9999 m
LCY,EGLC,2019-05-21 08:50:00,EGLC 210850Z AUTO 29005KT 230V340 9999 NCD 16/07 Q1018,Day: 21st Time: 08:50 UTC Wind direction: 290 Wind speed: 5kt Temperature: 16C Dew point: 7C Pressure: 1018 hPa Visibility: 9999 m
LCY,EGLC,2019-05-21 08:20:00,EGLC 210820Z AUTO 30007KT 270V010 9999 NCD 15/07 Q1018,Day: 21st Time: 08:20 UTC Wind direction: 300 Wind speed: 7kt Temperature: 15C Dew point: 7C Pressure: 1018 hPa Visibility: 9999 m
LCY,EGLC,2019-05-21 07:50:00,EGLC 210750Z AUTO 30007KT 270V350 9999 NCD 14/07 Q1018,Day: 21st Time: 07:50 UTC Wind direction: 300 Wind speed: 7kt Temperature: 14C Dew point: 7C Pressure: 1018 hPa Visibility: 9999 m
LCY,EGLC,2019-05-21 07:20:00,EGLC 210720Z AUTO VRB03KT 9999 NCD 14/07 Q1018,Day: 21st Time: 07:20 UTC Wind speed: 3kt Temperature: 14C Dew point: 7C Pressure: 1018 hPa Visibility: 9999 m
LCY,EGLC,2019-05-21 06:50:00,EGLC 210650Z 31004KT 270V020 9999 FEW045 13/07 Q1018,Day: 21st Time: 06:50 UTC Wind direction: 310 Wind speed: 4kt Temperature: 13C Dew point: 7C Pressure: 1018 hPa Visibility: 9999 m
LCY,EGLC,2019-05-21 06:20:00,EGLC 210620Z AUTO VRB03KT 9999 BKN044 12/07 Q1018,Day: 21st Time: 06:20 UTC Wind speed: 3kt Temperature: 12C Dew point: 7C Pressure: 1018 hPa Visibility: 9999 m
LCY,EGLC,2019-05-21 05:50:00,EGLC 210550Z AUTO VRB04KT 9999 FEW046 12/07 Q1017,Day: 21st Time: 05:50 UTC Wind speed: 4kt Temperature: 12C Dew point: 7C Pressure: 1017 hPa Visibility: 9999 m
LCY,EGLC,2019-05-21 05:20:00,EGLC 210520Z AUTO 32005KT 280V010 9999 NCD 12/07 Q1017,Day: 21st Time: 05:20 UTC Wind direction: 320 Wind speed: 5kt Temperature: 12C Dew point: 7C Pressure: 1017 hPa Visibility: 9999 m
LCY,EGLC,2019-05-21 04:50:00,EGLC 210450Z AUTO 30005KT 9999 NCD 12/07 Q1017,Day: 21st Time: 04:50 UTC Wind direction: 300 Wind speed: 5kt Temperature: 12C Dew point: 7C Pressure: 1017 hPa Visibility: 9999 m
LCY,EGLC,2019-05-21 04:20:00,EGLC 210420Z AUTO VRB03KT 9999 NCD 12/07 Q1017,Day: 21st Time: 04:20 UTC Wind speed: 3kt Temperature: 12C Dew point: 7C Pressure: 1017 hPa Visibility: 9999 m
LCY,EGLC,2019-05-21 03:50:00,EGLC 210350Z AUTO 29005KT 9999 NCD 12/08 Q1016,Day: 21st Time: 03:50 UTC Wind direction: 290 Wind speed: 5kt Temperature: 12C Dew point: 8C Pressure: 1016 hPa Visibility: 9999 m
LCY,EGLC,2019-05-21 03:20:00,EGLC 210320Z AUTO 30005KT 270V330 9999 NCD 12/08 Q1016,Day: 21st Time: 03:20 UTC Wind direction: 300 Wind speed: 5kt Temperature: 12C Dew point: 8C Pressure: 1016 hPa Visibility: 9999 m
LCY,EGLC,2019-05-21 02:50:00,EGLC 210250Z AUTO 30004KT 280V350 9999 NCD 12/08 Q1016,Day: 21st Time: 02:50 UTC Wind direction: 300 Wind speed: 4kt Temperature: 12C Dew point: 8C Pressure: 1016 hPa Visibility: 9999 m
LCY,EGLC,2019-05-21 02:20:00,EGLC 210220Z AUTO 29005KT 260V330 9999 NCD 13/09 Q1016,Day: 21st Time: 02:20 UTC Wind direction: 290 Wind speed: 5kt Temperature: 13C Dew point: 9C Pressure: 1016 hPa Visibility: 9999 m
LCY,EGLC,2019-05-21 01:50:00,EGLC 210150Z AUTO 30005KT 9999 NCD 13/09 Q1016,Day: 21st Time: 01:50 UTC Wind direction: 300 Wind speed: 5kt Temperature: 13C Dew point: 9C Pressure: 1016 hPa Visibility: 9999 m
LCY,EGLC,2019-05-21 01:20:00,EGLC 210120Z AUTO 30004KT 270V350 9999 NCD 14/09 Q1015,Day: 21st Time: 01:20 UTC Wind direction: 300 Wind speed: 4kt Temperature: 14C Dew point: 9C Pressure: 1015 hPa Visibility: 9999 m
LCY,EGLC,2019-05-21 00:50:00,EGLC 210050Z AUTO 30005KT 270V340 9999 NCD 14/09 Q1015,Day: 21st Time: 00:50 UTC Wind direction: 300 Wind speed: 5kt Temperature: 14C Dew point: 9C Pressure: 1015 hPa Visibility: 9999 m
LCY,EGLC,2019-05-21 00:20:00,EGLC 210020Z AUTO VRB03KT 9999 NCD 15/09 Q1015,Day: 21st Time: 00:20 UTC Wind speed: 3kt Temperature: 15C Dew point: 9C Pressure: 1015 hPa Visibility: 9999 m
LGW,EGKK,2019-05-21 23:50:00,EGKK 212350Z VRB01KT CAVOK 10/06 Q1020,Day: 21st Time: 23:50 UTC Wind speed: 1kt Temperature: 10C Dew point: 6C Pressure: 1020 hPa Visibility: Sky and visibility OK
LGW,EGKK,2019-05-21 23:20:00,EGKK 212320Z 24002KT CAVOK 11/07 Q1020,Day: 21st Time: 23:20 UTC Wind direction: 240 Wind speed: 2kt Temperature: 11C Dew point: 7C Pressure: 1020 hPa Visibility: Sky and visibility OK
LGW,EGKK,2019-05-21 22:50:00,EGKK 212250Z VRB01KT CAVOK 12/06 Q1020,Day: 21st Time: 22:50 UTC Wind speed: 1kt Temperature: 12C Dew point: 6C Pressure: 1020 hPa Visibility: Sky and visibility OK
LGW,EGKK,2019-05-21 22:20:00,EGKK 212220Z VRB01KT CAVOK 13/06 Q1019,Day: 21st Time: 22:20 UTC Wind speed: 1kt Temperature: 13C Dew point: 6C Pressure: 1019 hPa Visibility: Sky and visibility OK
LGW,EGKK,2019-05-21 21:50:00,EGKK 212150Z 30004KT CAVOK 15/06 Q1019,Day: 21st Time: 21:50 UTC Wind direction: 300 Wind speed: 4kt Temperature: 15C Dew point: 6C Pressure: 1019 hPa Visibility: Sky and visibility OK
LGW,EGKK,2019-05-21 21:20:00,EGKK 212120Z 32004KT CAVOK 15/06 Q1019,Day: 21st Time: 21:20 UTC Wind direction: 320 Wind speed: 4kt Temperature: 15C Dew point: 6C Pressure: 1019 hPa Visibility: Sky and visibility OK
LGW,EGKK,2019-05-21 20:50:00,EGKK 212050Z 31006KT CAVOK 16/06 Q1019,Day: 21st Time: 20:50 UTC Wind direction: 310 Wind speed: 6kt Temperature: 16C Dew point: 6C Pressure: 1019 hPa Visibility: Sky and visibility OK
LGW,EGKK,2019-05-21 20:20:00,EGKK 212020Z 29006KT CAVOK 17/06 Q1019,Day: 21st Time: 20:20 UTC Wind direction: 290 Wind speed: 6kt Temperature: 17C Dew point: 6C Pressure: 1019 hPa Visibility: Sky and visibility OK
LGW,EGKK,2019-05-21 19:50:00,EGKK 211950Z 30004KT CAVOK 17/06 Q1019,Day: 21st Time: 19:50 UTC Wind direction: 300 Wind speed: 4kt Temperature: 17C Dew point: 6C Pressure: 1019 hPa Visibility: Sky and visibility OK
LGW,EGKK,2019-05-21 19:20:00,EGKK 211920Z 32006KT 280V350 CAVOK 18/06 Q1019,Day: 21st Time: 19:20 UTC Wind direction: 320 Wind speed: 6kt Temperature: 18C Dew point: 6C Pressure: 1019 hPa Visibility: Sky and visibility OK
LGW,EGKK,2019-05-21 18:50:00,EGKK 211850Z 31007KT CAVOK 19/06 Q1018,Day: 21st Time: 18:50 UTC Wind direction: 310 Wind speed: 7kt Temperature: 19C Dew point: 6C Pressure: 1018 hPa Visibility: Sky and visibility OK
LGW,EGKK,2019-05-21 18:20:00,EGKK 211820Z 33006KT 300V360 CAVOK 19/06 Q1018,Day: 21st Time: 18:20 UTC Wind direction: 330 Wind speed: 6kt Temperature: 19C Dew point: 6C Pressure: 1018 hPa Visibility: Sky and visibility OK
LGW,EGKK,2019-05-21 17:50:00,EGKK 211750Z 30007KT CAVOK 19/06 Q1018,Day: 21st Time: 17:50 UTC Wind direction: 300 Wind speed: 7kt Temperature: 19C Dew point: 6C Pressure: 1018 hPa Visibility: Sky and visibility OK
LGW,EGKK,2019-05-21 17:20:00,EGKK 211720Z 33009KT CAVOK 20/05 Q1018,Day: 21st Time: 17:20 UTC Wind direction: 330 Wind speed: 9kt Temperature: 20C Dew point: 5C Pressure: 1018 hPa Visibility: Sky and visibility OK
LGW,EGKK,2019-05-21 16:50:00,EGKK 211650Z 32007KT 270V010 CAVOK 20/06 Q1018,Day: 21st Time: 16:50 UTC Wind direction: 320 Wind speed: 7kt Temperature: 20C Dew point: 6C Pressure: 1018 hPa Visibility: Sky and visibility OK
LGW,EGKK,2019-05-21 16:20:00,EGKK 211620Z 30007KT 280V340 CAVOK 19/05 Q1018,Day: 21st Time: 16:20 UTC Wind direction: 300 Wind speed: 7kt Temperature: 19C Dew point: 5C Pressure: 1018 hPa Visibility: Sky and visibility OK
LGW,EGKK,2019-05-21 15:50:00,EGKK 211550Z 30008KT CAVOK 19/05 Q1018,Day: 21st Time: 15:50 UTC Wind direction: 300 Wind speed: 8kt Temperature: 19C Dew point: 5C Pressure: 1018 hPa Visibility: Sky and visibility OK
LGW,EGKK,2019-05-21 15:20:00,EGKK 211520Z 32007KT 290V350 CAVOK 19/05 Q1018,Day: 21st Time: 15:20 UTC Wind direction: 320 Wind speed: 7kt Temperature: 19C Dew point: 5C Pressure: 1018 hPa Visibility: Sky and visibility OK
LGW,EGKK,2019-05-21 14:50:00,EGKK 211450Z 29009KT 260V330 CAVOK 20/05 Q1018,Day: 21st Time: 14:50 UTC Wind direction: 290 Wind speed: 9kt Temperature: 20C Dew point: 5C Pressure: 1018 hPa Visibility: Sky and visibility OK
LGW,EGKK,2019-05-21 14:20:00,EGKK 211420Z 31008KT 280V340 CAVOK 20/05 Q1018,Day: 21st Time: 14:20 UTC Wind direction: 310 Wind speed: 8kt Temperature: 20C Dew point: 5C Pressure: 1018 hPa Visibility: Sky and visibility OK
LGW,EGKK,2019-05-21 13:50:00,EGKK 211350Z 32008KT 270V360 CAVOK 20/05 Q1018,Day: 21st Time: 13:50 UTC Wind direction: 320 Wind speed: 8kt Temperature: 20C Dew point: 5C Pressure: 1018 hPa Visibility: Sky and visibility OK
LGW,EGKK,2019-05-21 13:20:00,EGKK 211320Z 32007KT 290V350 CAVOK 20/05 Q1018,Day: 21st Time: 13:20 UTC Wind direction: 320 Wind speed: 7kt Temperature: 20C Dew point: 5C Pressure: 1018 hPa Visibility: Sky and visibility OK
LGW,EGKK,2019-05-21 12:50:00,EGKK 211250Z 30007KT 250V330 CAVOK 19/04 Q1018,Day: 21st Time: 12:50 UTC Wind direction: 300 Wind speed: 7kt Temperature: 19C Dew point: 4C Pressure: 1018 hPa Visibility: Sky and visibility OK
LGW,EGKK,2019-05-21 12:20:00,EGKK 211220Z 30008KT 260V350 CAVOK 19/04 Q1018,Day: 21st Time: 12:20 UTC Wind direction: 300 Wind speed: 8kt Temperature: 19C Dew point: 4C Pressure: 1018 hPa Visibility: Sky and visibility OK
LGW,EGKK,2019-05-21 11:50:00,EGKK 211150Z 32008KT 250V010 CAVOK 19/05 Q1018,Day: 21st Time: 11:50 UTC Wind direction: 320 Wind speed: 8kt Temperature: 19C Dew point: 5C Pressure: 1018 hPa Visibility: Sky and visibility OK
LGW,EGKK,2019-05-21 11:20:00,EGKK 211120Z 32010KT 280V020 9999 FEW048 19/05 Q1018,Day: 21st Time: 11:20 UTC Wind direction: 320 Wind speed: 10kt Temperature: 19C Dew point: 5C Pressure: 1018 hPa Visibility: 9999 m
LGW,EGKK,2019-05-21 10:50:00,EGKK 211050Z 31009KT 260V340 CAVOK 18/06 Q1018,Day: 21st Time: 10:50 UTC Wind direction: 310 Wind speed: 9kt Temperature: 18C Dew point: 6C Pressure: 1018 hPa Visibility: Sky and visibility OK
LGW,EGKK,2019-05-21 10:20:00,EGKK 211020Z 32008KT 290V010 CAVOK 17/06 Q1018,Day: 21st Time: 10:20 UTC Wind direction: 320 Wind speed: 8kt Temperature: 17C Dew point: 6C Pressure: 1018 hPa Visibility: Sky and visibility OK
LGW,EGKK,2019-05-21 09:50:00,EGKK 210950Z 31008KT 270V340 CAVOK 17/07 Q1018,Day: 21st Time: 09:50 UTC Wind direction: 310 Wind speed: 8kt Temperature: 17C Dew point: 7C Pressure: 1018 hPa Visibility: Sky and visibility OK
LGW,EGKK,2019-05-21 09:20:00,EGKK 210920Z 31008KT 280V350 CAVOK 16/07 Q1018,Day: 21st Time: 09:20 UTC Wind direction: 310 Wind speed: 8kt Temperature: 16C Dew point: 7C Pressure: 1018 hPa Visibility: Sky and visibility OK
LGW,EGKK,2019-05-21 08:50:00,EGKK 210850Z 32008KT 270V350 CAVOK 15/07 Q1018,Day: 21st Time: 08:50 UTC Wind direction: 320 Wind speed: 8kt Temperature: 15C Dew point: 7C Pressure: 1018 hPa Visibility: Sky and visibility OK
LGW,EGKK,2019-05-21 08:20:00,EGKK 210820Z 33006KT 290V020 CAVOK 15/08 Q1018,Day: 21st Time: 08:20 UTC Wind direction: 330 Wind speed: 6kt Temperature: 15C Dew point: 8C Pressure: 1018 hPa Visibility: Sky and visibility OK
LGW,EGKK,2019-05-21 07:50:00,EGKK 210750Z 01007KT CAVOK 14/08 Q1018,Day: 21st Time: 07:50 UTC Wind direction: 10 Wind speed: 7kt Temperature: 14C Dew point: 8C Pressure: 1018 hPa Visibility: Sky and visibility OK
LGW,EGKK,2019-05-21 07:20:00,EGKK 210720Z 01008KT 330V040 CAVOK 14/08 Q1018,Day: 21st Time: 07:20 UTC Wind direction: 10 Wind speed: 8kt Temperature: 14C Dew point: 8C Pressure: 1018 hPa Visibility: Sky and visibility OK
LGW,EGKK,2019-05-21 06:50:00,EGKK 210650Z 34007KT 310V020 CAVOK 13/08 Q1018,Day: 21st Time: 06:50 UTC Wind direction: 340 Wind speed: 7kt Temperature: 13C Dew point: 8C Pressure: 1018 hPa Visibility: Sky and visibility OK
LGW,EGKK,2019-05-21 06:20:00,EGKK 210620Z 33007KT 300V360 CAVOK 12/08 Q1017,Day: 21st Time: 06:20 UTC Wind direction: 330 Wind speed: 7kt Temperature: 12C Dew point: 8C Pressure: 1017 hPa Visibility: Sky and visibility OK
LGW,EGKK,2019-05-21 05:50:00,EGKK 210550Z 31006KT 260V340 CAVOK 11/08 Q1017,Day: 21st Time: 05:50 UTC Wind direction: 310 Wind speed: 6kt Temperature: 11C Dew point: 8C Pressure: 1017 hPa Visibility: Sky and visibility OK
LGW,EGKK,2019-05-21 05:20:00,EGKK 210520Z 30004KT 270V340 CAVOK 11/07 Q1017,Day: 21st Time: 05:20 UTC Wind direction: 300 Wind speed: 4kt Temperature: 11C Dew point: 7C Pressure: 1017 hPa Visibility: Sky and visibility OK
LGW,EGKK,2019-05-21 04:50:00,EGKK 210450Z VRB03KT CAVOK 10/07 Q1016,Day: 21st Time: 04:50 UTC Wind speed: 3kt Temperature: 10C Dew point: 7C Pressure: 1016 hPa Visibility: Sky and visibility OK
LGW,EGKK,2019-05-21 04:20:00,EGKK 210420Z 30003KT CAVOK 09/07 Q1016,Day: 21st Time: 04:20 UTC Wind direction: 300 Wind speed: 3kt Temperature: 9C Dew point: 7C Pressure: 1016 hPa Visibility: Sky and visibility OK
LGW,EGKK,2019-05-21 03:50:00,EGKK 210350Z 29003KT CAVOK 09/07 Q1016,Day: 21st Time: 03:50 UTC Wind direction: 290 Wind speed: 3kt Temperature: 9C Dew point: 7C Pressure: 1016 hPa Visibility: Sky and visibility OK
LGW,EGKK,2019-05-21 03:20:00,EGKK 210320Z VRB02KT CAVOK 10/07 Q1016,Day: 21st Time: 03:20 UTC Wind speed: 2kt Temperature: 10C Dew point: 7C Pressure: 1016 hPa Visibility: Sky and visibility OK
LGW,EGKK,2019-05-21 02:50:00,EGKK 210250Z VRB02KT CAVOK 10/08 Q1016,Day: 21st Time: 02:50 UTC Wind speed: 2kt Temperature: 10C Dew point: 8C Pressure: 1016 hPa Visibility: Sky and visibility OK
LGW,EGKK,2019-05-21 02:20:00,EGKK 210220Z 31003KT CAVOK 11/08 Q1016,Day: 21st Time: 02:20 UTC Wind direction: 310 Wind speed: 3kt Temperature: 11C Dew point: 8C Pressure: 1016 hPa Visibility: Sky and visibility OK
LGW,EGKK,2019-05-21 01:20:00,EGKK 210120Z 31005KT CAVOK 12/08 Q1016,Day: 21st Time: 01:20 UTC Wind direction: 310 Wind speed: 5kt Temperature: 12C Dew point: 8C Pressure: 1016 hPa Visibility: Sky and visibility OK
LGW,EGKK,2019-05-21 00:50:00,EGKK 210050Z 31004KT CAVOK 11/08 Q1015,Day: 21st Time: 00:50 UTC Wind direction: 310 Wind speed: 4kt Temperature: 11C Dew point: 8C Pressure: 1015 hPa Visibility: Sky and visibility OK
LGW,EGKK,2019-05-21 00:20:00,EGKK 210020Z VRB01KT CAVOK 10/08 Q1015,Day: 21st Time: 00:20 UTC Wind speed: 1kt Temperature: 10C Dew point: 8C Pressure: 1015 hPa Visibility: Sky and visibility OK
SEN,EGMC,2019-05-21 22:50:00,EGMC 212250Z 00000KT 8000 NSC 09/07 Q1019,Day: 21st Time: 22:50 UTC Wind direction: 0 Wind speed: 0kt Temperature: 9C Dew point: 7C Pressure: 1019 hPa Visibility: 8000 m
SEN,EGMC,2019-05-21 22:20:00,EGMC 212220Z 33003KT 8000 NSC 09/07 Q1019,Day: 21st Time: 22:20 UTC Wind direction: 330 Wind speed: 3kt Temperature: 9C Dew point: 7C Pressure: 1019 hPa Visibility: 8000 m
SEN,EGMC,2019-05-21 21:50:00,EGMC 212150Z 36002KT 8000 NSC 11/09 Q1019,Day: 21st Time: 21:50 UTC Wind direction: 360 Wind speed: 2kt Temperature: 11C Dew point: 9C Pressure: 1019 hPa Visibility: 8000 m
SEN,EGMC,2019-05-21 21:20:00,EGMC 212120Z 32005KT 8000 NSC 10/08 Q1019,Day: 21st Time: 21:20 UTC Wind direction: 320 Wind speed: 5kt Temperature: 10C Dew point: 8C Pressure: 1019 hPa Visibility: 8000 m
SEN,EGMC,2019-05-21 20:20:00,EGMC 212020Z 06002KT 6000 NSC 12/08 Q1019,Day: 21st Time: 20:20 UTC Wind direction: 60 Wind speed: 2kt Temperature: 12C Dew point: 8C Pressure: 1019 hPa Visibility: 6000 m
SEN,EGMC,2019-05-21 19:50:00,EGMC 211950Z 08004KT 6000 NSC 12/08 Q1019,Day: 21st Time: 19:50 UTC Wind direction: 80 Wind speed: 4kt Temperature: 12C Dew point: 8C Pressure: 1019 hPa Visibility: 6000 m
SEN,EGMC,2019-05-21 19:20:00,EGMC 211920Z 06006KT CAVOK 14/08 Q1019,Day: 21st Time: 19:20 UTC Wind direction: 60 Wind speed: 6kt Temperature: 14C Dew point: 8C Pressure: 1019 hPa Visibility: Sky and visibility OK
SEN,EGMC,2019-05-21 18:20:00,EGMC 211820Z 07007KT CAVOK 15/10 Q1018,Day: 21st Time: 18:20 UTC Wind direction: 70 Wind speed: 7kt Temperature: 15C Dew point: 10C Pressure: 1018 hPa Visibility: Sky and visibility OK
SEN,EGMC,2019-05-21 17:50:00,EGMC 211750Z 33005KT 250V040 9999 FEW046 19/05 Q1018,Day: 21st Time: 17:50 UTC Wind direction: 330 Wind speed: 5kt Temperature: 19C Dew point: 5C Pressure: 1018 hPa Visibility: 9999 m
SEN,EGMC,2019-05-21 17:20:00,EGMC 211720Z 31006KT 280V360 9999 FEW048 19/05 Q1018,Day: 21st Time: 17:20 UTC Wind direction: 310 Wind speed: 6kt Temperature: 19C Dew point: 5C Pressure: 1018 hPa Visibility: 9999 m
SEN,EGMC,2019-05-21 16:50:00,EGMC 211650Z 35006KT 280V010 9999 FEW048 18/05 Q1018,Day: 21st Time: 16:50 UTC Wind direction: 350 Wind speed: 6kt Temperature: 18C Dew point: 5C Pressure: 1018 hPa Visibility: 9999 m
SEN,EGMC,2019-05-21 16:20:00,EGMC 211620Z 32007KT 290V350 9999 FEW045 18/05 Q1018,Day: 21st Time: 16:20 UTC Wind direction: 320 Wind speed: 7kt Temperature: 18C Dew point: 5C Pressure: 1018 hPa Visibility: 9999 m
SEN,EGMC,2019-05-21 15:50:00,EGMC 211550Z 33005KT 300V020 9999 SCT045 18/05 Q1018,Day: 21st Time: 15:50 UTC Wind direction: 330 Wind speed: 5kt Temperature: 18C Dew point: 5C Pressure: 1018 hPa Visibility: 9999 m
SEN,EGMC,2019-05-21 15:20:00,EGMC 211520Z VRB04G14KT 9999 SCT045 20/05 Q1018,Day: 21st Time: 15:20 UTC Wind speed: 4kt Wind gust: 14kt Temperature: 20C Dew point: 5C Pressure: 1018 hPa Visibility: 9999 m
SEN,EGMC,2019-05-21 14:50:00,EGMC 211450Z 31007KT 280V010 9999 SCT045 18/05 Q1018,Day: 21st Time: 14:50 UTC Wind direction: 310 Wind speed: 7kt Temperature: 18C Dew point: 5C Pressure: 1018 hPa Visibility: 9999 m
SEN,EGMC,2019-05-21 14:20:00,EGMC 211420Z VRB06KT 9999 SCT045 18/05 Q1018,Day: 21st Time: 14:20 UTC Wind speed: 6kt Temperature: 18C Dew point: 5C Pressure: 1018 hPa Visibility: 9999 m
SEN,EGMC,2019-05-21 13:50:00,EGMC 211350Z 31010KT 240V340 9999 SCT045 20/06 Q1018,Day: 21st Time: 13:50 UTC Wind direction: 310 Wind speed: 10kt Temperature: 20C Dew point: 6C Pressure: 1018 hPa Visibility: 9999 m
SEN,EGMC,2019-05-21 13:20:00,EGMC 211320Z 33009KT 270V010 9999 FEW040 20/06 Q1018,Day: 21st Time: 13:20 UTC Wind direction: 330 Wind speed: 9kt Temperature: 20C Dew point: 6C Pressure: 1018 hPa Visibility: 9999 m
SEN,EGMC,2019-05-21 12:50:00,EGMC 211250Z 29010KT 230V340 9999 FEW040 18/04 Q1018,Day: 21st Time: 12:50 UTC Wind direction: 290 Wind speed: 10kt Temperature: 18C Dew point: 4C Pressure: 1018 hPa Visibility: 9999 m
SEN,EGMC,2019-05-21 12:20:00,EGMC 211220Z 30009KT 260V340 9999 FEW040 19/06 Q1018,Day: 21st Time: 12:20 UTC Wind direction: 300 Wind speed: 9kt Temperature: 19C Dew point: 6C Pressure: 1018 hPa Visibility: 9999 m
SEN,EGMC,2019-05-21 11:50:00,EGMC 211150Z 30008KT 260V010 9999 FEW040 18/07 Q1018,Day: 21st Time: 11:50 UTC Wind direction: 300 Wind speed: 8kt Temperature: 18C Dew point: 7C Pressure: 1018 hPa Visibility: 9999 m
SEN,EGMC,2019-05-21 11:20:00,EGMC 211120Z 25007KT 230V330 9999 FEW040 19/06 Q1018,Day: 21st Time: 11:20 UTC Wind direction: 250 Wind speed: 7kt Temperature: 19C Dew point: 6C Pressure: 1018 hPa Visibility: 9999 m
SEN,EGMC,2019-05-21 10:50:00,EGMC 211050Z 32010KT 240V350 9999 FEW035 18/06 Q1017,Day: 21st Time: 10:50 UTC Wind direction: 320 Wind speed: 10kt Temperature: 18C Dew point: 6C Pressure: 1017 hPa Visibility: 9999 m
SEN,EGMC,2019-05-21 10:20:00,EGMC 211020Z 27008KT 250V350 9999 FEW035 18/06 Q1017,Day: 21st Time: 10:20 UTC Wind direction: 270 Wind speed: 8kt Temperature: 18C Dew point: 6C Pressure: 1017 hPa Visibility: 9999 m
SEN,EGMC,2019-05-21 09:50:00,EGMC 210950Z 32009KT 280V350 9999 FEW030 17/06 Q1017,Day: 21st Time: 09:50 UTC Wind direction: 320 Wind speed: 9kt Temperature: 17C Dew point: 6C Pressure: 1017 hPa Visibility: 9999 m
SEN,EGMC,2019-05-21 09:20:00,EGMC 210920Z 30010KT CAVOK 16/07 Q1017,Day: 21st Time: 09:20 UTC Wind direction: 300 Wind speed: 10kt Temperature: 16C Dew point: 7C Pressure: 1017 hPa Visibility: Sky and visibility OK
SEN,EGMC,2019-05-21 08:50:00,EGMC 210850Z 29007KT CAVOK 16/08 Q1017,Day: 21st Time: 08:50 UTC Wind direction: 290 Wind speed: 7kt Temperature: 16C Dew point: 8C Pressure: 1017 hPa Visibility: Sky and visibility OK
SEN,EGMC,2019-05-21 08:20:00,EGMC 210820Z 29008KT 250V340 CAVOK 15/08 Q1017,Day: 21st Time: 08:20 UTC Wind direction: 290 Wind speed: 8kt Temperature: 15C Dew point: 8C Pressure: 1017 hPa Visibility: Sky and visibility OK
SEN,EGMC,2019-05-21 07:50:00,EGMC 210750Z 31006KT 250V350 CAVOK 15/08 Q1017,Day: 21st Time: 07:50 UTC Wind direction: 310 Wind speed: 6kt Temperature: 15C Dew point: 8C Pressure: 1017 hPa Visibility: Sky and visibility OK
SEN,EGMC,2019-05-21 07:20:00,EGMC 210720Z 32005KT 280V020 CAVOK 13/08 Q1017,Day: 21st Time: 07:20 UTC Wind direction: 320 Wind speed: 5kt Temperature: 13C Dew point: 8C Pressure: 1017 hPa Visibility: Sky and visibility OK
SEN,EGMC,2019-05-21 06:50:00,EGMC 210650Z 32005KT 280V020 CAVOK 10/07 Q1017,Day: 21st Time: 06:50 UTC Wind direction: 320 Wind speed: 5kt Temperature: 10C Dew point: 7C Pressure: 1017 hPa Visibility: Sky and visibility OK
SEN,EGMC,2019-05-21 06:20:00,EGMC 210620Z 33007KT CAVOK 10/07 Q1017,Day: 21st Time: 06:20 UTC Wind direction: 330 Wind speed: 7kt Temperature: 10C Dew point: 7C Pressure: 1017 hPa Visibility: Sky and visibility OK
SEN,EGMC,2019-05-21 05:50:00,EGMC 210550Z 32006KT CAVOK 10/07 Q1016,Day: 21st Time: 05:50 UTC Wind direction: 320 Wind speed: 6kt Temperature: 10C Dew point: 7C Pressure: 1016 hPa Visibility: Sky and visibility OK
SEN,EGMC,2019-05-21 05:20:00,EGMC 210520Z 31006KT CAVOK 09/07 Q1016,Day: 21st Time: 05:20 UTC Wind direction: 310 Wind speed: 6kt Temperature: 9C Dew point: 7C Pressure: 1016 hPa Visibility: Sky and visibility OK
SEN,EGMC,2019-05-21 04:50:00,EGMC 210450Z 31006KT CAVOK 09/07 Q1016,Day: 21st Time: 04:50 UTC Wind direction: 310 Wind speed: 6kt Temperature: 9C Dew point: 7C Pressure: 1016 hPa Visibility: Sky and visibility OK
SEN,EGMC,2019-05-21 04:20:00,EGMC 210420Z 32004KT CAVOK 08/07 Q1016,Day: 21st Time: 04:20 UTC Wind direction: 320 Wind speed: 4kt Temperature: 8C Dew point: 7C Pressure: 1016 hPa Visibility: Sky and visibility OK
SEN,EGMC,2019-05-21 03:20:00,EGMC 210320Z 32002KT CAVOK 08/06 Q1015,Day: 21st Time: 03:20 UTC Wind direction: 320 Wind speed: 2kt Temperature: 8C Dew point: 6C Pressure: 1015 hPa Visibility: Sky and visibility OK
SEN,EGMC,2019-05-21 01:50:00,EGMC 210150Z 31003KT CAVOK 09/07 Q1015,Day: 21st Time: 01:50 UTC Wind direction: 310 Wind speed: 3kt Temperature: 9C Dew point: 7C Pressure: 1015 hPa Visibility: Sky and visibility OK
SEN,EGMC,2019-05-21 00:20:00,EGMC 210020Z 31003KT CAVOK 09/07 Q1015,Day: 21st Time: 00:20 UTC Wind direction: 310 Wind speed: 3kt Temperature: 9C Dew point: 7C Pressure: 1015 hPa Visibility: Sky and visibility OK
LTN,EGGW,2019-05-21 23:20:00,EGGW 212320Z AUTO 31007KT 9999 NCD 11/03 Q1020,Day: 21st Time: 23:20 UTC Wind direction: 310 Wind speed: 7kt Temperature: 11C Dew point: 3C Pressure: 1020 hPa Visibility: 9999 m
LTN,EGGW,2019-05-21 22:50:00,EGGW 212250Z AUTO 31007KT 9999 NCD 12/03 Q1020,Day: 21st Time: 22:50 UTC Wind direction: 310 Wind speed: 7kt Temperature: 12C Dew point: 3C Pressure: 1020 hPa Visibility: 9999 m
LTN,EGGW,2019-05-21 21:50:00,EGGW 212150Z AUTO 33007KT 9999 NCD 12/03 Q1020,Day: 21st Time: 21:50 UTC Wind direction: 330 Wind speed: 7kt Temperature: 12C Dew point: 3C Pressure: 1020 hPa Visibility: 9999 m
LTN,EGGW,2019-05-21 20:50:00,EGGW 212050Z AUTO 33007KT 280V010 9999 NCD 14/04 Q1020,Day: 21st Time: 20:50 UTC Wind direction: 330 Wind speed: 7kt Temperature: 14C Dew point: 4C Pressure: 1020 hPa Visibility: 9999 m
LTN,EGGW,2019-05-21 20:20:00,EGGW 212020Z AUTO 34006KT 280V350 9999 NCD 14/05 Q1019,Day: 21st Time: 20:20 UTC Wind direction: 340 Wind speed: 6kt Temperature: 14C Dew point: 5C Pressure: 1019 hPa Visibility: 9999 m
LTN,EGGW,2019-05-21 18:20:00,EGGW 211820Z AUTO 33009KT 9999 NCD 17/05 Q1019,Day: 21st Time: 18:20 UTC Wind direction: 330 Wind speed: 9kt Temperature: 17C Dew point: 5C Pressure: 1019 hPa Visibility: 9999 m
LTN,EGGW,2019-05-21 17:50:00,EGGW 211750Z AUTO 33010KT 9999 NCD 17/05 Q1019,Day: 21st Time: 17:50 UTC Wind direction: 330 Wind speed: 10kt Temperature: 17C Dew point: 5C Pressure: 1019 hPa Visibility: 9999 m
LTN,EGGW,2019-05-21 17:20:00,EGGW 211720Z AUTO 31011KT 9999 NCD 18/05 Q1018,Day: 21st Time: 17:20 UTC Wind direction: 310 Wind speed: 11kt Temperature: 18C Dew point: 5C Pressure: 1018 hPa Visibility: 9999 m
LTN,EGGW,2019-05-21 16:20:00,EGGW 211620Z AUTO 32011KT 9999 NCD 19/05 Q1018,Day: 21st Time: 16:20 UTC Wind direction: 320 Wind speed: 11kt Temperature: 19C Dew point: 5C Pressure: 1018 hPa Visibility: 9999 m
LTN,EGGW,2019-05-21 15:20:00,EGGW 211520Z AUTO 30010KT 9999 NCD 18/05 Q1018,Day: 21st Time: 15:20 UTC Wind direction: 300 Wind speed: 10kt Temperature: 18C Dew point: 5C Pressure: 1018 hPa Visibility: 9999 m
LTN,EGGW,2019-05-21 14:50:00,EGGW 211450Z AUTO 32009KT 280V350 9999 NCD 19/05 Q1018,Day: 21st Time: 14:50 UTC Wind direction: 320 Wind speed: 9kt Temperature: 19C Dew point: 5C Pressure: 1018 hPa Visibility: 9999 m
LTN,EGGW,2019-05-21 14:20:00,EGGW 211420Z AUTO 31010KT 9999 BKN047 18/06 Q1018,Day: 21st Time: 14:20 UTC Wind direction: 310 Wind speed: 10kt Temperature: 18C Dew point: 6C Pressure: 1018 hPa Visibility: 9999 m
LTN,EGGW,2019-05-21 13:20:00,EGGW 211320Z AUTO 32010KT 9999 BKN044 18/06 Q1018,Day: 21st Time: 13:20 UTC Wind direction: 320 Wind speed: 10kt Temperature: 18C Dew point: 6C Pressure: 1018 hPa Visibility: 9999 m
LTN,EGGW,2019-05-21 12:50:00,EGGW 211250Z AUTO 32009KT 290V360 9999 SCT042 18/06 Q1018,Day: 21st Time: 12:50 UTC Wind direction: 320 Wind speed: 9kt Temperature: 18C Dew point: 6C Pressure: 1018 hPa Visibility: 9999 m
LTN,EGGW,2019-05-21 12:20:00,EGGW 211220Z AUTO 34010KT 9999 SCT042 18/06 Q1018,Day: 21st Time: 12:20 UTC Wind direction: 340 Wind speed: 10kt Temperature: 18C Dew point: 6C Pressure: 1018 hPa Visibility: 9999 m
LTN,EGGW,2019-05-21 11:50:00,EGGW 211150Z AUTO 33011KT 280V360 9999 FEW044 18/06 Q1018,Day: 21st Time: 11:50 UTC Wind direction: 330 Wind speed: 11kt Temperature: 18C Dew point: 6C Pressure: 1018 hPa Visibility: 9999 m
LTN,EGGW,2019-05-21 11:20:00,EGGW 211120Z AUTO 31010KT 270V350 9999 NCD 17/07 Q1018,Day: 21st Time: 11:20 UTC Wind direction: 310 Wind speed: 10kt Temperature: 17C Dew point: 7C Pressure: 1018 hPa Visibility: 9999 m
LTN,EGGW,2019-05-21 10:50:00,EGGW 211050Z 31011KT CAVOK 17/07 Q1018,Day: 21st Time: 10:50 UTC Wind direction: 310 Wind speed: 11kt Temperature: 17C Dew point: 7C Pressure: 1018 hPa Visibility: Sky and visibility OK
LTN,EGGW,2019-05-21 10:20:00,EGGW 211020Z AUTO 33010KT 290V010 9999 NCD 16/08 Q1018,Day: 21st Time: 10:20 UTC Wind direction: 330 Wind speed: 10kt Temperature: 16C Dew point: 8C Pressure: 1018 hPa Visibility: 9999 m
LTN,EGGW,2019-05-21 09:50:00,EGGW 210950Z AUTO 32009KT 270V350 9999 NCD 15/08 Q1018,Day: 21st Time: 09:50 UTC Wind direction: 320 Wind speed: 9kt Temperature: 15C Dew point: 8C Pressure: 1018 hPa Visibility: 9999 m
LTN,EGGW,2019-05-21 08:50:00,EGGW 210850Z AUTO 32007KT 290V010 9999 FEW020 14/08 Q1018,Day: 21st Time: 08:50 UTC Wind direction: 320 Wind speed: 7kt Temperature: 14C Dew point: 8C Pressure: 1018 hPa Visibility: 9999 m
LTN,EGGW,2019-05-21 08:20:00,EGGW 210820Z AUTO 32007KT 290V350 9999 NCD 14/08 Q1018,Day: 21st Time: 08:20 UTC Wind direction: 320 Wind speed: 7kt Temperature: 14C Dew point: 8C Pressure: 1018 hPa Visibility: 9999 m
LTN,EGGW,2019-05-21 07:50:00,EGGW 210750Z AUTO 33007KT 280V350 9999 NCD 12/08 Q1018,Day: 21st Time: 07:50 UTC Wind direction: 330 Wind speed: 7kt Temperature: 12C Dew point: 8C Pressure: 1018 hPa Visibility: 9999 m
LTN,EGGW,2019-05-21 07:20:00,EGGW 210720Z AUTO 32009KT 280V360 9999 NCD 12/08 Q1018,Day: 21st Time: 07:20 UTC Wind direction: 320 Wind speed: 9kt Temperature: 12C Dew point: 8C Pressure: 1018 hPa Visibility: 9999 m
LTN,EGGW,2019-05-21 05:50:00,EGGW 210550Z AUTO 31012KT 9999 NCD 10/07 Q1017,Day: 21st Time: 05:50 UTC Wind direction: 310 Wind speed: 12kt Temperature: 10C Dew point: 7C Pressure: 1017 hPa Visibility: 9999 m
LTN,EGGW,2019-05-21 05:20:00,EGGW 210520Z AUTO 31012KT 9999 NCD 09/06 Q1017,Day: 21st Time: 05:20 UTC Wind direction: 310 Wind speed: 12kt Temperature: 9C Dew point: 6C Pressure: 1017 hPa Visibility: 9999 m
LTN,EGGW,2019-05-21 04:50:00,EGGW 210450Z AUTO 30008KT 9999 NCD 09/06 Q1017,Day: 21st Time: 04:50 UTC Wind direction: 300 Wind speed: 8kt Temperature: 9C Dew point: 6C Pressure: 1017 hPa Visibility: 9999 m
LTN,EGGW,2019-05-21 04:20:00,EGGW 210420Z AUTO 30008KT 9999 NCD 09/06 Q1017,Day: 21st Time: 04:20 UTC Wind direction: 300 Wind speed: 8kt Temperature: 9C Dew point: 6C Pressure: 1017 hPa Visibility: 9999 m
LTN,EGGW,2019-05-21 03:50:00,EGGW 210350Z AUTO 30009KT 9999 NCD 09/06 Q1016,Day: 21st Time: 03:50 UTC Wind direction: 300 Wind speed: 9kt Temperature: 9C Dew point: 6C Pressure: 1016 hPa Visibility: 9999 m
LTN,EGGW,2019-05-21 02:20:00,EGGW 210220Z AUTO 32006KT 9999 NCD 09/06 Q1016,Day: 21st Time: 02:20 UTC Wind direction: 320 Wind speed: 6kt Temperature: 9C Dew point: 6C Pressure: 1016 hPa Visibility: 9999 m
LTN,EGGW,2019-05-21 01:50:00,EGGW 210150Z AUTO 31007KT 9999 NCD 10/07 Q1016,Day: 21st Time: 01:50 UTC Wind direction: 310 Wind speed: 7kt Temperature: 10C Dew point: 7C Pressure: 1016 hPa Visibility: 9999 m
LTN,EGGW,2019-05-21 01:20:00,EGGW 210120Z AUTO 32006KT 9999 NCD 10/07 Q1016,Day: 21st Time: 01:20 UTC Wind direction: 320 Wind speed: 6kt Temperature: 10C Dew point: 7C Pressure: 1016 hPa Visibility: 9999 m
LTN,EGGW,2019-05-21 00:50:00,EGGW 210050Z AUTO 31005KT 9999 NCD 10/07 Q1016,Day: 21st Time: 00:50 UTC Wind direction: 310 Wind speed: 5kt Temperature: 10C Dew point: 7C Pressure: 1016 hPa Visibility: 9999 m
LTN,EGGW,2019-05-21 00:20:00,EGGW 210020Z AUTO 33009KT 9999 NCD 11/07 Q1016,Day: 21st Time: 00:20 UTC Wind direction: 330 Wind speed: 9kt Temperature: 11C Dew point: 7C Pressure: 1016 hPa Visibility: 9999 m
STN,EGSS,2019-05-21 23:50:00,EGSS 212350Z AUTO 32003KT 9999 NCD 08/04 Q1020,Day: 21st Time: 23:50 UTC Wind direction: 320 Wind speed: 3kt Temperature: 8C Dew point: 4C Pressure: 1020 hPa Visibility: 9999 m
STN,EGSS,2019-05-21 23:20:00,EGSS 212320Z AUTO VRB01KT 9999 NCD 08/05 Q1020,Day: 21st Time: 23:20 UTC Wind speed: 1kt Temperature: 8C Dew point: 5C Pressure: 1020 hPa Visibility: 9999 m
STN,EGSS,2019-05-21 22:50:00,EGSS 212250Z AUTO 32001KT 9999 NCD 10/04 Q1020,Day: 21st Time: 22:50 UTC Wind direction: 320 Wind speed: 1kt Temperature: 10C Dew point: 4C Pressure: 1020 hPa Visibility: 9999 m
STN,EGSS,2019-05-21 22:20:00,EGSS 212220Z AUTO 31002KT 9999 NCD 11/05 Q1019,Day: 21st Time: 22:20 UTC Wind direction: 310 Wind speed: 2kt Temperature: 11C Dew point: 5C Pressure: 1019 hPa Visibility: 9999 m
STN,EGSS,2019-05-21 21:50:00,EGSS 212150Z AUTO 31002KT 9999 NCD 11/05 Q1019,Day: 21st Time: 21:50 UTC Wind direction: 310 Wind speed: 2kt Temperature: 11C Dew point: 5C Pressure: 1019 hPa Visibility: 9999 m
STN,EGSS,2019-05-21 21:20:00,EGSS 212120Z AUTO 33003KT 9999 NCD 12/06 Q1019,Day: 21st Time: 21:20 UTC Wind direction: 330 Wind speed: 3kt Temperature: 12C Dew point: 6C Pressure: 1019 hPa Visibility: 9999 m
STN,EGSS,2019-05-21 20:50:00,EGSS 212050Z AUTO 31005KT 9999 NCD 13/06 Q1019,Day: 21st Time: 20:50 UTC Wind direction: 310 Wind speed: 5kt Temperature: 13C Dew point: 6C Pressure: 1019 hPa Visibility: 9999 m
STN,EGSS,2019-05-21 20:20:00,EGSS 212020Z AUTO 31004KT 9999 NCD 14/07 Q1019,Day: 21st Time: 20:20 UTC Wind direction: 310 Wind speed: 4kt Temperature: 14C Dew point: 7C Pressure: 1019 hPa Visibility: 9999 m
STN,EGSS,2019-05-21 19:50:00,EGSS 211950Z AUTO 32005KT 9999 NCD 15/07 Q1019,Day: 21st Time: 19:50 UTC Wind direction: 320 Wind speed: 5kt Temperature: 15C Dew point: 7C Pressure: 1019 hPa Visibility: 9999 m
STN,EGSS,2019-05-21 19:20:00,EGSS 211920Z AUTO 31005KT 9999 NCD 16/07 Q1019,Day: 21st Time: 19:20 UTC Wind direction: 310 Wind speed: 5kt Temperature: 16C Dew point: 7C Pressure: 1019 hPa Visibility: 9999 m
STN,EGSS,2019-05-21 18:50:00,EGSS 211850Z AUTO 30004KT 260V330 9999 NCD 17/07 Q1019,Day: 21st Time: 18:50 UTC Wind direction: 300 Wind speed: 4kt Temperature: 17C Dew point: 7C Pressure: 1019 hPa Visibility: 9999 m
STN,EGSS,2019-05-21 18:20:00,EGSS 211820Z AUTO 31005KT 280V340 9999 NCD 18/07 Q1018,Day: 21st Time: 18:20 UTC Wind direction: 310 Wind speed: 5kt Temperature: 18C Dew point: 7C Pressure: 1018 hPa Visibility: 9999 m
STN,EGSS,2019-05-21 17:50:00,EGSS 211750Z AUTO 31004KT 280V340 9999 NCD 17/07 Q1018,Day: 21st Time: 17:50 UTC Wind direction: 310 Wind speed: 4kt Temperature: 17C Dew point: 7C Pressure: 1018 hPa Visibility: 9999 m
STN,EGSS,2019-05-21 17:20:00,EGSS 211720Z AUTO 32006KT 9999 NCD 17/07 Q1018,Day: 21st Time: 17:20 UTC Wind direction: 320 Wind speed: 6kt Temperature: 17C Dew point: 7C Pressure: 1018 hPa Visibility: 9999 m
STN,EGSS,2019-05-21 16:50:00,EGSS 211650Z AUTO 32007KT 9999 NCD 17/07 Q1018,Day: 21st Time: 16:50 UTC Wind direction: 320 Wind speed: 7kt Temperature: 17C Dew point: 7C Pressure: 1018 hPa Visibility: 9999 m
STN,EGSS,2019-05-21 16:20:00,EGSS 211620Z AUTO 30006KT 270V350 9999 NCD 19/08 Q1018,Day: 21st Time: 16:20 UTC Wind direction: 300 Wind speed: 6kt Temperature: 19C Dew point: 8C Pressure: 1018 hPa Visibility: 9999 m
STN,EGSS,2019-05-21 15:50:00,EGSS 211550Z AUTO 30006KT 260V330 9999 NCD 19/07 Q1018,Day: 21st Time: 15:50 UTC Wind direction: 300 Wind speed: 6kt Temperature: 19C Dew point: 7C Pressure: 1018 hPa Visibility: 9999 m
STN,EGSS,2019-05-21 15:20:00,EGSS 211520Z AUTO 30007KT 260V340 9999 NCD 18/07 Q1018,Day: 21st Time: 15:20 UTC Wind direction: 300 Wind speed: 7kt Temperature: 18C Dew point: 7C Pressure: 1018 hPa Visibility: 9999 m
STN,EGSS,2019-05-21 14:50:00,EGSS 211450Z AUTO 30008KT 250V350 9999 SCT048 19/07 Q1018,Day: 21st Time: 14:50 UTC Wind direction: 300 Wind speed: 8kt Temperature: 19C Dew point: 7C Pressure: 1018 hPa Visibility: 9999 m
STN,EGSS,2019-05-21 14:20:00,EGSS 211420Z AUTO 30007KT 260V340 9999 BKN047 19/08 Q1018,Day: 21st Time: 14:20 UTC Wind direction: 300 Wind speed: 7kt Temperature: 19C Dew point: 8C Pressure: 1018 hPa Visibility: 9999 m
STN,EGSS,2019-05-21 13:50:00,EGSS 211350Z AUTO 29008KT 260V030 9999 SCT047 18/08 Q1018,Day: 21st Time: 13:50 UTC Wind direction: 290 Wind speed: 8kt Temperature: 18C Dew point: 8C Pressure: 1018 hPa Visibility: 9999 m
STN,EGSS,2019-05-21 13:20:00,EGSS 211320Z AUTO 29008KT 250V340 9999 SCT045 19/08 Q1018,Day: 21st Time: 13:20 UTC Wind direction: 290 Wind speed: 8kt Temperature: 19C Dew point: 8C Pressure: 1018 hPa Visibility: 9999 m
STN,EGSS,2019-05-21 12:50:00,EGSS 211250Z AUTO 31008KT 240V360 9999 SCT045 18/08 Q1018,Day: 21st Time: 12:50 UTC Wind direction: 310 Wind speed: 8kt Temperature: 18C Dew point: 8C Pressure: 1018 hPa Visibility: 9999 m
STN,EGSS,2019-05-21 12:20:00,EGSS 211220Z AUTO 32007KT 270V360 9999 SCT042 BKN048 18/08 Q1018,Day: 21st Time: 12:20 UTC Wind direction: 320 Wind speed: 7kt Temperature: 18C Dew point: 8C Pressure: 1018 hPa Visibility: 9999 m
STN,EGSS,2019-05-21 11:50:00,EGSS 211150Z AUTO 30008KT 260V340 9999 SCT040 17/07 Q1018,Day: 21st Time: 11:50 UTC Wind direction: 300 Wind speed: 8kt Temperature: 17C Dew point: 7C Pressure: 1018 hPa Visibility: 9999 m
STN,EGSS,2019-05-21 11:20:00,EGSS 211120Z AUTO 33008KT 310V030 9999 SCT036 SCT048 17/08 Q1018,Day: 21st Time: 11:20 UTC Wind direction: 330 Wind speed: 8kt Temperature: 17C Dew point: 8C Pressure: 1018 hPa Visibility: 9999 m
STN,EGSS,2019-05-21 10:50:00,EGSS 211050Z AUTO 34008KT 310V020 9999 SCT032 SCT038 16/09 Q1018,Day: 21st Time: 10:50 UTC Wind direction: 340 Wind speed: 8kt Temperature: 16C Dew point: 9C Pressure: 1018 hPa Visibility: 9999 m
STN,EGSS,2019-05-21 10:20:00,EGSS 211020Z AUTO 33009KT 290V360 9999 SCT028 16/09 Q1018,Day: 21st Time: 10:20 UTC Wind direction: 330 Wind speed: 9kt Temperature: 16C Dew point: 9C Pressure: 1018 hPa Visibility: 9999 m
STN,EGSS,2019-05-21 09:50:00,EGSS 210950Z AUTO 32008KT 260V350 9999 FEW025 16/09 Q1018,Day: 21st Time: 09:50 UTC Wind direction: 320 Wind speed: 8kt Temperature: 16C Dew point: 9C Pressure: 1018 hPa Visibility: 9999 m
STN,EGSS,2019-05-21 09:20:00,EGSS 210920Z AUTO 32007KT 280V360 9999 FEW024 15/09 Q1018,Day: 21st Time: 09:20 UTC Wind direction: 320 Wind speed: 7kt Temperature: 15C Dew point: 9C Pressure: 1018 hPa Visibility: 9999 m
STN,EGSS,2019-05-21 08:50:00,EGSS 210850Z AUTO 30007KT 260V350 9999 NCD 14/09 Q1018,Day: 21st Time: 08:50 UTC Wind direction: 300 Wind speed: 7kt Temperature: 14C Dew point: 9C Pressure: 1018 hPa Visibility: 9999 m
STN,EGSS,2019-05-21 08:20:00,EGSS 210820Z AUTO 31006KT 250V010 9999 NCD 14/09 Q1018,Day: 21st Time: 08:20 UTC Wind direction: 310 Wind speed: 6kt Temperature: 14C Dew point: 9C Pressure: 1018 hPa Visibility: 9999 m
STN,EGSS,2019-05-21 07:50:00,EGSS 210750Z AUTO 34007KT 310V010 9999 NCD 13/09 Q1018,Day: 21st Time: 07:50 UTC Wind direction: 340 Wind speed: 7kt Temperature: 13C Dew point: 9C Pressure: 1018 hPa Visibility: 9999 m
STN,EGSS,2019-05-21 07:20:00,EGSS 210720Z AUTO 32007KT 290V360 9999 NCD 12/08 Q1018,Day: 21st Time: 07:20 UTC Wind direction: 320 Wind speed: 7kt Temperature: 12C Dew point: 8C Pressure: 1018 hPa Visibility: 9999 m
STN,EGSS,2019-05-21 06:50:00,EGSS 210650Z AUTO 33007KT 9999 NCD 11/08 Q1017,Day: 21st Time: 06:50 UTC Wind direction: 330 Wind speed: 7kt Temperature: 11C Dew point: 8C Pressure: 1017 hPa Visibility: 9999 m
STN,EGSS,2019-05-21 06:20:00,EGSS 210620Z AUTO 32004KT 280V340 9999 NCD 10/08 Q1017,Day: 21st Time: 06:20 UTC Wind direction: 320 Wind speed: 4kt Temperature: 10C Dew point: 8C Pressure: 1017 hPa Visibility: 9999 m
STN,EGSS,2019-05-21 05:50:00,EGSS 210550Z AUTO 32006KT 9999 NCD 09/07 Q1017,Day: 21st Time: 05:50 UTC Wind direction: 320 Wind speed: 6kt Temperature: 9C Dew point: 7C Pressure: 1017 hPa Visibility: 9999 m
STN,EGSS,2019-05-21 05:20:00,EGSS 210520Z AUTO 32004KT 9999 NCD 08/07 Q1017,Day: 21st Time: 05:20 UTC Wind direction: 320 Wind speed: 4kt Temperature: 8C Dew point: 7C Pressure: 1017 hPa Visibility: 9999 m
STN,EGSS,2019-05-21 04:50:00,EGSS 210450Z AUTO 33004KT 9999 NCD 07/06 Q1017,Day: 21st Time: 04:50 UTC Wind direction: 330 Wind speed: 4kt Temperature: 7C Dew point: 6C Pressure: 1017 hPa Visibility: 9999 m
STN,EGSS,2019-05-21 04:20:00,EGSS 210420Z AUTO 32005KT 9999 NCD 07/06 Q1016,Day: 21st Time: 04:20 UTC Wind direction: 320 Wind speed: 5kt Temperature: 7C Dew point: 6C Pressure: 1016 hPa Visibility: 9999 m
STN,EGSS,2019-05-21 03:50:00,EGSS 210350Z AUTO 32005KT 9999 NCD 07/07 Q1016,Day: 21st Time: 03:50 UTC Wind direction: 320 Wind speed: 5kt Temperature: 7C Dew point: 7C Pressure: 1016 hPa Visibility: 9999 m
STN,EGSS,2019-05-21 03:20:00,EGSS 210320Z AUTO 32004KT 7000 NCD 08/07 Q1016,Day: 21st Time: 03:20 UTC Wind direction: 320 Wind speed: 4kt Temperature: 8C Dew point: 7C Pressure: 1016 hPa Visibility: 7000 m
STN,EGSS,2019-05-21 02:50:00,EGSS 210250Z AUTO 31004KT 9999 NCD 08/07 Q1016,Day: 21st Time: 02:50 UTC Wind direction: 310 Wind speed: 4kt Temperature: 8C Dew point: 7C Pressure: 1016 hPa Visibility: 9999 m
STN,EGSS,2019-05-21 02:20:00,EGSS 210220Z AUTO 32002KT 6000 NCD 08/07 Q1016,Day: 21st Time: 02:20 UTC Wind direction: 320 Wind speed: 2kt Temperature: 8C Dew point: 7C Pressure: 1016 hPa Visibility: 6000 m
STN,EGSS,2019-05-21 01:50:00,EGSS 210150Z AUTO 33003KT 8000 NCD 08/07 Q1016,Day: 21st Time: 01:50 UTC Wind direction: 330 Wind speed: 3kt Temperature: 8C Dew point: 7C Pressure: 1016 hPa Visibility: 8000 m
STN,EGSS,2019-05-21 01:20:00,EGSS 210120Z AUTO 34004KT 9000 NCD 08/08 Q1016,Day: 21st Time: 01:20 UTC Wind direction: 340 Wind speed: 4kt Temperature: 8C Dew point: 8C Pressure: 1016 hPa Visibility: 9000 m
STN,EGSS,2019-05-21 00:50:00,EGSS 210050Z AUTO 34004KT 9999 NCD 08/08 Q1015,Day: 21st Time: 00:50 UTC Wind direction: 340 Wind speed: 4kt Temperature: 8C Dew point: 8C Pressure: 1015 hPa Visibility: 9999 m
STN,EGSS,2019-05-21 00:20:00,EGSS 210020Z AUTO 31004KT 9999 NCD 07/07 Q1015,Day: 21st Time: 00:20 UTC Wind direction: 310 Wind speed: 4kt Temperature: 7C Dew point: 7C Pressure: 1015 hPa Visibility: 9999 m
CDG,LFPG,2019-05-21 23:30:00,LFPG 212330Z 01006KT CAVOK 12/07 Q1020 NOSIG,Day: 21st Time: 23:30 UTC Wind direction: 10 Wind speed: 6kt Temperature: 12C Dew point: 7C Pressure: 1020 hPa Visibility: Sky and visibility OK
CDG,LFPG,2019-05-21 23:00:00,LFPG 212300Z 01006KT CAVOK 12/07 Q1020 NOSIG,Day: 21st Time: 23:00 UTC Wind direction: 10 Wind speed: 6kt Temperature: 12C Dew point: 7C Pressure: 1020 hPa Visibility: Sky and visibility OK
CDG,LFPG,2019-05-21 22:30:00,LFPG 212230Z 01005KT CAVOK 13/07 Q1020 NOSIG,Day: 21st Time: 22:30 UTC Wind direction: 10 Wind speed: 5kt Temperature: 13C Dew point: 7C Pressure: 1020 hPa Visibility: Sky and visibility OK
CDG,LFPG,2019-05-21 22:00:00,LFPG 212200Z 02005KT CAVOK 13/07 Q1020 NOSIG,Day: 21st Time: 22:00 UTC Wind direction: 20 Wind speed: 5kt Temperature: 13C Dew point: 7C Pressure: 1020 hPa Visibility: Sky and visibility OK
CDG,LFPG,2019-05-21 21:30:00,LFPG 212130Z 01006KT CAVOK 13/07 Q1019 NOSIG,Day: 21st Time: 21:30 UTC Wind direction: 10 Wind speed: 6kt Temperature: 13C Dew point: 7C Pressure: 1019 hPa Visibility: Sky and visibility OK
CDG,LFPG,2019-05-21 21:00:00,LFPG 212100Z 35007KT CAVOK 14/07 Q1019 NOSIG,Day: 21st Time: 21:00 UTC Wind direction: 350 Wind speed: 7kt Temperature: 14C Dew point: 7C Pressure: 1019 hPa Visibility: Sky and visibility OK
CDG,LFPG,2019-05-21 20:30:00,LFPG 212030Z 35008KT CAVOK 15/07 Q1019 NOSIG,Day: 21st Time: 20:30 UTC Wind direction: 350 Wind speed: 8kt Temperature: 15C Dew point: 7C Pressure: 1019 hPa Visibility: Sky and visibility OK
CDG,LFPG,2019-05-21 20:00:00,LFPG 212000Z 34005KT CAVOK 16/08 Q1019 NOSIG,Day: 21st Time: 20:00 UTC Wind direction: 340 Wind speed: 5kt Temperature: 16C Dew point: 8C Pressure: 1019 hPa Visibility: Sky and visibility OK
CDG,LFPG,2019-05-21 19:30:00,LFPG 211930Z 32006KT 9999 FEW050TCU 16/10 Q1019 TEMPO FEW050TCU,Day: 21st Time: 19:30 UTC Wind direction: 320 Wind speed: 6kt Temperature: 16C Dew point: 10C Pressure: 1019 hPa Visibility: 9999 m
CDG,LFPG,2019-05-21 19:00:00,LFPG 211900Z 29006KT 9999 FEW050TCU 17/11 Q1018 TEMPO FEW050TCU,Day: 21st Time: 19:00 UTC Wind direction: 290 Wind speed: 6kt Temperature: 17C Dew point: 11C Pressure: 1018 hPa Visibility: 9999 m
CDG,LFPG,2019-05-21 18:30:00,LFPG 211830Z 30008KT 9999 FEW050TCU 19/10 Q1018 TEMPO FEW050TCU,Day: 21st Time: 18:30 UTC Wind direction: 300 Wind speed: 8kt Temperature: 19C Dew point: 10C Pressure: 1018 hPa Visibility: 9999 m
CDG,LFPG,2019-05-21 18:00:00,LFPG 211800Z 29007KT 9999 FEW050TCU 18/10 Q1018 TEMPO FEW050TCU,Day: 21st Time: 18:00 UTC Wind direction: 290 Wind speed: 7kt Temperature: 18C Dew point: 10C Pressure: 1018 hPa Visibility: 9999 m
CDG,LFPG,2019-05-21 17:30:00,LFPG 211730Z 29007KT 9999 FEW048 SCT060 18/10 Q1018 TEMPO FEW050TCU,Day: 21st Time: 17:30 UTC Wind direction: 290 Wind speed: 7kt Temperature: 18C Dew point: 10C Pressure: 1018 hPa Visibility: 9999 m
CDG,LFPG,2019-05-21 17:00:00,LFPG 211700Z 31010KT 9999 FEW048 SCT060 19/10 Q1017 TEMPO FEW050TCU,Day: 21st Time: 17:00 UTC Wind direction: 310 Wind speed: 10kt Temperature: 19C Dew point: 10C Pressure: 1017 hPa Visibility: 9999 m
CDG,LFPG,2019-05-21 16:30:00,LFPG 211630Z 32007KT CAVOK 20/10 Q1018 TEMPO SCT030TCU,Day: 21st Time: 16:30 UTC Wind direction: 320 Wind speed: 7kt Temperature: 20C Dew point: 10C Pressure: 1018 hPa Visibility: Sky and visibility OK
CDG,LFPG,2019-05-21 16:00:00,LFPG 211600Z 30003KT 9999 FEW048 BKN076 18/09 Q1017 TEMPO SCT030TCU,Day: 21st Time: 16:00 UTC Wind direction: 300 Wind speed: 3kt Temperature: 18C Dew point: 9C Pressure: 1017 hPa Visibility: 9999 m
CDG,LFPG,2019-05-21 15:30:00,LFPG 211530Z 30007KT 9999 FEW048 BKN073 18/10 Q1018 TEMPO SCT030TCU,Day: 21st Time: 15:30 UTC Wind direction: 300 Wind speed: 7kt Temperature: 18C Dew point: 10C Pressure: 1018 hPa Visibility: 9999 m
CDG,LFPG,2019-05-21 15:00:00,LFPG 211500Z 29009KT 9999 FEW046TCU SCT049 BKN100 19/10 Q1018 TEMPO SCT030TCU,Day: 21st Time: 15:00 UTC Wind direction: 290 Wind speed: 9kt Temperature: 19C Dew point: 10C Pressure: 1018 hPa Visibility: 9999 m
CDG,LFPG,2019-05-21 14:30:00,LFPG 211430Z 34005KT 310V010 9999 FEW044 FEW050TCU SCT066 BKN100 20/07 Q1017 TEMPO SCT030TCU,Day: 21st Time: 14:30 UTC Wind direction: 340 Wind speed: 5kt Temperature: 20C Dew point: 7C Pressure: 1017 hPa Visibility: 9999 m
CDG,LFPG,2019-05-21 14:00:00,LFPG 211400Z 32008KT 290V360 9999 FEW046 FEW050TCU SCT063 20/09 Q1017 TEMPO SCT030TCU,Day: 21st Time: 14:00 UTC Wind direction: 320 Wind speed: 8kt Temperature: 20C Dew point: 9C Pressure: 1017 hPa Visibility: 9999 m
CDG,LFPG,2019-05-21 13:30:00,LFPG 211330Z 32008KT 280V340 9999 FEW046 FEW050TCU SCT063 BKN086 19/10 Q1017 TEMPO SCT030TCU,Day: 21st Time: 13:30 UTC Wind direction: 320 Wind speed: 8kt Temperature: 19C Dew point: 10C Pressure: 1017 hPa Visibility: 9999 m
CDG,LFPG,2019-05-21 13:00:00,LFPG 211300Z 33005KT 290V040 9999 FEW045 SCT063 BKN086 20/09 Q1017 TEMPO SCT030TCU,Day: 21st Time: 13:00 UTC Wind direction: 330 Wind speed: 5kt Temperature: 20C Dew point: 9C Pressure: 1017 hPa Visibility: 9999 m
CDG,LFPG,2019-05-21 12:30:00,LFPG 211230Z 33009KT 310V010 9999 FEW046 SCT060 BKN093 20/09 Q1017 TEMPO SCT030TCU,Day: 21st Time: 12:30 UTC Wind direction: 330 Wind speed: 9kt Temperature: 20C Dew point: 9C Pressure: 1017 hPa Visibility: 9999 m
CDG,LFPG,2019-05-21 12:00:00,LFPG 211200Z 34007KT 9999 FEW044TCU SCT060 19/09 Q1017 TEMPO SCT030TCU,Day: 21st Time: 12:00 UTC Wind direction: 340 Wind speed: 7kt Temperature: 19C Dew point: 9C Pressure: 1017 hPa Visibility: 9999 m
CDG,LFPG,2019-05-21 11:30:00,LFPG 211130Z 35009KT 9999 BKN044 SCT096 20/09 Q1017 TEMPO SCT030TCU,Day: 21st Time: 11:30 UTC Wind direction: 350 Wind speed: 9kt Temperature: 20C Dew point: 9C Pressure: 1017 hPa Visibility: 9999 m
CDG,LFPG,2019-05-21 11:00:00,LFPG 211100Z 33008KT 290V360 9999 SCT041 SCT086 19/09 Q1017 TEMPO SCT030TCU,Day: 21st Time: 11:00 UTC Wind direction: 330 Wind speed: 8kt Temperature: 19C Dew point: 9C Pressure: 1017 hPa Visibility: 9999 m
CDG,LFPG,2019-05-21 10:30:00,LFPG 211030Z 34005KT 300V040 9999 SCT038 19/09 Q1017 TEMPO SCT030TCU,Day: 21st Time: 10:30 UTC Wind direction: 340 Wind speed: 5kt Temperature: 19C Dew point: 9C Pressure: 1017 hPa Visibility: 9999 m
CDG,LFPG,2019-05-21 10:00:00,LFPG 211000Z 33010KT 9999 SCT035 19/09 Q1017 NOSIG,Day: 21st Time: 10:00 UTC Wind direction: 330 Wind speed: 10kt Temperature: 19C Dew point: 9C Pressure: 1017 hPa Visibility: 9999 m
CDG,LFPG,2019-05-21 09:30:00,LFPG 210930Z 01009KT 9999 SCT030 18/09 Q1017 NOSIG,Day: 21st Time: 09:30 UTC Wind direction: 10 Wind speed: 9kt Temperature: 18C Dew point: 9C Pressure: 1017 hPa Visibility: 9999 m
CDG,LFPG,2019-05-21 09:00:00,LFPG 210900Z 34008KT 280V020 9999 FEW028 17/10 Q1017 NOSIG,Day: 21st Time: 09:00 UTC Wind direction: 340 Wind speed: 8kt Temperature: 17C Dew point: 10C Pressure: 1017 hPa Visibility: 9999 m
CDG,LFPG,2019-05-21 08:30:00,LFPG 210830Z 34007KT 8000 FEW027 17/10 Q1017 NOSIG,Day: 21st Time: 08:30 UTC Wind direction: 340 Wind speed: 7kt Temperature: 17C Dew point: 10C Pressure: 1017 hPa Visibility: 8000 m
CDG,LFPG,2019-05-21 08:00:00,LFPG 210800Z 31005KT 260V350 8000 NSC 16/11 Q1017 NOSIG,Day: 21st Time: 08:00 UTC Wind direction: 310 Wind speed: 5kt Temperature: 16C Dew point: 11C Pressure: 1017 hPa Visibility: 8000 m
CDG,LFPG,2019-05-21 07:30:00,LFPG 210730Z 31006KT 270V340 7000 NSC 15/10 Q1017 NOSIG,Day: 21st Time: 07:30 UTC Wind direction: 310 Wind speed: 6kt Temperature: 15C Dew point: 10C Pressure: 1017 hPa Visibility: 7000 m
CDG,LFPG,2019-05-21 07:00:00,LFPG 210700Z 30005KT 270V330 7000 NSC 13/10 Q1016 NOSIG,Day: 21st Time: 07:00 UTC Wind direction: 300 Wind speed: 5kt Temperature: 13C Dew point: 10C Pressure: 1016 hPa Visibility: 7000 m
CDG,LFPG,2019-05-21 06:30:00,LFPG 210630Z 29006KT 6000 NSC 12/09 Q1016 NOSIG,Day: 21st Time: 06:30 UTC Wind direction: 290 Wind speed: 6kt Temperature: 12C Dew point: 9C Pressure: 1016 hPa Visibility: 6000 m
CDG,LFPG,2019-05-21 06:00:00,LFPG 210600Z 27004KT 6000 NSC 11/08 Q1016 NOSIG,Day: 21st Time: 06:00 UTC Wind direction: 270 Wind speed: 4kt Temperature: 11C Dew point: 8C Pressure: 1016 hPa Visibility: 6000 m
CDG,LFPG,2019-05-21 05:30:00,LFPG 210530Z 25004KT 6000 NSC 11/08 Q1016 NOSIG,Day: 21st Time: 05:30 UTC Wind direction: 250 Wind speed: 4kt Temperature: 11C Dew point: 8C Pressure: 1016 hPa Visibility: 6000 m
CDG,LFPG,2019-05-21 05:00:00,LFPG 210500Z 25004KT 6000 NSC 10/08 Q1016 NOSIG,Day: 21st Time: 05:00 UTC Wind direction: 250 Wind speed: 4kt Temperature: 10C Dew point: 8C Pressure: 1016 hPa Visibility: 6000 m
CDG,LFPG,2019-05-21 04:30:00,LFPG 210430Z 25004KT 6000 NSC 10/08 Q1015 NOSIG,Day: 21st Time: 04:30 UTC Wind direction: 250 Wind speed: 4kt Temperature: 10C Dew point: 8C Pressure: 1015 hPa Visibility: 6000 m
CDG,LFPG,2019-05-21 04:00:00,LFPG 210400Z 29003KT 7000 NSC 10/08 Q1015 NOSIG,Day: 21st Time: 04:00 UTC Wind direction: 290 Wind speed: 3kt Temperature: 10C Dew point: 8C Pressure: 1015 hPa Visibility: 7000 m
CDG,LFPG,2019-05-21 03:30:00,LFPG 210330Z 28003KT 8000 NSC 10/07 Q1015 NOSIG,Day: 21st Time: 03:30 UTC Wind direction: 280 Wind speed: 3kt Temperature: 10C Dew point: 7C Pressure: 1015 hPa Visibility: 8000 m
CDG,LFPG,2019-05-21 03:00:00,LFPG 210300Z 29005KT 8000 NSC 10/08 Q1015 NOSIG,Day: 21st Time: 03:00 UTC Wind direction: 290 Wind speed: 5kt Temperature: 10C Dew point: 8C Pressure: 1015 hPa Visibility: 8000 m
CDG,LFPG,2019-05-21 02:30:00,LFPG 210230Z 28006KT 9000 NSC 11/08 Q1015 NOSIG,Day: 21st Time: 02:30 UTC Wind direction: 280 Wind speed: 6kt Temperature: 11C Dew point: 8C Pressure: 1015 hPa Visibility: 9000 m
CDG,LFPG,2019-05-21 02:00:00,LFPG 210200Z 29003KT 9000 NSC 11/08 Q1015 NOSIG,Day: 21st Time: 02:00 UTC Wind direction: 290 Wind speed: 3kt Temperature: 11C Dew point: 8C Pressure: 1015 hPa Visibility: 9000 m
CDG,LFPG,2019-05-21 01:30:00,LFPG 210130Z 31005KT 9000 NSC 12/08 Q1015 NOSIG,Day: 21st Time: 01:30 UTC Wind direction: 310 Wind speed: 5kt Temperature: 12C Dew point: 8C Pressure: 1015 hPa Visibility: 9000 m
CDG,LFPG,2019-05-21 01:00:00,LFPG 210100Z 32005KT 9000 NSC 12/09 Q1015 NOSIG,Day: 21st Time: 01:00 UTC Wind direction: 320 Wind speed: 5kt Temperature: 12C Dew point: 9C Pressure: 1015 hPa Visibility: 9000 m
CDG,LFPG,2019-05-21 00:30:00,LFPG 210030Z 32006KT 9000 NSC 12/09 Q1015 NOSIG,Day: 21st Time: 00:30 UTC Wind direction: 320 Wind speed: 6kt Temperature: 12C Dew point: 9C Pressure: 1015 hPa Visibility: 9000 m
CDG,LFPG,2019-05-21 00:00:00,LFPG 210000Z 32005KT CAVOK 12/09 Q1015 NOSIG,Day: 21st Time: 00:00 UTC Wind direction: 320 Wind speed: 5kt Temperature: 12C Dew point: 9C Pressure: 1015 hPa Visibility: Sky and visibility OK
ORY,LFPO,2019-05-21 23:30:00,LFPO 212330Z 33005KT CAVOK 13/08 Q1020 NOSIG,Day: 21st Time: 23:30 UTC Wind direction: 330 Wind speed: 5kt Temperature: 13C Dew point: 8C Pressure: 1020 hPa Visibility: Sky and visibility OK
ORY,LFPO,2019-05-21 23:00:00,LFPO 212300Z 34003KT CAVOK 12/07 Q1020 NOSIG,Day: 21st Time: 23:00 UTC Wind direction: 340 Wind speed: 3kt Temperature: 12C Dew point: 7C Pressure: 1020 hPa Visibility: Sky and visibility OK
ORY,LFPO,2019-05-21 22:30:00,LFPO 212230Z 01002KT CAVOK 13/07 Q1020 NOSIG,Day: 21st Time: 22:30 UTC Wind direction: 10 Wind speed: 2kt Temperature: 13C Dew point: 7C Pressure: 1020 hPa Visibility: Sky and visibility OK
ORY,LFPO,2019-05-21 22:00:00,LFPO 212200Z 33006KT CAVOK 13/08 Q1019 NOSIG,Day: 21st Time: 22:00 UTC Wind direction: 330 Wind speed: 6kt Temperature: 13C Dew point: 8C Pressure: 1019 hPa Visibility: Sky and visibility OK
ORY,LFPO,2019-05-21 21:30:00,LFPO 212130Z 33006KT CAVOK 15/09 Q1019 NOSIG,Day: 21st Time: 21:30 UTC Wind direction: 330 Wind speed: 6kt Temperature: 15C Dew point: 9C Pressure: 1019 hPa Visibility: Sky and visibility OK
ORY,LFPO,2019-05-21 21:00:00,LFPO 212100Z 33006KT CAVOK 16/10 Q1019 NOSIG,Day: 21st Time: 21:00 UTC Wind direction: 330 Wind speed: 6kt Temperature: 16C Dew point: 10C Pressure: 1019 hPa Visibility: Sky and visibility OK
ORY,LFPO,2019-05-21 20:30:00,LFPO 212030Z 31005KT CAVOK 16/10 Q1019 NOSIG,Day: 21st Time: 20:30 UTC Wind direction: 310 Wind speed: 5kt Temperature: 16C Dew point: 10C Pressure: 1019 hPa Visibility: Sky and visibility OK
ORY,LFPO,2019-05-21 20:00:00,LFPO 212000Z 30005KT 250V330 CAVOK 16/10 Q1019 NOSIG,Day: 21st Time: 20:00 UTC Wind direction: 300 Wind speed: 5kt Temperature: 16C Dew point: 10C Pressure: 1019 hPa Visibility: Sky and visibility OK
ORY,LFPO,2019-05-21 19:30:00,LFPO 211930Z 32005KT CAVOK 17/10 Q1018 NOSIG,Day: 21st Time: 19:30 UTC Wind direction: 320 Wind speed: 5kt Temperature: 17C Dew point: 10C Pressure: 1018 hPa Visibility: Sky and visibility OK
ORY,LFPO,2019-05-21 19:00:00,LFPO 211900Z 29005KT 9999 FEW053TCU BKN093 18/09 Q1018 NOSIG,Day: 21st Time: 19:00 UTC Wind direction: 290 Wind speed: 5kt Temperature: 18C Dew point: 9C Pressure: 1018 hPa Visibility: 9999 m
ORY,LFPO,2019-05-21 18:30:00,LFPO 211830Z 30005KT 9999 FEW053TCU BKN076 18/09 Q1018 NOSIG,Day: 21st Time: 18:30 UTC Wind direction: 300 Wind speed: 5kt Temperature: 18C Dew point: 9C Pressure: 1018 hPa Visibility: 9999 m
ORY,LFPO,2019-05-21 18:00:00,LFPO 211800Z 31006KT 9999 FEW053TCU BKN076 18/09 Q1018 NOSIG,Day: 21st Time: 18:00 UTC Wind direction: 310 Wind speed: 6kt Temperature: 18C Dew point: 9C Pressure: 1018 hPa Visibility: 9999 m
ORY,LFPO,2019-05-21 17:30:00,LFPO 211730Z 31010KT 9999 FEW053TCU BKN080 BKN120 18/10 Q1018 NOSIG,Day: 21st Time: 17:30 UTC Wind direction: 310 Wind speed: 10kt Temperature: 18C Dew point: 10C Pressure: 1018 hPa Visibility: 9999 m
ORY,LFPO,2019-05-21 17:00:00,LFPO 211700Z 32009KT 300V360 9999 FEW050TCU BKN120 19/08 Q1018 NOSIG,Day: 21st Time: 17:00 UTC Wind direction: 320 Wind speed: 9kt Temperature: 19C Dew point: 8C Pressure: 1018 hPa Visibility: 9999 m
ORY,LFPO,2019-05-21 16:30:00,LFPO 211630Z 33009KT 300V010 9999 FEW040TCU BKN093 19/10 Q1018 NOSIG,Day: 21st Time: 16:30 UTC Wind direction: 330 Wind speed: 9kt Temperature: 19C Dew point: 10C Pressure: 1018 hPa Visibility: 9999 m
ORY,LFPO,2019-05-21 15:30:00,LFPO 211530Z 34003KT 9999 FEW036TCU SCT066 18/08 Q1018 NOSIG,Day: 21st Time: 15:30 UTC Wind direction: 340 Wind speed: 3kt Temperature: 18C Dew point: 8C Pressure: 1018 hPa Visibility: 9999 m
ORY,LFPO,2019-05-21 15:00:00,LFPO 211500Z 32010KT 9999 FEW036CB SCT040 18/09 Q1018 TEMPO -TSRA BKN035CB,Day: 21st Time: 15:00 UTC Wind direction: 320 Wind speed: 10kt Temperature: 18C Dew point: 9C Pressure: 1018 hPa Visibility: 9999 m
ORY,LFPO,2019-05-21 14:30:00,LFPO 211430Z 32009KT 280V050 9999 FEW040CB SCT066 20/11 Q1017 TEMPO -TSRA BKN035CB,Day: 21st Time: 14:30 UTC Wind direction: 320 Wind speed: 9kt Temperature: 20C Dew point: 11C Pressure: 1017 hPa Visibility: 9999 m
ORY,LFPO,2019-05-21 14:00:00,LFPO 211400Z 31006KT 270V030 9999 FEW040CB SCT066 19/10 Q1018 TEMPO -TSRA BKN035CB,Day: 21st Time: 14:00 UTC Wind direction: 310 Wind speed: 6kt Temperature: 19C Dew point: 10C Pressure: 1018 hPa Visibility: 9999 m
ORY,LFPO,2019-05-21 13:30:00,LFPO 211330Z 31007KT 9999 FEW040CB SCT073 BKN093 18/08 Q1018 TEMPO -TSRA BKN035CB,Day: 21st Time: 13:30 UTC Wind direction: 310 Wind speed: 7kt Temperature: 18C Dew point: 8C Pressure: 1018 hPa Visibility: 9999 m
ORY,LFPO,2019-05-21 13:00:00,LFPO 211300Z 33011KT 9999 FEW041TCU SCT073 BKN093 19/10 Q1017 TEMPO -TSRA BKN035CB,Day: 21st Time: 13:00 UTC Wind direction: 330 Wind speed: 11kt Temperature: 19C Dew point: 10C Pressure: 1017 hPa Visibility: 9999 m
ORY,LFPO,2019-05-21 12:30:00,LFPO 211230Z 01010KT 9999 FEW043CB SCT046 19/11 Q1017 TEMPO -TSRA BKN035CB,Day: 21st Time: 12:30 UTC Wind direction: 10 Wind speed: 10kt Temperature: 19C Dew point: 11C Pressure: 1017 hPa Visibility: 9999 m
ORY,LFPO,2019-05-21 12:00:00,LFPO 211200Z 34006KT 290V020 9999 FEW043CB SCT046 19/10 Q1017 TEMPO -TSRA BKN035CB,Day: 21st Time: 12:00 UTC Wind direction: 340 Wind speed: 6kt Temperature: 19C Dew point: 10C Pressure: 1017 hPa Visibility: 9999 m
ORY,LFPO,2019-05-21 11:30:00,LFPO 211130Z 33008KT 290V040 9999 FEW043TCU SCT046 19/09 Q1017 NOSIG,Day: 21st Time: 11:30 UTC Wind direction: 330 Wind speed: 8kt Temperature: 19C Dew point: 9C Pressure: 1017 hPa Visibility: 9999 m
ORY,LFPO,2019-05-21 11:00:00,LFPO 211100Z 32005KT 280V040 9999 FEW040TCU SCT046 20/10 Q1017 NOSIG,Day: 21st Time: 11:00 UTC Wind direction: 320 Wind speed: 5kt Temperature: 20C Dew point: 10C Pressure: 1017 hPa Visibility: 9999 m
ORY,LFPO,2019-05-21 10:30:00,LFPO 211030Z 32006G16KT 270V010 9999 SCT040 19/10 Q1017 NOSIG,Day: 21st Time: 10:30 UTC Wind direction: 320 Wind speed: 6kt Wind gust: 16kt Temperature: 19C Dew point: 10C Pressure: 1017 hPa Visibility: 9999 m
ORY,LFPO,2019-05-21 10:00:00,LFPO 211000Z 35007KT 300V030 9999 FEW033 19/10 Q1017 NOSIG,Day: 21st Time: 10:00 UTC Wind direction: 350 Wind speed: 7kt Temperature: 19C Dew point: 10C Pressure: 1017 hPa Visibility: 9999 m
ORY,LFPO,2019-05-21 09:30:00,LFPO 210930Z 36008KT 310V050 9999 FEW031 19/11 Q1017 NOSIG,Day: 21st Time: 09:30 UTC Wind direction: 360 Wind speed: 8kt Temperature: 19C Dew point: 11C Pressure: 1017 hPa Visibility: 9999 m
ORY,LFPO,2019-05-21 09:00:00,LFPO 210900Z 34006KT 290V030 9999 FEW031 18/11 Q1017 NOSIG,Day: 21st Time: 09:00 UTC Wind direction: 340 Wind speed: 6kt Temperature: 18C Dew point: 11C Pressure: 1017 hPa Visibility: 9999 m
ORY,LFPO,2019-05-21 08:30:00,LFPO 210830Z 36006KT 310V120 9999 FEW028 18/11 Q1017 NOSIG,Day: 21st Time: 08:30 UTC Wind direction: 360 Wind speed: 6kt Temperature: 18C Dew point: 11C Pressure: 1017 hPa Visibility: 9999 m
ORY,LFPO,2019-05-21 08:00:00,LFPO 210800Z 33006KT 310V010 CAVOK 17/10 Q1017 NOSIG,Day: 21st Time: 08:00 UTC Wind direction: 330 Wind speed: 6kt Temperature: 17C Dew point: 10C Pressure: 1017 hPa Visibility: Sky and visibility OK
ORY,LFPO,2019-05-21 07:30:00,LFPO 210730Z 33007KT CAVOK 16/11 Q1017 NOSIG,Day: 21st Time: 07:30 UTC Wind direction: 330 Wind speed: 7kt Temperature: 16C Dew point: 11C Pressure: 1017 hPa Visibility: Sky and visibility OK
ORY,LFPO,2019-05-21 07:00:00,LFPO 210700Z 34004KT 300V020 CAVOK 15/10 Q1016 NOSIG,Day: 21st Time: 07:00 UTC Wind direction: 340 Wind speed: 4kt Temperature: 15C Dew point: 10C Pressure: 1016 hPa Visibility: Sky and visibility OK
ORY,LFPO,2019-05-21 06:30:00,LFPO 210630Z 30003KT 270V010 CAVOK 14/10 Q1016 NOSIG,Day: 21st Time: 06:30 UTC Wind direction: 300 Wind speed: 3kt Temperature: 14C Dew point: 10C Pressure: 1016 hPa Visibility: Sky and visibility OK
ORY,LFPO,2019-05-21 06:00:00,LFPO 210600Z 31005KT 290V350 CAVOK 13/09 Q1016 NOSIG,Day: 21st Time: 06:00 UTC Wind direction: 310 Wind speed: 5kt Temperature: 13C Dew point: 9C Pressure: 1016 hPa Visibility: Sky and visibility OK
ORY,LFPO,2019-05-21 05:30:00,LFPO 210530Z 30006KT CAVOK 12/09 Q1016 NOSIG,Day: 21st Time: 05:30 UTC Wind direction: 300 Wind speed: 6kt Temperature: 12C Dew point: 9C Pressure: 1016 hPa Visibility: Sky and visibility OK
ORY,LFPO,2019-05-21 05:00:00,LFPO 210500Z 29004KT CAVOK 11/09 Q1016 NOSIG,Day: 21st Time: 05:00 UTC Wind direction: 290 Wind speed: 4kt Temperature: 11C Dew point: 9C Pressure: 1016 hPa Visibility: Sky and visibility OK
ORY,LFPO,2019-05-21 04:30:00,LFPO 210430Z 28003KT CAVOK 10/08 Q1015 NOSIG,Day: 21st Time: 04:30 UTC Wind direction: 280 Wind speed: 3kt Temperature: 10C Dew point: 8C Pressure: 1015 hPa Visibility: Sky and visibility OK
ORY,LFPO,2019-05-21 04:00:00,LFPO 210400Z 33005KT CAVOK 10/07 Q1015 NOSIG,Day: 21st Time: 04:00 UTC Wind direction: 330 Wind speed: 5kt Temperature: 10C Dew point: 7C Pressure: 1015 hPa Visibility: Sky and visibility OK
ORY,LFPO,2019-05-21 03:30:00,LFPO 210330Z 33004KT 300V360 CAVOK 11/08 Q1015 NOSIG,Day: 21st Time: 03:30 UTC Wind direction: 330 Wind speed: 4kt Temperature: 11C Dew point: 8C Pressure: 1015 hPa Visibility: Sky and visibility OK
ORY,LFPO,2019-05-21 02:30:00,LFPO 210230Z 31005KT 290V350 CAVOK 11/09 Q1015 NOSIG,Day: 21st Time: 02:30 UTC Wind direction: 310 Wind speed: 5kt Temperature: 11C Dew point: 9C Pressure: 1015 hPa Visibility: Sky and visibility OK
ORY,LFPO,2019-05-21 02:00:00,LFPO 210200Z 29004KT CAVOK 11/09 Q1015 NOSIG,Day: 21st Time: 02:00 UTC Wind direction: 290 Wind speed: 4kt Temperature: 11C Dew point: 9C Pressure: 1015 hPa Visibility: Sky and visibility OK
ORY,LFPO,2019-05-21 01:30:00,LFPO 210130Z 29004KT CAVOK 12/09 Q1015 NOSIG,Day: 21st Time: 01:30 UTC Wind direction: 290 Wind speed: 4kt Temperature: 12C Dew point: 9C Pressure: 1015 hPa Visibility: Sky and visibility OK
ORY,LFPO,2019-05-21 01:00:00,LFPO 210100Z 29004KT CAVOK 13/09 Q1015 NOSIG,Day: 21st Time: 01:00 UTC Wind direction: 290 Wind speed: 4kt Temperature: 13C Dew point: 9C Pressure: 1015 hPa Visibility: Sky and visibility OK
ORY,LFPO,2019-05-21 00:30:00,LFPO 210030Z 30005KT CAVOK 13/09 Q1015 NOSIG,Day: 21st Time: 00:30 UTC Wind direction: 300 Wind speed: 5kt Temperature: 13C Dew point: 9C Pressure: 1015 hPa Visibility: Sky and visibility OK
ORY,LFPO,2019-05-21 00:00:00,LFPO 210000Z 33004KT 9999 FEW029 BKN065 13/09 Q1015 NOSIG,Day: 21st Time: 00:00 UTC Wind direction: 330 Wind speed: 4kt Temperature: 13C Dew point: 9C Pressure: 1015 hPa Visibility: 9999 m
BVA,LFOB,2019-05-21 23:30:00,LFOB 212330Z AUTO 26002KT CAVOK 07/05 Q1020 NOSIG,Day: 21st Time: 23:30 UTC Wind direction: 260 Wind speed: 2kt Temperature: 7C Dew point: 5C Pressure: 1020 hPa Visibility: Sky and visibility OK
BVA,LFOB,2019-05-21 23:00:00,LFOB 212300Z AUTO 00000KT CAVOK 08/07 Q1020 NOSIG,Day: 21st Time: 23:00 UTC Wind direction: 0 Wind speed: 0kt Temperature: 8C Dew point: 7C Pressure: 1020 hPa Visibility: Sky and visibility OK
BVA,LFOB,2019-05-21 22:30:00,LFOB 212230Z AUTO 29003KT CAVOK 08/06 Q1020 NOSIG,Day: 21st Time: 22:30 UTC Wind direction: 290 Wind speed: 3kt Temperature: 8C Dew point: 6C Pressure: 1020 hPa Visibility: Sky and visibility OK
BVA,LFOB,2019-05-21 22:00:00,LFOB 212200Z AUTO 31003KT CAVOK 08/06 Q1020 NOSIG,Day: 21st Time: 22:00 UTC Wind direction: 310 Wind speed: 3kt Temperature: 8C Dew point: 6C Pressure: 1020 hPa Visibility: Sky and visibility OK
BVA,LFOB,2019-05-21 21:30:00,LFOB 212130Z AUTO 33004KT 9999 FEW049 09/07 Q1020 NOSIG,Day: 21st Time: 21:30 UTC Wind direction: 330 Wind speed: 4kt Temperature: 9C Dew point: 7C Pressure: 1020 hPa Visibility: 9999 m
BVA,LFOB,2019-05-21 21:00:00,LFOB 212100Z AUTO 34005KT CAVOK 10/07 Q1020 NOSIG,Day: 21st Time: 21:00 UTC Wind direction: 340 Wind speed: 5kt Temperature: 10C Dew point: 7C Pressure: 1020 hPa Visibility: Sky and visibility OK
BVA,LFOB,2019-05-21 20:30:00,LFOB 212030Z AUTO 32005KT CAVOK 10/08 Q1020 NOSIG,Day: 21st Time: 20:30 UTC Wind direction: 320 Wind speed: 5kt Temperature: 10C Dew point: 8C Pressure: 1020 hPa Visibility: Sky and visibility OK
BVA,LFOB,2019-05-21 20:00:00,LFOB 212000Z AUTO 33005KT CAVOK 12/08 Q1019 NOSIG,Day: 21st Time: 20:00 UTC Wind direction: 330 Wind speed: 5kt Temperature: 12C Dew point: 8C Pressure: 1019 hPa Visibility: Sky and visibility OK
BVA,LFOB,2019-05-21 19:30:00,LFOB 211930Z AUTO 32005KT CAVOK 14/08 Q1019 NOSIG,Day: 21st Time: 19:30 UTC Wind direction: 320 Wind speed: 5kt Temperature: 14C Dew point: 8C Pressure: 1019 hPa Visibility: Sky and visibility OK
BVA,LFOB,2019-05-21 19:00:00,LFOB 211900Z AUTO 34006KT CAVOK 16/08 Q1019 NOSIG,Day: 21st Time: 19:00 UTC Wind direction: 340 Wind speed: 6kt Temperature: 16C Dew point: 8C Pressure: 1019 hPa Visibility: Sky and visibility OK
BVA,LFOB,2019-05-21 18:30:00,LFOB 211830Z AUTO 34009KT CAVOK 18/08 Q1018 NOSIG,Day: 21st Time: 18:30 UTC Wind direction: 340 Wind speed: 9kt Temperature: 18C Dew point: 8C Pressure: 1018 hPa Visibility: Sky and visibility OK
BVA,LFOB,2019-05-21 18:00:00,LFOB 211800Z AUTO 34009KT CAVOK 18/07 Q1018 NOSIG,Day: 21st Time: 18:00 UTC Wind direction: 340 Wind speed: 9kt Temperature: 18C Dew point: 7C Pressure: 1018 hPa Visibility: Sky and visibility OK
BVA,LFOB,2019-05-21 17:30:00,LFOB 211730Z AUTO 33009KT CAVOK 19/07 Q1018 NOSIG,Day: 21st Time: 17:30 UTC Wind direction: 330 Wind speed: 9kt Temperature: 19C Dew point: 7C Pressure: 1018 hPa Visibility: Sky and visibility OK
BVA,LFOB,2019-05-21 17:00:00,LFOB 211700Z AUTO 33010KT CAVOK 19/07 Q1018 NOSIG,Day: 21st Time: 17:00 UTC Wind direction: 330 Wind speed: 10kt Temperature: 19C Dew point: 7C Pressure: 1018 hPa Visibility: Sky and visibility OK
BVA,LFOB,2019-05-21 16:30:00,LFOB 211630Z AUTO 34011KT 320V020 CAVOK 20/08 Q1018 NOSIG,Day: 21st Time: 16:30 UTC Wind direction: 340 Wind speed: 11kt Temperature: 20C Dew point: 8C Pressure: 1018 hPa Visibility: Sky and visibility OK
BVA,LFOB,2019-05-21 16:00:00,LFOB 211600Z AUTO 33010KT CAVOK 19/08 Q1018 NOSIG,Day: 21st Time: 16:00 UTC Wind direction: 330 Wind speed: 10kt Temperature: 19C Dew point: 8C Pressure: 1018 hPa Visibility: Sky and visibility OK
BVA,LFOB,2019-05-21 15:30:00,LFOB 211530Z AUTO 33011KT CAVOK 21/08 Q1018 NOSIG,Day: 21st Time: 15:30 UTC Wind direction: 330 Wind speed: 11kt Temperature: 21C Dew point: 8C Pressure: 1018 hPa Visibility: Sky and visibility OK
BVA,LFOB,2019-05-21 15:00:00,LFOB 211500Z AUTO 33010KT 310V030 CAVOK 20/07 Q1017 TEMPO 4000 SHRA BKN030TCU,Day: 21st Time: 15:00 UTC Wind direction: 330 Wind speed: 10kt Temperature: 20C Dew point: 7C Pressure: 1017 hPa Visibility: Sky and visibility OK
BVA,LFOB,2019-05-21 14:30:00,LFOB 211430Z AUTO 32011KT CAVOK 20/08 Q1017 TEMPO 4000 SHRA BKN030TCU,Day: 21st Time: 14:30 UTC Wind direction: 320 Wind speed: 11kt Temperature: 20C Dew point: 8C Pressure: 1017 hPa Visibility: Sky and visibility OK
BVA,LFOB,2019-05-21 14:00:00,LFOB 211400Z AUTO 35007KT 320V050 CAVOK 20/09 Q1017 TEMPO 4000 SHRA BKN030TCU,Day: 21st Time: 14:00 UTC Wind direction: 350 Wind speed: 7kt Temperature: 20C Dew point: 9C Pressure: 1017 hPa Visibility: Sky and visibility OK
BVA,LFOB,2019-05-21 13:30:00,LFOB 211330Z AUTO 35006KT 320V050 9999 FEW045/// BKN078/// BKN090/// ///TCU 20/10 Q1017 TEMPO 4000 SHRA,Day: 21st Time: 13:30 UTC Wind direction: 350 Wind speed: 6kt Visibility: 9999 m
BVA,LFOB,2019-05-21 13:00:00,LFOB 211300Z AUTO 30004KT 250V340 CAVOK 19/10 Q1017 TEMPO 4000 SHRA BKN030TCU,Day: 21st Time: 13:00 UTC Wind direction: 300 Wind speed: 4kt Temperature: 19C Dew point: 10C Pressure: 1017 hPa Visibility: Sky and visibility OK
BVA,LFOB,2019-05-21 12:30:00,LFOB 211230Z AUTO 33007KT 310V010 9999 FEW035/// BKN076/// OVC098/// ///CB 18/09 Q1017 TEMPO 4000 SHRA,Day: 21st Time: 12:30 UTC Wind direction: 330 Wind speed: 7kt Visibility: 9999 m
BVA,LFOB,2019-05-21 12:00:00,LFOB 211200Z AUTO 34008KT 310V030 CAVOK 19/10 Q1017 TEMPO 4000 SHRA BKN030TCU,Day: 21st Time: 12:00 UTC Wind direction: 340 Wind speed: 8kt Temperature: 19C Dew point: 10C Pressure: 1017 hPa Visibility: Sky and visibility OK
BVA,LFOB,2019-05-21 11:30:00,LFOB 211130Z AUTO 34009KT 320V020 9999 FEW046 BKN070 OVC088 19/09 Q1017 TEMPO 4000 SHRA BKN030TCU,Day: 21st Time: 11:30 UTC Wind direction: 340 Wind speed: 9kt Temperature: 19C Dew point: 9C Pressure: 1017 hPa Visibility: 9999 m
BVA,LFOB,2019-05-21 11:00:00,LFOB 211100Z AUTO 36009KT 320V060 9999 SCT044 BKN090 20/10 Q1017 TEMPO 4000 SHRA BKN030TCU,Day: 21st Time: 11:00 UTC Wind direction: 360 Wind speed: 9kt Temperature: 20C Dew point: 10C Pressure: 1017 hPa Visibility: 9999 m
BVA,LFOB,2019-05-21 10:30:00,LFOB 211030Z AUTO 35010KT 330V080 9999 FEW043 SCT058 20/10 Q1017 TEMPO 4000 SHRA BKN030TCU,Day: 21st Time: 10:30 UTC Wind direction: 350 Wind speed: 10kt Temperature: 20C Dew point: 10C Pressure: 1017 hPa Visibility: 9999 m
BVA,LFOB,2019-05-21 10:00:00,LFOB 211000Z AUTO 32007KT 9999 BKN037 BKN048 19/11 Q1017 TEMPO 4000 SHRA BKN030TCU,Day: 21st Time: 10:00 UTC Wind direction: 320 Wind speed: 7kt Temperature: 19C Dew point: 11C Pressure: 1017 hPa Visibility: 9999 m
BVA,LFOB,2019-05-21 09:30:00,LFOB 210930Z AUTO 34008KT 310V040 9999 FEW034 SCT040 19/11 Q1017 TEMPO 4000 SHRA BKN030TCU,Day: 21st Time: 09:30 UTC Wind direction: 340 Wind speed: 8kt Temperature: 19C Dew point: 11C Pressure: 1017 hPa Visibility: 9999 m
BVA,LFOB,2019-05-21 09:00:00,LFOB 210900Z AUTO 35009KT 320V040 9999 FEW022 SCT030 BKN096 18/12 Q1017 TEMPO 4000 SHRA BKN030TCU,Day: 21st Time: 09:00 UTC Wind direction: 350 Wind speed: 9kt Temperature: 18C Dew point: 12C Pressure: 1017 hPa Visibility: 9999 m
BVA,LFOB,2019-05-21 08:30:00,LFOB 210830Z AUTO 32003KT 250V010 8000 FEW027 BKN096 17/13 Q1017 TEMPO 4000 SHRA BKN030TCU,Day: 21st Time: 08:30 UTC Wind direction: 320 Wind speed: 3kt Temperature: 17C Dew point: 13C Pressure: 1017 hPa Visibility: 8000 m
BVA,LFOB,2019-05-21 08:00:00,LFOB 210800Z AUTO 32005KT 290V350 6000 FEW007 BKN098 15/12 Q1017 TEMPO 4000 SHRA BKN030TCU,Day: 21st Time: 08:00 UTC Wind direction: 320 Wind speed: 5kt Temperature: 15C Dew point: 12C Pressure: 1017 hPa Visibility: 6000 m
BVA,LFOB,2019-05-21 07:30:00,LFOB 210730Z AUTO 29007KT 4800 BR NSC 13/11 Q1017 TEMPO 9999 NSW BKN030TCU,Day: 21st Time: 07:30 UTC Wind direction: 290 Wind speed: 7kt Temperature: 13C Dew point: 11C Pressure: 1017 hPa Visibility: 4800 m
BVA,LFOB,2019-05-21 07:00:00,LFOB 210700Z AUTO 30008KT 4300 BR NSC 12/11 Q1016 BECMG 9999 NSW,Day: 21st Time: 07:00 UTC Wind direction: 300 Wind speed: 8kt Temperature: 12C Dew point: 11C Pressure: 1016 hPa Visibility: 4300 m
BVA,LFOB,2019-05-21 06:30:00,LFOB 210630Z AUTO 30004KT 4000 BR NSC 11/10 Q1016 BECMG 9999 NSW,Day: 21st Time: 06:30 UTC Wind direction: 300 Wind speed: 4kt Temperature: 11C Dew point: 10C Pressure: 1016 hPa Visibility: 4000 m
BVA,LFOB,2019-05-21 06:00:00,LFOB 210600Z AUTO VRB03KT 3900 BR NSC 11/10 Q1016 BECMG 9999 NSW,Day: 21st Time: 06:00 UTC Wind speed: 3kt Temperature: 11C Dew point: 10C Pressure: 1016 hPa Visibility: 3900 m
BVA,LFOB,2019-05-21 05:30:00,LFOB 210530Z AUTO VRB02KT 3500 BR NSC 10/09 Q1016 BECMG 9999 NSW,Day: 21st Time: 05:30 UTC Wind speed: 2kt Temperature: 10C Dew point: 9C Pressure: 1016 hPa Visibility: 3500 m
BVA,LFOB,2019-05-21 05:00:00,LFOB 210500Z AUTO 00000KT 3500 BR NSC 07/06 Q1015 TEMPO VV/// BECMG 9999 NSW,Day: 21st Time: 05:00 UTC Wind direction: 0 Wind speed: 0kt Temperature: 7C Dew point: 6C Pressure: 1015 hPa Visibility: 3500 m
BVA,LFOB,2019-05-21 04:30:00,LFOB 210430Z AUTO 28002KT 3600 BR NSC 07/07 Q1015 TEMPO VV/// BECMG 9999 NSW,Day: 21st Time: 04:30 UTC Wind direction: 280 Wind speed: 2kt Temperature: 7C Dew point: 7C Pressure: 1015 hPa Visibility: 3600 m
BVA,LFOB,2019-05-21 04:00:00,LFOB 210400Z AUTO 26003KT 4300 BR NSC 07/07 Q1015 TEMPO 0500 FG VV///,Day: 21st Time: 04:00 UTC Wind direction: 260 Wind speed: 3kt Temperature: 7C Dew point: 7C Pressure: 1015 hPa Visibility: 4300 m
BVA,LFOB,2019-05-21 03:30:00,LFOB 210330Z AUTO 27003KT 5000 BR NSC 07/07 Q1015 TEMPO 0500 FG VV///,Day: 21st Time: 03:30 UTC Wind direction: 270 Wind speed: 3kt Temperature: 7C Dew point: 7C Pressure: 1015 hPa Visibility: 5000 m
BVA,LFOB,2019-05-21 03:00:00,LFOB 210300Z AUTO VRB03KT 5000 BR NSC 07/07 Q1015 TEMPO 0500 FG VV///,Day: 21st Time: 03:00 UTC Wind speed: 3kt Temperature: 7C Dew point: 7C Pressure: 1015 hPa Visibility: 5000 m
BVA,LFOB,2019-05-21 02:30:00,LFOB 210230Z AUTO VRB02KT 6000 NSC 07/06 Q1015 TEMPO 0500 FG VV///,Day: 21st Time: 02:30 UTC Wind speed: 2kt Temperature: 7C Dew point: 6C Pressure: 1015 hPa Visibility: 6000 m
BVA,LFOB,2019-05-21 02:00:00,LFOB 210200Z AUTO 30006KT 6000 NSC 07/06 Q1015 BECMG 3000 BR,Day: 21st Time: 02:00 UTC Wind direction: 300 Wind speed: 6kt Temperature: 7C Dew point: 6C Pressure: 1015 hPa Visibility: 6000 m
BVA,LFOB,2019-05-21 01:30:00,LFOB 210130Z AUTO 30006KT 6000 NSC 07/07 Q1015 BECMG 3000 BR,Day: 21st Time: 01:30 UTC Wind direction: 300 Wind speed: 6kt Temperature: 7C Dew point: 7C Pressure: 1015 hPa Visibility: 6000 m
BVA,LFOB,2019-05-21 01:00:00,LFOB 210100Z AUTO 29003KT 5000 BR NSC 07/06 Q1015 NOSIG,Day: 21st Time: 01:00 UTC Wind direction: 290 Wind speed: 3kt Temperature: 7C Dew point: 6C Pressure: 1015 hPa Visibility: 5000 m
BVA,LFOB,2019-05-21 00:30:00,LFOB 210030Z AUTO 26004KT 6000 NSC 08/07 Q1015 BECMG 3000 BR,Day: 21st Time: 00:30 UTC Wind direction: 260 Wind speed: 4kt Temperature: 8C Dew point: 7C Pressure: 1015 hPa Visibility: 6000 m
BVA,LFOB,2019-05-21 00:00:00,LFOB 210000Z AUTO 24002KT 5000 BR NSC 08/07 Q1015 NOSIG,Day: 21st Time: 00:00 UTC Wind direction: 240 Wind speed: 2kt Temperature: 8C Dew point: 7C Pressure: 1015 hPa Visibility: 5000 m
FRA,EDDF,2019-05-21 23:50:00,EDDF 212350Z 27008KT 240V330 9999 FEW012 BKN017 13/10 Q1016 TEMPO BKN012,Day: 21st Time: 23:50 UTC Wind direction: 270 Wind speed: 8kt Temperature: 13C Dew point: 10C Pressure: 1016 hPa Visibility: 9999 m
FRA,EDDF,2019-05-21 23:20:00,EDDF 212320Z 28010KT 9999 FEW012 BKN017 13/10 Q1016 TEMPO BKN012,Day: 21st Time: 23:20 UTC Wind direction: 280 Wind speed: 10kt Temperature: 13C Dew point: 10C Pressure: 1016 hPa Visibility: 9999 m
FRA,EDDF,2019-05-21 22:50:00,EDDF 212250Z 29009KT 9999 FEW012 BKN017 13/10 Q1016 TEMPO BKN012,Day: 21st Time: 22:50 UTC Wind direction: 290 Wind speed: 9kt Temperature: 13C Dew point: 10C Pressure: 1016 hPa Visibility: 9999 m
FRA,EDDF,2019-05-21 22:20:00,EDDF 212220Z 29009KT 260V320 9999 FEW012 BKN016 13/10 Q1016 TEMPO BKN012,Day: 21st Time: 22:20 UTC Wind direction: 290 Wind speed: 9kt Temperature: 13C Dew point: 10C Pressure: 1016 hPa Visibility: 9999 m
FRA,EDDF,2019-05-21 21:50:00,EDDF 212150Z 28008KT 9999 FEW012 BKN017 13/10 Q1016 TEMPO BKN012,Day: 21st Time: 21:50 UTC Wind direction: 280 Wind speed: 8kt Temperature: 13C Dew point: 10C Pressure: 1016 hPa Visibility: 9999 m
FRA,EDDF,2019-05-21 21:20:00,EDDF 212120Z 30006KT 280V340 9999 -RA FEW012 BKN017 12/11 Q1016 TEMPO BKN012,Day: 21st Time: 21:20 UTC Wind direction: 300 Wind speed: 6kt Temperature: 12C Dew point: 11C Pressure: 1016 hPa Visibility: 9999 m
FRA,EDDF,2019-05-21 20:50:00,EDDF 212050Z 29009KT 9999 -RA FEW012 BKN016 13/10 Q1016 TEMPO BKN012,Day: 21st Time: 20:50 UTC Wind direction: 290 Wind speed: 9kt Temperature: 13C Dew point: 10C Pressure: 1016 hPa Visibility: 9999 m
FRA,EDDF,2019-05-21 20:20:00,EDDF 212020Z 30008KT 260V330 9999 -RA FEW012 BKN016 13/10 Q1016 TEMPO BKN012,Day: 21st Time: 20:20 UTC Wind direction: 300 Wind speed: 8kt Temperature: 13C Dew point: 10C Pressure: 1016 hPa Visibility: 9999 m
FRA,EDDF,2019-05-21 19:50:00,EDDF 211950Z 31007KT 280V340 9999 -RA FEW012 BKN015 BKN028 13/10 Q1015 NOSIG,Day: 21st Time: 19:50 UTC Wind direction: 310 Wind speed: 7kt Temperature: 13C Dew point: 10C Pressure: 1015 hPa Visibility: 9999 m
FRA,EDDF,2019-05-21 19:20:00,EDDF 211920Z 30008KT 270V330 9999 FEW012 BKN015 BKN028 13/10 Q1015 NOSIG,Day: 21st Time: 19:20 UTC Wind direction: 300 Wind speed: 8kt Temperature: 13C Dew point: 10C Pressure: 1015 hPa Visibility: 9999 m
FRA,EDDF,2019-05-21 18:50:00,EDDF 211850Z 30006KT 230V340 9999 -RA FEW012 BKN015 BKN030 13/10 Q1015 NOSIG,Day: 21st Time: 18:50 UTC Wind direction: 300 Wind speed: 6kt Temperature: 13C Dew point: 10C Pressure: 1015 hPa Visibility: 9999 m
FRA,EDDF,2019-05-21 18:20:00,EDDF 211820Z 29008KT 230V320 9999 FEW012 BKN015 13/10 Q1014 NOSIG,Day: 21st Time: 18:20 UTC Wind direction: 290 Wind speed: 8kt Temperature: 13C Dew point: 10C Pressure: 1014 hPa Visibility: 9999 m
FRA,EDDF,2019-05-21 17:50:00,EDDF 211750Z 29006KT 250V340 9999 FEW012 SCT013 BKN015 13/10 Q1014 NOSIG,Day: 21st Time: 17:50 UTC Wind direction: 290 Wind speed: 6kt Temperature: 13C Dew point: 10C Pressure: 1014 hPa Visibility: 9999 m
FRA,EDDF,2019-05-21 17:20:00,EDDF 211720Z 29011KT 250V310 9999 VCSH FEW012 FEW013TCU BKN014 13/11 Q1013 NOSIG,Day: 21st Time: 17:20 UTC Wind direction: 290 Wind speed: 11kt Temperature: 13C Dew point: 11C Pressure: 1013 hPa Visibility: 9999 m
FRA,EDDF,2019-05-21 16:50:00,EDDF 211650Z 30010KT 9999 -SHRA FEW012 FEW013TCU BKN014 13/11 Q1013 NOSIG,Day: 21st Time: 16:50 UTC Wind direction: 300 Wind speed: 10kt Temperature: 13C Dew point: 11C Pressure: 1013 hPa Visibility: 9999 m
FRA,EDDF,2019-05-21 16:20:00,EDDF 211620Z 30009KT 270V330 9999 -SHRA FEW012 FEW013TCU BKN014 13/11 Q1013 NOSIG,Day: 21st Time: 16:20 UTC Wind direction: 300 Wind speed: 9kt Temperature: 13C Dew point: 11C Pressure: 1013 hPa Visibility: 9999 m
FRA,EDDF,2019-05-21 15:50:00,EDDF 211550Z 29009KT 230V320 9999 VCSH FEW012 FEW013TCU BKN015 13/11 Q1013 TEMPO BKN014,Day: 21st Time: 15:50 UTC Wind direction: 290 Wind speed: 9kt Temperature: 13C Dew point: 11C Pressure: 1013 hPa Visibility: 9999 m
FRA,EDDF,2019-05-21 15:20:00,EDDF 211520Z 30013KT 260V320 9999 -SHRA FEW012 SCT015CB BKN018 13/11 Q1013 NOSIG,Day: 21st Time: 15:20 UTC Wind direction: 300 Wind speed: 13kt Temperature: 13C Dew point: 11C Pressure: 1013 hPa Visibility: 9999 m
FRA,EDDF,2019-05-21 14:50:00,EDDF 211450Z 29012KT 9999 -SHRA FEW012 SCT015CB BKN018 13/11 Q1012 NOSIG,Day: 21st Time: 14:50 UTC Wind direction: 290 Wind speed: 12kt Temperature: 13C Dew point: 11C Pressure: 1012 hPa Visibility: 9999 m
FRA,EDDF,2019-05-21 14:20:00,EDDF 211420Z 29009KT 260V330 9999 -SHRA FEW012 SCT015CB BKN018 13/11 Q1012 NOSIG,Day: 21st Time: 14:20 UTC Wind direction: 290 Wind speed: 9kt Temperature: 13C Dew point: 11C Pressure: 1012 hPa Visibility: 9999 m
FRA,EDDF,2019-05-21 13:50:00,EDDF 211350Z 30012KT 9999 VCSH FEW012 FEW016CB BKN018 14/10 Q1012 NOSIG,Day: 21st Time: 13:50 UTC Wind direction: 300 Wind speed: 12kt Temperature: 14C Dew point: 10C Pressure: 1012 hPa Visibility: 9999 m
FRA,EDDF,2019-05-21 13:20:00,EDDF 211320Z 29013KT 9999 -SHRA FEW012 FEW016CB BKN018 14/10 Q1011 NOSIG,Day: 21st Time: 13:20 UTC Wind direction: 290 Wind speed: 13kt Temperature: 14C Dew point: 10C Pressure: 1011 hPa Visibility: 9999 m
FRA,EDDF,2019-05-21 12:50:00,EDDF 211250Z 31016KT 260V330 9999 -SHRA FEW012 FEW016CB BKN019 14/10 Q1011 NOSIG,Day: 21st Time: 12:50 UTC Wind direction: 310 Wind speed: 16kt Temperature: 14C Dew point: 10C Pressure: 1011 hPa Visibility: 9999 m
FRA,EDDF,2019-05-21 12:20:00,EDDF 211220Z 30012KT 250V330 9999 -SHRA FEW012 SCT016CB BKN019 14/10 Q1010 TEMPO 29015G25KT SHRA BKN012,Day: 21st Time: 12:20 UTC Wind direction: 300 Wind speed: 12kt Temperature: 14C Dew point: 10C Pressure: 1010 hPa Visibility: 9999 m
FRA,EDDF,2019-05-21 11:50:00,EDDF 211150Z 31012G25KT 250V350 9999 -SHRA FEW016 BKN019CB 15/11 Q1010 TEMPO 29015G25KT SHRA BKN012,Day: 21st Time: 11:50 UTC Wind direction: 310 Wind speed: 12kt Wind gust: 25kt Temperature: 15C Dew point: 11C Pressure: 1010 hPa Visibility: 9999 m
FRA,EDDF,2019-05-21 11:20:00,EDDF 211120Z 31011KT 260V340 9999 -SHRA BKN019CB 15/11 Q1010 TEMPO 29015G25KT SHRA BKN012,Day: 21st Time: 11:20 UTC Wind direction: 310 Wind speed: 11kt Temperature: 15C Dew point: 11C Pressure: 1010 hPa Visibility: 9999 m
FRA,EDDF,2019-05-21 10:50:00,EDDF 211050Z 29012KT 260V320 9999 VCSH SCT019TCU BKN049 14/11 Q1009 TEMPO 29015G25KT SHRA BKN012,Day: 21st Time: 10:50 UTC Wind direction: 290 Wind speed: 12kt Temperature: 14C Dew point: 11C Pressure: 1009 hPa Visibility: 9999 m
FRA,EDDF,2019-05-21 10:20:00,EDDF 211020Z 29014KT 260V320 9999 -SHRA BKN017TCU 14/11 Q1009 TEMPO 29015G25KT SHRA BKN012,Day: 21st Time: 10:20 UTC Wind direction: 290 Wind speed: 14kt Temperature: 14C Dew point: 11C Pressure: 1009 hPa Visibility: 9999 m
FRA,EDDF,2019-05-21 09:50:00,EDDF 210950Z 28010KT 240V320 9999 VCSH BKN016TCU 14/11 Q1009 TEMPO 29015G25KT SHRA BKN012,Day: 21st Time: 09:50 UTC Wind direction: 280 Wind speed: 10kt Temperature: 14C Dew point: 11C Pressure: 1009 hPa Visibility: 9999 m
FRA,EDDF,2019-05-21 09:20:00,EDDF 210920Z 29010KT 230V340 9999 VCSH SCT015 SCT022 14/11 Q1008 TEMPO RA BKN012,Day: 21st Time: 09:20 UTC Wind direction: 290 Wind speed: 10kt Temperature: 14C Dew point: 11C Pressure: 1008 hPa Visibility: 9999 m
FRA,EDDF,2019-05-21 08:50:00,EDDF 210850Z 29007KT 240V330 9999 FEW008 SCT015 13/11 Q1008 TEMPO RA BKN012,Day: 21st Time: 08:50 UTC Wind direction: 290 Wind speed: 7kt Temperature: 13C Dew point: 11C Pressure: 1008 hPa Visibility: 9999 m
FRA,EDDF,2019-05-21 08:20:00,EDDF 210820Z 29012KT 250V330 9999 -RA FEW008 BKN016 13/11 Q1007 TEMPO RA BKN012,Day: 21st Time: 08:20 UTC Wind direction: 290 Wind speed: 12kt Temperature: 13C Dew point: 11C Pressure: 1007 hPa Visibility: 9999 m
FRA,EDDF,2019-05-21 07:50:00,EDDF 210750Z 30009KT 230V330 9999 FEW008 SCT015 BKN049 13/11 Q1007 TEMPO RA BKN012,Day: 21st Time: 07:50 UTC Wind direction: 300 Wind speed: 9kt Temperature: 13C Dew point: 11C Pressure: 1007 hPa Visibility: 9999 m
FRA,EDDF,2019-05-21 07:20:00,EDDF 210720Z 29010KT 260V320 9999 FEW008 BKN015 BKN045 13/11 Q1007 TEMPO RA BKN012,Day: 21st Time: 07:20 UTC Wind direction: 290 Wind speed: 10kt Temperature: 13C Dew point: 11C Pressure: 1007 hPa Visibility: 9999 m
FRA,EDDF,2019-05-21 06:50:00,EDDF 210650Z 29012KT 240V320 9999 -RA FEW008 BKN015 13/11 Q1007 TEMPO RA BKN012,Day: 21st Time: 06:50 UTC Wind direction: 290 Wind speed: 12kt Temperature: 13C Dew point: 11C Pressure: 1007 hPa Visibility: 9999 m
FRA,EDDF,2019-05-21 06:20:00,EDDF 210620Z 27011KT 9999 -RA FEW008 BKN016 12/11 Q1006 TEMPO RA BKN012,Day: 21st Time: 06:20 UTC Wind direction: 270 Wind speed: 11kt Temperature: 12C Dew point: 11C Pressure: 1006 hPa Visibility: 9999 m
FRA,EDDF,2019-05-21 05:50:00,EDDF 210550Z 25011KT 9999 -RA FEW008 BKN016 12/11 Q1006 RERA TEMPO RA BKN012,Day: 21st Time: 05:50 UTC Wind direction: 250 Wind speed: 11kt Temperature: 12C Dew point: 11C Pressure: 1006 hPa Visibility: 9999 m
FRA,EDDF,2019-05-21 05:20:00,EDDF 210520Z 25011KT 9999 RA FEW010 BKN016 12/11 Q1006 TEMPO -RA BKN012,Day: 21st Time: 05:20 UTC Wind direction: 250 Wind speed: 11kt Temperature: 12C Dew point: 11C Pressure: 1006 hPa Visibility: 9999 m
FRA,EDDF,2019-05-21 04:50:00,EDDF 210450Z 26012KT 9999 -RA FEW010 BKN018 12/11 Q1006 TEMPO RA,Day: 21st Time: 04:50 UTC Wind direction: 260 Wind speed: 12kt Temperature: 12C Dew point: 11C Pressure: 1006 hPa Visibility: 9999 m
FRA,EDDF,2019-05-21 04:20:00,EDDF 210420Z 26015KT 9999 -RA FEW013 BKN019 13/11 Q1006 RERA TEMPO RA,Day: 21st Time: 04:20 UTC Wind direction: 260 Wind speed: 15kt Temperature: 13C Dew point: 11C Pressure: 1006 hPa Visibility: 9999 m
FRA,EDDF,2019-05-21 03:50:00,EDDF 210350Z 26012KT 9999 RA FEW013 BKN019 13/12 Q1006 NOSIG,Day: 21st Time: 03:50 UTC Wind direction: 260 Wind speed: 12kt Temperature: 13C Dew point: 12C Pressure: 1006 hPa Visibility: 9999 m
FRA,EDDF,2019-05-21 03:20:00,EDDF 210320Z 25013KT 9999 RA FEW013 BKN019 13/12 Q1005 NOSIG,Day: 21st Time: 03:20 UTC Wind direction: 250 Wind speed: 13kt Temperature: 13C Dew point: 12C Pressure: 1005 hPa Visibility: 9999 m
FRA,EDDF,2019-05-21 02:50:00,EDDF 210250Z 25013KT 9999 -RA FEW011 SCT020 13/12 Q1006 TEMPO 4000 RA BKN014,Day: 21st Time: 02:50 UTC Wind direction: 250 Wind speed: 13kt Temperature: 13C Dew point: 12C Pressure: 1006 hPa Visibility: 9999 m
FRA,EDDF,2019-05-21 02:20:00,EDDF 210220Z 25013KT 9999 -RA FEW011 BKN019 13/12 Q1006 TEMPO 4000 RA BKN014,Day: 21st Time: 02:20 UTC Wind direction: 250 Wind speed: 13kt Temperature: 13C Dew point: 12C Pressure: 1006 hPa Visibility: 9999 m
FRA,EDDF,2019-05-21 01:50:00,EDDF 210150Z 26011KT 9000 -RA FEW011 BKN018 13/12 Q1006 TEMPO 4000 RA BKN014,Day: 21st Time: 01:50 UTC Wind direction: 260 Wind speed: 11kt Temperature: 13C Dew point: 12C Pressure: 1006 hPa Visibility: 9000 m
FRA,EDDF,2019-05-21 01:20:00,EDDF 210120Z 26013KT 8000 -RA FEW011 BKN016 BKN045 13/12 Q1006 TEMPO 4000 RA BKN014,Day: 21st Time: 01:20 UTC Wind direction: 260 Wind speed: 13kt Temperature: 13C Dew point: 12C Pressure: 1006 hPa Visibility: 8000 m
FRA,EDDF,2019-05-21 00:50:00,EDDF 210050Z 26012KT 8000 -RA FEW011 BKN015 BKN045 13/12 Q1006 TEMPO 4000 RA BKN014,Day: 21st Time: 00:50 UTC Wind direction: 260 Wind speed: 12kt Temperature: 13C Dew point: 12C Pressure: 1006 hPa Visibility: 8000 m
FRA,EDDF,2019-05-21 00:20:00,EDDF 210020Z 28014KT 250V310 7000 -RA FEW011 BKN013 14/11 Q1006 TEMPO 4000 RA,Day: 21st Time: 00:20 UTC Wind direction: 280 Wind speed: 14kt Temperature: 14C Dew point: 11C Pressure: 1006 hPa Visibility: 7000 m
JFK,KJFK,2019-05-21 23:51:00,KJFK 212351Z 33018G27KT 10SM FEW140 BKN250 20/00 A2999 RMK AO2 PK WND 30028/2308 SLP155 T02000000 10228 20200 53026,Day: 21st Time: 23:51 UTC Wind direction: 330 Wind speed: 18kt Wind gust: 27kt Temperature: 20C Dew point: 0C Pressure: 29.99 inHg Visibility: 10 SM
JFK,KJFK,2019-05-21 22:51:00,KJFK 212251Z 32021G29KT 10SM FEW140 BKN250 21/01 A2996 RMK AO2 PK WND 30031/2204 SLP143 T02110006,Day: 21st Time: 22:51 UTC Wind direction: 320 Wind speed: 21kt Wind gust: 29kt Temperature: 21C Dew point: 1C Pressure: 29.96 inHg Visibility: 10 SM
JFK,KJFK,2019-05-21 21:51:00,KJFK 212151Z 32016G22KT 10SM FEW065 FEW140 BKN250 22/03 A2994 RMK AO2 PK WND 31028/2115 SLP138 T02220028,Day: 21st Time: 21:51 UTC Wind direction: 320 Wind speed: 16kt Wind gust: 22kt Temperature: 22C Dew point: 3C Pressure: 29.94 inHg Visibility: 10 SM
JFK,KJFK,2019-05-21 20:51:00,KJFK 212051Z 34019G26KT 10SM FEW065 FEW140 BKN250 22/04 A2991 RMK AO2 PK WND 33030/1956 SLP129 T02220039 55002,Day: 21st Time: 20:51 UTC Wind direction: 340 Wind speed: 19kt Wind gust: 26kt Temperature: 22C Dew point: 4C Pressure: 29.91 inHg Visibility: 10 SM
JFK,KJFK,2019-05-21 19:51:00,KJFK 211951Z 33023G29KT 10SM FEW065 SCT250 22/04 A2991 RMK AO2 PK WND 31031/1909 SLP127 T02220039,Day: 21st Time: 19:51 UTC Wind direction: 330 Wind speed: 23kt Wind gust: 29kt Temperature: 22C Dew point: 4C Pressure: 29.91 inHg Visibility: 10 SM
JFK,KJFK,2019-05-21 18:51:00,KJFK 211851Z 31022G31KT 10SM FEW060 SCT230 22/04 A2991 RMK AO2 PK WND 30031/1849 SLP129 T02170044,Day: 21st Time: 18:51 UTC Wind direction: 310 Wind speed: 22kt Wind gust: 31kt Temperature: 22C Dew point: 4C Pressure: 29.91 inHg Visibility: 10 SM
JFK,KJFK,2019-05-21 17:51:00,KJFK 211751Z 31012G20KT 10SM FEW055 SCT220 20/06 A2992 RMK AO2 PK WND 30027/1726 SLP131 T02000056 10200 20144 58006,Day: 21st Time: 17:51 UTC Wind direction: 310 Wind speed: 12kt Wind gust: 20kt Temperature: 20C Dew point: 6C Pressure: 29.92 inHg Visibility: 10 SM
JFK,KJFK,2019-05-21 16:51:00,KJFK 211651Z 32017G24KT 10SM FEW055 BKN220 18/04 A2993 RMK AO2 PK WND 32028/1557 SLP136 T01830044,Day: 21st Time: 16:51 UTC Wind direction: 320 Wind speed: 17kt Wind gust: 24kt Temperature: 18C Dew point: 4C Pressure: 29.93 inHg Visibility: 10 SM
JFK,KJFK,2019-05-21 15:51:00,KJFK 211551Z 32015G22KT 10SM FEW055 SCT250 18/04 A2994 RMK AO2 PK WND 30032/1453 SLP139 T01830044,Day: 21st Time: 15:51 UTC Wind direction: 320 Wind speed: 15kt Wind gust: 22kt Temperature: 18C Dew point: 4C Pressure: 29.94 inHg Visibility: 10 SM
JFK,KJFK,2019-05-21 14:51:00,KJFK 211451Z 30014G23KT 10SM FEW050 FEW150 FEW250 17/04 A2994 RMK AO2 PK WND 32027/1410 SLP137 T01670044 53003,Day: 21st Time: 14:51 UTC Wind direction: 300 Wind speed: 14kt Wind gust: 23kt Temperature: 17C Dew point: 4C Pressure: 29.94 inHg Visibility: 10 SM
JFK,KJFK,2019-05-21 13:51:00,KJFK 211351Z 31016G28KT 10SM FEW050 FEW250 16/04 A2994 RMK AO2 PK WND 32029/1305 SLP137 T01560039,Day: 21st Time: 13:51 UTC Wind direction: 310 Wind speed: 16kt Wind gust: 28kt Temperature: 16C Dew point: 4C Pressure: 29.94 inHg Visibility: 10 SM
JFK,KJFK,2019-05-21 12:51:00,KJFK 211251Z 34021G27KT 10SM SCT047 SCT250 16/05 A2993 RMK AO2 PK WND 31033/1200 SLP134 T01560050,Day: 21st Time: 12:51 UTC Wind direction: 340 Wind speed: 21kt Wind gust: 27kt Temperature: 16C Dew point: 5C Pressure: 29.93 inHg Visibility: 10 SM
JFK,KJFK,2019-05-21 11:51:00,KJFK 211151Z 32022G27KT 10SM BKN047 15/06 A2993 RMK AO2 PK WND 32029/1115 SLP135 T01500061 10189 20144 53026,Day: 21st Time: 11:51 UTC Wind direction: 320 Wind speed: 22kt Wind gust: 27kt Temperature: 15C Dew point: 6C Pressure: 29.93 inHg Visibility: 10 SM
JFK,KJFK,2019-05-21 10:51:00,KJFK 211051Z 31016G23KT 10SM BKN046 16/07 A2989 RMK AO2 PK WND 31026/1041 SLP120 T01560067,Day: 21st Time: 10:51 UTC Wind direction: 310 Wind speed: 16kt Wind gust: 23kt Temperature: 16C Dew point: 7C Pressure: 29.89 inHg Visibility: 10 SM
JFK,KJFK,2019-05-21 09:51:00,KJFK 210951Z 31013G25KT 10SM SCT048 SCT250 16/06 A2987 RMK AO2 PK WND 32026/0852 SLP115 T01560061,Day: 21st Time: 09:51 UTC Wind direction: 310 Wind speed: 13kt Wind gust: 25kt Temperature: 16C Dew point: 6C Pressure: 29.87 inHg Visibility: 10 SM
JFK,KJFK,2019-05-21 08:51:00,KJFK 210851Z 32019G25KT 10SM FEW055 16/07 A2985 RMK AO2 PK WND 33029/0755 SLP109 T01560067 51020,Day: 21st Time: 08:51 UTC Wind direction: 320 Wind speed: 19kt Wind gust: 25kt Temperature: 16C Dew point: 7C Pressure: 29.85 inHg Visibility: 10 SM
JFK,KJFK,2019-05-21 07:51:00,KJFK 210751Z 32022G28KT 10SM FEW055 17/07 A2983 RMK AO2 PK WND 31030/0702 SLP102 T01670072,Day: 21st Time: 07:51 UTC Wind direction: 320 Wind speed: 22kt Wind gust: 28kt Temperature: 17C Dew point: 7C Pressure: 29.83 inHg Visibility: 10 SM
JFK,KJFK,2019-05-21 06:51:00,KJFK 210651Z 31019G30KT 10SM FEW250 18/09 A2983 RMK AO2 PK WND 31030/0649 SLP100 T01830094,Day: 21st Time: 06:51 UTC Wind direction: 310 Wind speed: 19kt Wind gust: 30kt Temperature: 18C Dew point: 9C Pressure: 29.83 inHg Visibility: 10 SM
JFK,KJFK,2019-05-21 05:51:00,KJFK 210551Z 33020G25KT 10SM FEW250 19/11 A2980 RMK AO2 PK WND 33028/0516 SLP089 T01940106 10278 20194 51013,Day: 21st Time: 05:51 UTC Wind direction: 330 Wind speed: 20kt Wind gust: 25kt Temperature: 19C Dew point: 11C Pressure: 29.8 inHg Visibility: 10 SM
JFK,KJFK,2019-05-21 04:51:00,KJFK 210451Z 33019G24KT 10SM FEW250 21/13 A2979 RMK AO2 PK WND 32031/0401 SLP087 T02060128 403000161,Day: 21st Time: 04:51 UTC Wind direction: 330 Wind speed: 19kt Wind gust: 24kt Temperature: 21C Dew point: 13C Pressure: 29.79 inHg Visibility: 10 SM
JFK,KJFK,2019-05-21 03:51:00,KJFK 210351Z 31019G28KT 10SM FEW080 FEW250 24/12 A2977 RMK AO2 PK WND 30028/0347 SLP082 T02440117,Day: 21st Time: 03:51 UTC Wind direction: 310 Wind speed: 19kt Wind gust: 28kt Temperature: 24C Dew point: 12C Pressure: 29.77 inHg Visibility: 10 SM
JFK,KJFK,2019-05-21 02:51:00,KJFK 210251Z 28010KT 10SM FEW080 FEW250 26/11 A2976 RMK AO2 SLP076 T02560106 51016,Day: 21st Time: 02:51 UTC Wind direction: 280 Wind speed: 10kt Temperature: 26C Dew point: 11C Pressure: 29.76 inHg Visibility: 10 SM
JFK,KJFK,2019-05-21 01:51:00,KJFK 210151Z 27013G19KT 10SM FEW060 FEW075 SCT250 26/11 A2974 RMK AO2 SLP070 T02610106,Day: 21st Time: 01:51 UTC Wind direction: 270 Wind speed: 13kt Wind gust: 19kt Temperature: 26C Dew point: 11C Pressure: 29.74 inHg Visibility: 10 SM
JFK,KJFK,2019-05-21 00:51:00,KJFK 210051Z 28013KT 10SM FEW060 FEW075 SCT140 27/16 A2973 RMK AO2 SLP066 T02720161,Day: 21st Time: 00:51 UTC Wind direction: 280 Wind speed: 13kt Temperature: 27C Dew point: 16C Pressure: 29.73 inHg Visibility: 10 SM
LGA,KLGA,2019-05-21 23:51:00,KLGA 212351Z 35018G24KT 10SM FEW190 BKN250 20/01 A2999 RMK AO2 PK WND 33027/2253 SLP155 T02000006 10217 20200 53027 $,Day: 21st Time: 23:51 UTC Wind direction: 350 Wind speed: 18kt Wind gust: 24kt Temperature: 20C Dew point: 1C Pressure: 29.99 inHg Visibility: 10 SM
LGA,KLGA,2019-05-21 22:51:00,KLGA 212251Z 32018G25KT 10SM FEW190 SCT250 21/01 A2994 RMK AO2 PK WND 31027/2155 SLP140 T02110006 $,Day: 21st Time: 22:51 UTC Wind direction: 320 Wind speed: 18kt Wind gust: 25kt Temperature: 21C Dew point: 1C Pressure: 29.94 inHg Visibility: 10 SM
LGA,KLGA,2019-05-21 21:51:00,KLGA 212151Z 30017G27KT 10SM FEW170 FEW250 22/01 A2993 RMK AO2 PK WND 31028/2115 SLP136 T02170006 $,Day: 21st Time: 21:51 UTC Wind direction: 300 Wind speed: 17kt Wind gust: 27kt Temperature: 22C Dew point: 1C Pressure: 29.93 inHg Visibility: 10 SM
LGA,KLGA,2019-05-21 20:51:00,KLGA 212051Z 31015G25KT 10SM FEW180 22/02 A2991 RMK AO2 PK WND 33027/2006 SLP127 T02170017 55000 $,Day: 21st Time: 20:51 UTC Wind direction: 310 Wind speed: 15kt Wind gust: 25kt Temperature: 22C Dew point: 2C Pressure: 29.91 inHg Visibility: 10 SM
LGA,KLGA,2019-05-21 19:51:00,KLGA 211951Z 31020G26KT 10SM FEW050 FEW200 22/02 A2991 RMK AO2 PK WND 31028/1905 SLP126 T02170022 $,Day: 21st Time: 19:51 UTC Wind direction: 310 Wind speed: 20kt Wind gust: 26kt Temperature: 22C Dew point: 2C Pressure: 29.91 inHg Visibility: 10 SM
LGA,KLGA,2019-05-21 18:51:00,KLGA 211851Z 30018G28KT 10SM FEW055 SCT230 21/03 A2990 RMK AO2 PK WND 31028/1809 SLP126 T02110028 $,Day: 21st Time: 18:51 UTC Wind direction: 300 Wind speed: 18kt Wind gust: 28kt Temperature: 21C Dew point: 3C Pressure: 29.9 inHg Visibility: 10 SM
LGA,KLGA,2019-05-21 17:51:00,KLGA 211751Z 32018G24KT 10SM FEW055 SCT220 20/03 A2991 RMK AO2 PK WND 31026/1708 SLP128 T02000028 10200 20139 58010 $,Day: 21st Time: 17:51 UTC Wind direction: 320 Wind speed: 18kt Wind gust: 24kt Temperature: 20C Dew point: 3C Pressure: 29.91 inHg Visibility: 10 SM
LGA,KLGA,2019-05-21 16:51:00,KLGA 211651Z 34015KT 10SM FEW055 SCT250 18/03 A2992 RMK AO2 SLP132 T01830028 $,Day: 21st Time: 16:51 UTC Wind direction: 340 Wind speed: 15kt Temperature: 18C Dew point: 3C Pressure: 29.92 inHg Visibility: 10 SM
LGA,KLGA,2019-05-21 15:51:00,KLGA 211551Z 30015G26KT 10SM SCT250 17/02 A2994 RMK AO2 PK WND 29026/1548 SLP137 T01720022 $,Day: 21st Time: 15:51 UTC Wind direction: 300 Wind speed: 15kt Wind gust: 26kt Temperature: 17C Dew point: 2C Pressure: 29.94 inHg Visibility: 10 SM
LGA,KLGA,2019-05-21 14:51:00,KLGA 211451Z 30018G24KT 10SM FEW050 FEW250 16/03 A2994 RMK AO2 PK WND 32026/1415 SLP138 T01610028 53004 $,Day: 21st Time: 14:51 UTC Wind direction: 300 Wind speed: 18kt Wind gust: 24kt Temperature: 16C Dew point: 3C Pressure: 29.94 inHg Visibility: 10 SM
LGA,KLGA,2019-05-21 13:51:00,KLGA 211351Z 31018G25KT 10SM FEW050 FEW250 15/03 A2993 RMK AO2 PK WND 33028/1256 SLP136 T01500028 $,Day: 21st Time: 13:51 UTC Wind direction: 310 Wind speed: 18kt Wind gust: 25kt Temperature: 15C Dew point: 3C Pressure: 29.93 inHg Visibility: 10 SM
LGA,KLGA,2019-05-21 12:51:00,KLGA 211251Z 32017G27KT 10SM FEW048 14/03 A2993 RMK AO2 PK WND 32029/1224 SLP133 T01440033 $,Day: 21st Time: 12:51 UTC Wind direction: 320 Wind speed: 17kt Wind gust: 27kt Temperature: 14C Dew point: 3C Pressure: 29.93 inHg Visibility: 10 SM
LGA,KLGA,2019-05-21 11:51:00,KLGA 211151Z 32021G27KT 10SM SCT047 14/04 A2993 RMK AO2 PK WND 32033/1123 SLP133 T01440039 10189 20144 53028 $,Day: 21st Time: 11:51 UTC Wind direction: 320 Wind speed: 21kt Wind gust: 27kt Temperature: 14C Dew point: 4C Pressure: 29.93 inHg Visibility: 10 SM
LGA,KLGA,2019-05-21 10:51:00,KLGA 211051Z 32015G26KT 10SM BKN045 15/06 A2988 RMK AO2 PK WND 34026/1046 SLP119 T01500056 $,Day: 21st Time: 10:51 UTC Wind direction: 320 Wind speed: 15kt Wind gust: 26kt Temperature: 15C Dew point: 6C Pressure: 29.88 inHg Visibility: 10 SM
LGA,KLGA,2019-05-21 09:51:00,KLGA 210951Z 31011KT 10SM SCT047 16/06 A2986 RMK AO2 SLP113 T01560056 $,Day: 21st Time: 09:51 UTC Wind direction: 310 Wind speed: 11kt Temperature: 16C Dew point: 6C Pressure: 29.86 inHg Visibility: 10 SM
LGA,KLGA,2019-05-21 08:51:00,KLGA 210851Z 32015KT 10SM SCT048 16/06 A2984 RMK AO2 SLP105 T01610061 51015 $,Day: 21st Time: 08:51 UTC Wind direction: 320 Wind speed: 15kt Temperature: 16C Dew point: 6C Pressure: 29.84 inHg Visibility: 10 SM
LGA,KLGA,2019-05-21 07:51:00,KLGA 210751Z 31015KT 10SM FEW050 FEW250 17/06 A2983 RMK AO2 PK WND 29026/0722 SLP100 T01720061 $,Day: 21st Time: 07:51 UTC Wind direction: 310 Wind speed: 15kt Temperature: 17C Dew point: 6C Pressure: 29.83 inHg Visibility: 10 SM
LGA,KLGA,2019-05-21 06:51:00,KLGA 210651Z 32015G19KT 10SM FEW250 18/08 A2982 RMK AO2 SLP099 T01780083 $,Day: 21st Time: 06:51 UTC Wind direction: 320 Wind speed: 15kt Wind gust: 19kt Temperature: 18C Dew point: 8C Pressure: 29.82 inHg Visibility: 10 SM
LGA,KLGA,2019-05-21 05:51:00,KLGA 210551Z 33011G22KT 10SM CLR 19/09 A2980 RMK AO2 SLP090 T01890089 10289 20189 51019 $,Day: 21st Time: 05:51 UTC Wind direction: 330 Wind speed: 11kt Wind gust: 22kt Temperature: 19C Dew point: 9C Pressure: 29.8 inHg Visibility: 10 SM
LGA,KLGA,2019-05-21 04:51:00,KLGA 210451Z 32015G25KT 10SM FEW250 21/10 A2979 RMK AO2 PK WND 32029/0355 SLP089 T02060100 403170183 $,Day: 21st Time: 04:51 UTC Wind direction: 320 Wind speed: 15kt Wind gust: 25kt Temperature: 21C Dew point: 10C Pressure: 29.79 inHg Visibility: 10 SM
LGA,KLGA,2019-05-21 03:51:00,KLGA 210351Z 32020G29KT 10SM FEW250 22/12 A2978 RMK AO2 PK WND 31031/0318 SLP085 T02170122 $,Day: 21st Time: 03:51 UTC Wind direction: 320 Wind speed: 20kt Wind gust: 29kt Temperature: 22C Dew point: 12C Pressure: 29.78 inHg Visibility: 10 SM
LGA,KLGA,2019-05-21 02:51:00,KLGA 210251Z 26014G20KT 10SM FEW250 26/08 A2974 RMK AO2 SLP070 T02610083 53015 $,Day: 21st Time: 02:51 UTC Wind direction: 260 Wind speed: 14kt Wind gust: 20kt Temperature: 26C Dew point: 8C Pressure: 29.74 inHg Visibility: 10 SM
LGA,KLGA,2019-05-21 01:51:00,KLGA 210151Z 26013G18KT 10SM FEW060 FEW140 SCT250 27/08 A2972 RMK AO2 SLP064 T02720083 $,Day: 21st Time: 01:51 UTC Wind direction: 260 Wind speed: 13kt Wind gust: 18kt Temperature: 27C Dew point: 8C Pressure: 29.72 inHg Visibility: 10 SM
LGA,KLGA,2019-05-21 00:51:00,KLGA 210051Z 27015KT 10SM FEW060 FEW140 SCT250 28/09 A2971 RMK AO2 SLP061 T02780089 $,Day: 21st Time: 00:51 UTC Wind direction: 270 Wind speed: 15kt Temperature: 28C Dew point: 9C Pressure: 29.71 inHg Visibility: 10 SM
EWR,KEWR,2019-05-21 23:51:00,KEWR 212351Z 31014G23KT 10SM FEW150 BKN250 21/M02 A3000 RMK AO2 PK WND 29028/2257 SLP158 T02061017 10233 20206 53026,Day: 21st Time: 23:51 UTC Wind direction: 310 Wind speed: 14kt Wind gust: 23kt Temperature: 21C Dew point: -2C Pressure: 30 inHg Visibility: 10 SM
EWR,KEWR,2019-05-21 22:51:00,KEWR 212251Z 31014G26KT 10SM FEW150 BKN250 22/M02 A2996 RMK AO2 PK WND 33027/2217 SLP146 T02171017,Day: 21st Time: 22:51 UTC Wind direction: 310 Wind speed: 14kt Wind gust: 26kt Temperature: 22C Dew point: -2C Pressure: 29.96 inHg Visibility: 10 SM
EWR,KEWR,2019-05-21 21:51:00,KEWR 212151Z 33020G26KT 10SM FEW180 SCT250 22/M01 A2995 RMK AO2 PK WND 30030/2137 SLP140 T02221006,Day: 21st Time: 21:51 UTC Wind direction: 330 Wind speed: 20kt Wind gust: 26kt Temperature: 22C Dew point: -1C Pressure: 29.95 inHg Visibility: 10 SM
EWR,KEWR,2019-05-21 20:51:00,KEWR 212051Z 33021G27KT 10SM FEW250 23/01 A2992 RMK AO2 PK WND 35029/2002 SLP132 T02280006 55000,Day: 21st Time: 20:51 UTC Wind direction: 330 Wind speed: 21kt Wind gust: 27kt Temperature: 23C Dew point: 1C Pressure: 29.92 inHg Visibility: 10 SM
EWR,KEWR,2019-05-21 19:51:00,KEWR 211951Z 32022G27KT 10SM FEW065 FEW250 23/02 A2991 RMK AO2 PK WND 29028/1933 SLP128 T02330022,Day: 21st Time: 19:51 UTC Wind direction: 320 Wind speed: 22kt Wind gust: 27kt Temperature: 23C Dew point: 2C Pressure: 29.91 inHg Visibility: 10 SM
EWR,KEWR,2019-05-21 18:51:00,KEWR 211851Z 31011G23KT 10SM FEW065 SCT250 23/03 A2991 RMK AO2 PK WND 35031/1819 SLP129 T02280033,Day: 21st Time: 18:51 UTC Wind direction: 310 Wind speed: 11kt Wind gust: 23kt Temperature: 23C Dew point: 3C Pressure: 29.91 inHg Visibility: 10 SM
EWR,KEWR,2019-05-21 17:51:00,KEWR 211751Z 29017G21KT 10SM FEW060 BKN250 21/03 A2992 RMK AO2 SLP132 T02060033 10211 20150 58010,Day: 21st Time: 17:51 UTC Wind direction: 290 Wind speed: 17kt Wind gust: 21kt Temperature: 21C Dew point: 3C Pressure: 29.92 inHg Visibility: 10 SM
EWR,KEWR,2019-05-21 16:51:00,KEWR 211651Z 29018G27KT 10SM FEW055 BKN250 19/02 A2994 RMK AO2 PK WND 31027/1647 SLP137 T01940022,Day: 21st Time: 16:51 UTC Wind direction: 290 Wind speed: 18kt Wind gust: 27kt Temperature: 19C Dew point: 2C Pressure: 29.94 inHg Visibility: 10 SM
EWR,KEWR,2019-05-21 15:51:00,KEWR 211551Z 31017KT 10SM FEW055 SCT250 19/03 A2995 RMK AO2 PK WND 30027/1525 SLP141 T01890028,Day: 21st Time: 15:51 UTC Wind direction: 310 Wind speed: 17kt Temperature: 19C Dew point: 3C Pressure: 29.95 inHg Visibility: 10 SM
EWR,KEWR,2019-05-21 14:51:00,KEWR 211451Z 31017G27KT 10SM FEW050 FEW250 17/03 A2995 RMK AO2 PK WND 33027/1443 SLP143 T01720028 53005,Day: 21st Time: 14:51 UTC Wind direction: 310 Wind speed: 17kt Wind gust: 27kt Temperature: 17C Dew point: 3C Pressure: 29.95 inHg Visibility: 10 SM
EWR,KEWR,2019-05-21 13:51:00,KEWR 211351Z 32019G25KT 10SM FEW050 FEW250 16/02 A2995 RMK AO2 PK WND 32030/1322 SLP140 T01610017,Day: 21st Time: 13:51 UTC Wind direction: 320 Wind speed: 19kt Wind gust: 25kt Temperature: 16C Dew point: 2C Pressure: 29.95 inHg Visibility: 10 SM
EWR,KEWR,2019-05-21 12:51:00,KEWR 211251Z 32018G27KT 10SM FEW043 15/03 A2994 RMK AO2 PK WND 33028/1207 SLP139 T01500033,Day: 21st Time: 12:51 UTC Wind direction: 320 Wind speed: 18kt Wind gust: 27kt Temperature: 15C Dew point: 3C Pressure: 29.94 inHg Visibility: 10 SM
EWR,KEWR,2019-05-21 11:51:00,KEWR 211151Z 31020G30KT 10SM SCT043 SCT250 15/03 A2994 RMK AO2 PK WND 32034/1133 SLP137 T01500028 10189 20144 53026,Day: 21st Time: 11:51 UTC Wind direction: 310 Wind speed: 20kt Wind gust: 30kt Temperature: 15C Dew point: 3C Pressure: 29.94 inHg Visibility: 10 SM
EWR,KEWR,2019-05-21 10:51:00,KEWR 211051Z 31014G19KT 10SM SCT047 BKN250 16/05 A2991 RMK AO2 PK WND 30026/1012 SLP126 T01560050,Day: 21st Time: 10:51 UTC Wind direction: 310 Wind speed: 14kt Wind gust: 19kt Temperature: 16C Dew point: 5C Pressure: 29.91 inHg Visibility: 10 SM
EWR,KEWR,2019-05-21 09:51:00,KEWR 210951Z 30011G25KT 10SM SCT046 BKN250 15/04 A2989 RMK AO2 SLP119 T01500044,Day: 21st Time: 09:51 UTC Wind direction: 300 Wind speed: 11kt Wind gust: 25kt Temperature: 15C Dew point: 4C Pressure: 29.89 inHg Visibility: 10 SM
EWR,KEWR,2019-05-21 08:51:00,KEWR 210851Z 30013G22KT 10SM FEW050 FEW250 16/06 A2986 RMK AO2 SLP111 T01610061 51017,Day: 21st Time: 08:51 UTC Wind direction: 300 Wind speed: 13kt Wind gust: 22kt Temperature: 16C Dew point: 6C Pressure: 29.86 inHg Visibility: 10 SM
EWR,KEWR,2019-05-21 07:51:00,KEWR 210751Z 32013KT 10SM FEW055 FEW250 17/07 A2984 RMK AO2 PK WND 31026/0704 SLP106 T01670067,Day: 21st Time: 07:51 UTC Wind direction: 320 Wind speed: 13kt Temperature: 17C Dew point: 7C Pressure: 29.84 inHg Visibility: 10 SM
EWR,KEWR,2019-05-21 06:51:00,KEWR 210651Z 30010G20KT 10SM FEW055 FEW250 18/08 A2984 RMK AO2 PK WND 30026/0624 SLP105 T01780078,Day: 21st Time: 06:51 UTC Wind direction: 300 Wind speed: 10kt Wind gust: 20kt Temperature: 18C Dew point: 8C Pressure: 29.84 inHg Visibility: 10 SM
EWR,KEWR,2019-05-21 05:51:00,KEWR 210551Z 32012KT 10SM FEW250 19/09 A2981 RMK AO2 SLP094 T01890094 10289 20189 51020,Day: 21st Time: 05:51 UTC Wind direction: 320 Wind speed: 12kt Temperature: 19C Dew point: 9C Pressure: 29.81 inHg Visibility: 10 SM
EWR,KEWR,2019-05-21 04:51:00,KEWR 210451Z 32015G27KT 10SM FEW250 20/10 A2980 RMK AO2 PK WND 32027/0447 SLP092 T02000100 403170200,Day: 21st Time: 04:51 UTC Wind direction: 320 Wind speed: 15kt Wind gust: 27kt Temperature: 20C Dew point: 10C Pressure: 29.8 inHg Visibility: 10 SM
EWR,KEWR,2019-05-21 03:51:00,KEWR 210351Z 33019G23KT 10SM FEW250 22/12 A2980 RMK AO2 PK WND 29028/0321 WSHFT 0313 SLP089 T02170122,Day: 21st Time: 03:51 UTC Wind direction: 330 Wind speed: 19kt Wind gust: 23kt Temperature: 22C Dew point: 12C Pressure: 29.8 inHg Visibility: 10 SM
EWR,KEWR,2019-05-21 03:29:00,KEWR 210329Z 32019G28KT 10SM FEW120 FEW250 23/12 A2978 RMK AO2 PK WND 29028/0321 WSHFT 0313 PRESRR T02330122,Day: 21st Time: 03:29 UTC Wind direction: 320 Wind speed: 19kt Wind gust: 28kt Temperature: 23C Dew point: 12C Pressure: 29.78 inHg Visibility: 10 SM
EWR,KEWR,2019-05-21 02:51:00,KEWR 210251Z 26010KT 10SM FEW120 FEW250 26/09 A2975 RMK AO2 SLP074 T02560094 53016,Day: 21st Time: 02:51 UTC Wind direction: 260 Wind speed: 10kt Temperature: 26C Dew point: 9C Pressure: 29.75 inHg Visibility: 10 SM
EWR,KEWR,2019-05-21 01:51:00,KEWR 210151Z 27010KT 10SM FEW050 FEW120 26/09 A2973 RMK AO2 SLP068 T02610089,Day: 21st Time: 01:51 UTC Wind direction: 270 Wind speed: 10kt Temperature: 26C Dew point: 9C Pressure: 29.73 inHg Visibility: 10 SM
EWR,KEWR,2019-05-21 00:51:00,KEWR 210051Z 27013G20KT 10SM FEW060 FEW090 SCT250 27/10 A2972 RMK AO2 SLP065 T02720100,Day: 21st Time: 00:51 UTC Wind direction: 270 Wind speed: 13kt Wind gust: 20kt Temperature: 27C Dew point: 10C Pressure: 29.72 inHg Visibility: 10 SM
LAX,KLAX,2019-05-21 23:53:00,KLAX 212353Z 26025G29KT 10SM CLR 18/10 A2979 RMK AO2 PK WND 26032/2306 SLPNO T01780100 10189 20161 58026,Day: 21st Time: 23:53 UTC Wind direction: 260 Wind speed: 25kt Wind gust: 29kt Temperature: 18C Dew point: 10C Pressure: 29.79 inHg Visibility: 10 SM
LAX,KLAX,2019-05-21 22:53:00,KLAX 212253Z 25021G30KT 10SM FEW025 FEW060 SCT250 18/09 A2982 RMK AO2 PK WND 25030/2246 SLPNO T01830094,Day: 21st Time: 22:53 UTC Wind direction: 250 Wind speed: 21kt Wind gust: 30kt Temperature: 18C Dew point: 9C Pressure: 29.82 inHg Visibility: 10 SM
LAX,KLAX,2019-05-21 21:53:00,KLAX 212153Z 24018G25KT 10SM FEW025 SCT200 18/09 A2984 RMK AO2 PK WND 25028/2138 SLPNO T01830094 $,Day: 21st Time: 21:53 UTC Wind direction: 240 Wind speed: 18kt Wind gust: 25kt Temperature: 18C Dew point: 9C Pressure: 29.84 inHg Visibility: 10 SM
LAX,KLAX,2019-05-21 20:53:00,KLAX 212053Z 24015G24KT 10SM FEW010 FEW025 SCT160 18/09 A2986 RMK AO2 SLPNO PRESFR T01830094 58091 $,Day: 21st Time: 20:53 UTC Wind direction: 240 Wind speed: 15kt Wind gust: 24kt Temperature: 18C Dew point: 9C Pressure: 29.86 inHg Visibility: 10 SM
LAX,KLAX,2019-05-21 19:53:00,KLAX 211953Z 25016KT 9SM FEW010 FEW030 SCT160 17/11 A2990 RMK AO2 SLPNO T01720111 PNO VISNO RWY24 $,Day: 21st Time: 19:53 UTC Wind direction: 250 Wind speed: 16kt Temperature: 17C Dew point: 11C Pressure: 29.9 inHg Visibility: 9 SM
LAX,KLAX,2019-05-21 18:53:00,KLAX 211853Z 25014KT 9SM FEW018 FEW030 SCT160 17/11 A2991 RMK AO2 SLPNO T01670106 PNO VISNO RWY24 $,Day: 21st Time: 18:53 UTC Wind direction: 250 Wind speed: 14kt Temperature: 17C Dew point: 11C Pressure: 29.91 inHg Visibility: 9 SM
LAX,KLAX,2019-05-21 17:53:00,KLAX 211753Z 24012KT 9SM FEW018 SCT030 BKN160 16/11 A2992 RMK AO2 SLPNO T01610106 PNO VISNO RWY24 $,Day: 21st Time: 17:53 UTC Wind direction: 240 Wind speed: 12kt Temperature: 16C Dew point: 11C Pressure: 29.92 inHg Visibility: 9 SM
LAX,KLAX,2019-05-21 16:53:00,KLAX 211653Z 25006KT 9SM FEW015 SCT030 BKN140 16/11 A2993 RMK AO2 SLPNO T01560111 PNO VISNO RWY24 $,Day: 21st Time: 16:53 UTC Wind direction: 250 Wind speed: 6kt Temperature: 16C Dew point: 11C Pressure: 29.93 inHg Visibility: 9 SM
LAX,KLAX,2019-05-21 16:24:00,KLAX 211624Z 27009KT 9SM FEW019 BKN030 BKN140 16/12 A2993 RMK AO2 T01560117 PNO VISNO RWY24 $,Day: 21st Time: 16:24 UTC Wind direction: 270 Wind speed: 9kt Temperature: 16C Dew point: 12C Pressure: 29.93 inHg Visibility: 9 SM
LAX,KLAX,2019-05-21 15:53:00,KLAX 211553Z RMK AO2 SLPNO RVRNO PNO VISNO RWY24 $,Day: 21st Time: 15:53 UTC
LAX,KLAX,2019-05-21 14:53:00,KLAX 211453Z 26003KT 10SM BKN019 BKN029 15/11 A2993 RMK AO2 SLP133 T01500106 $,Day: 21st Time: 14:53 UTC Wind direction: 260 Wind speed: 3kt Temperature: 15C Dew point: 11C Pressure: 29.93 inHg Visibility: 10 SM
LAX,KLAX,2019-05-21 13:53:00,KLAX 211353Z 24003KT 9SM BKN019 OVC025 14/11 A2993 RMK AO2 SLP135 T01440106 $,Day: 21st Time: 13:53 UTC Wind direction: 240 Wind speed: 3kt Temperature: 14C Dew point: 11C Pressure: 29.93 inHg Visibility: 9 SM
LAX,KLAX,2019-05-21 12:53:00,KLAX 211253Z 22003KT 10SM FEW018 BKN026 BKN042 BKN200 14/10 A2993 RMK AO2 SLP133 T01440100 $,Day: 21st Time: 12:53 UTC Wind direction: 220 Wind speed: 3kt Temperature: 14C Dew point: 10C Pressure: 29.93 inHg Visibility: 10 SM
LAX,KLAX,2019-05-21 10:53:00,KLAX 211053Z VRB03KT 10SM SCT022 BKN038 14/10 A2994 RMK AO2 SLP137 T01390100 $,Day: 21st Time: 10:53 UTC Wind speed: 3kt Temperature: 14C Dew point: 10C Pressure: 29.94 inHg Visibility: 10 SM
LAX,KLAX,2019-05-21 10:22:00,KLAX 211022Z 22006KT 10SM BKN022 14/09 A2994 RMK AO2 T01390094 $,Day: 21st Time: 10:22 UTC Wind direction: 220 Wind speed: 6kt Temperature: 14C Dew point: 9C Pressure: 29.94 inHg Visibility: 10 SM
LAX,KLAX,2019-05-21 09:53:00,KLAX 210953Z 22005KT 10SM SCT018 BKN090 BKN200 14/10 A2995 RMK AO2 SLP140 T01440100 $,Day: 21st Time: 09:53 UTC Wind direction: 220 Wind speed: 5kt Temperature: 14C Dew point: 10C Pressure: 29.95 inHg Visibility: 10 SM
LAX,KLAX,2019-05-21 08:53:00,KLAX 210853Z 22006KT 10SM SCT018 BKN090 BKN200 14/10 A2996 RMK AO2 SLP144 T01440100 58003 $,Day: 21st Time: 08:53 UTC Wind direction: 220 Wind speed: 6kt Temperature: 14C Dew point: 10C Pressure: 29.96 inHg Visibility: 10 SM
LAX,KLAX,2019-05-21 08:18:00,KLAX 210818Z 21007KT 10SM BKN017 BKN090 BKN200 14/11 A2996 RMK AO2 T01440106 $,Day: 21st Time: 08:18 UTC Wind direction: 210 Wind speed: 7kt Temperature: 14C Dew point: 11C Pressure: 29.96 inHg Visibility: 10 SM
LAX,KLAX,2019-05-21 07:53:00,KLAX 210753Z 22008KT 10SM FEW018 FEW090 BKN200 BKN280 14/10 A2997 RMK AO2 SLP146 T01440100 401940128 $,Day: 21st Time: 07:53 UTC Wind direction: 220 Wind speed: 8kt Temperature: 14C Dew point: 10C Pressure: 29.97 inHg Visibility: 10 SM
LAX,KLAX,2019-05-21 06:53:00,KLAX 210653Z 23007KT 10SM FEW028 FEW090 SCT200 BKN280 14/11 A2997 RMK AO2 SLP148 T01440106 $,Day: 21st Time: 06:53 UTC Wind direction: 230 Wind speed: 7kt Temperature: 14C Dew point: 11C Pressure: 29.97 inHg Visibility: 10 SM
LAX,KLAX,2019-05-21 05:53:00,KLAX 210553Z 26009KT 10SM FEW060 FEW120 SCT200 BKN280 14/11 A2997 RMK AO2 SLP147 T01440106 10189 20144 51013 $,Day: 21st Time: 05:53 UTC Wind direction: 260 Wind speed: 9kt Temperature: 14C Dew point: 11C Pressure: 29.97 inHg Visibility: 10 SM
LAX,KLAX,2019-05-21 04:53:00,KLAX 210453Z 26011KT 10SM FEW060 FEW250 14/11 A2997 RMK AO2 SLP148 T01440106 $,Day: 21st Time: 04:53 UTC Wind direction: 260 Wind speed: 11kt Temperature: 14C Dew point: 11C Pressure: 29.97 inHg Visibility: 10 SM
LAX,KLAX,2019-05-21 03:53:00,KLAX 210353Z 10SM FEW060 FEW250 15/11 A2995 RMK AO2 SLP142 T01500106 $,Day: 21st Time: 03:53 UTC Temperature: 15C Dew point: 11C Pressure: 29.95 inHg Visibility: 10 SM
LAX,KLAX,2019-05-21 02:53:00,KLAX 210253Z 26014KT 10SM FEW060 FEW250 16/10 A2993 RMK AO2 SLP134 T01560100 53004 $,Day: 21st Time: 02:53 UTC Wind direction: 260 Wind speed: 14kt Temperature: 16C Dew point: 10C Pressure: 29.93 inHg Visibility: 10 SM
LAX,KLAX,2019-05-21 01:53:00,KLAX 210153Z 24018G25KT 10SM FEW060 17/09 A2992 RMK AO2 SLP131 T01670094 $,Day: 21st Time: 01:53 UTC Wind direction: 240 Wind speed: 18kt Wind gust: 25kt Temperature: 17C Dew point: 9C Pressure: 29.92 inHg Visibility: 10 SM
LAX,KLAX,2019-05-21 00:53:00,KLAX 210053Z 26019KT 10SM FEW065 FEW250 17/09 A2992 RMK AO2 SLP132 T01720094 $,Day: 21st Time: 00:53 UTC Wind direction: 260 Wind speed: 19kt Temperature: 17C Dew point: 9C Pressure: 29.92 inHg Visibility: 10 SM
SFO,KSFO,2019-05-21 23:56:00,KSFO 212356Z 28022G31KT 8SM FEW015 BKN029 BKN039 14/09 A2990 RMK AO2 PK WND 28031/2355 RAB18E29 SLP124 P0001 60001 T01440094 10167 20133 58013,Day: 21st Time: 23:56 UTC Wind direction: 280 Wind speed: 22kt Wind gust: 31kt Temperature: 14C Dew point: 9C Pressure: 29.9 inHg Visibility: 8 SM
SFO,KSFO,2019-05-21 22:56:00,KSFO 212256Z 28021G27KT 8SM FEW015 BKN029 BKN060 14/11 A2991 RMK AO2 PK WND 28032/2203 RAB33E55 SLP129 P0000 T01440106,Day: 21st Time: 22:56 UTC Wind direction: 280 Wind speed: 21kt Wind gust: 27kt Temperature: 14C Dew point: 11C Pressure: 29.91 inHg Visibility: 8 SM
SFO,KSFO,2019-05-21 21:56:00,KSFO 212156Z 28023G29KT 9SM SCT024 BKN034 BKN044 15/08 A2993 RMK AO2 PK WND 27032/2125 SLP134 T01500083,Day: 21st Time: 21:56 UTC Wind direction: 280 Wind speed: 23kt Wind gust: 29kt Temperature: 15C Dew point: 8C Pressure: 29.93 inHg Visibility: 9 SM
SFO,KSFO,2019-05-21 20:56:00,KSFO 212056Z 27021G28KT 9SM SCT023 BKN028 OVC043 16/09 A2994 RMK AO2 PK WND 28029/2029 SLP137 60000 T01560089 58003,Day: 21st Time: 20:56 UTC Wind direction: 270 Wind speed: 21kt Wind gust: 28kt Temperature: 16C Dew point: 9C Pressure: 29.94 inHg Visibility: 9 SM
SFO,KSFO,2019-05-21 19:56:00,KSFO 211956Z 28017G28KT 9SM SCT023 BKN030 OVC060 16/09 A2995 RMK AO2 PK WND 28029/1904 RAB00E01 SLP142 P0000 T01560094,Day: 21st Time: 19:56 UTC Wind direction: 280 Wind speed: 17kt Wind gust: 28kt Temperature: 16C Dew point: 9C Pressure: 29.95 inHg Visibility: 9 SM
SFO,KSFO,2019-05-21 18:56:00,KSFO 211856Z 26020G27KT 9SM SCT022 BKN030 OVC041 14/09 A2994 RMK AO2 PK WND 26028/1841 SLP139 T01390094,Day: 21st Time: 18:56 UTC Wind direction: 260 Wind speed: 20kt Wind gust: 27kt Temperature: 14C Dew point: 9C Pressure: 29.94 inHg Visibility: 9 SM
SFO,KSFO,2019-05-21 17:56:00,KSFO 211756Z 26018G24KT 9SM BKN018 BKN047 14/11 A2995 RMK AO2 RAB1659E24 SLP140 P0001 60002 T01440106 10144 20111 50000,Day: 21st Time: 17:56 UTC Wind direction: 260 Wind speed: 18kt Wind gust: 24kt Temperature: 14C Dew point: 11C Pressure: 29.95 inHg Visibility: 9 SM
SFO,KSFO,2019-05-21 16:56:00,KSFO 211656Z 26013KT 9SM FEW019 SCT030 BKN037 13/10 A2995 RMK AO2 PK WND 28026/1633 RAB39E49 SLP142 P0000 T01330100,Day: 21st Time: 16:56 UTC Wind direction: 260 Wind speed: 13kt Temperature: 13C Dew point: 10C Pressure: 29.95 inHg Visibility: 9 SM
SFO,KSFO,2019-05-21 15:56:00,KSFO 211556Z 27015KT 4SM HZ FEW015 BKN034 OVC042 13/10 A2995 RMK AO2 RAB30E54 SLP141 P0001 T01280100,Day: 21st Time: 15:56 UTC Wind direction: 270 Wind speed: 15kt Temperature: 13C Dew point: 10C Pressure: 29.95 inHg Visibility: 4 SM
SFO,KSFO,2019-05-21 14:56:00,KSFO 211456Z 26012G19KT 9SM FEW021 BKN039 BKN060 13/09 A2994 RMK AO2 RAB27E33 SLP139 P0000 60000 T01330094 55000,Day: 21st Time: 14:56 UTC Wind direction: 260 Wind speed: 12kt Wind gust: 19kt Temperature: 13C Dew point: 9C Pressure: 29.94 inHg Visibility: 9 SM
SFO,KSFO,2019-05-21 14:17:00,KSFO 211417Z 25011KT 9SM FEW018 BKN026 BKN033 13/09 A2995 RMK AO2 T01280094,Day: 21st Time: 14:17 UTC Wind direction: 250 Wind speed: 11kt Temperature: 13C Dew point: 9C Pressure: 29.95 inHg Visibility: 9 SM
SFO,KSFO,2019-05-21 13:56:00,KSFO 211356Z 24005KT 10SM FEW031 BKN046 12/09 A2994 RMK AO2 RAB14E24 SLP139 P0000 T01220089,Day: 21st Time: 13:56 UTC Wind direction: 240 Wind speed: 5kt Temperature: 12C Dew point: 9C Pressure: 29.94 inHg Visibility: 10 SM
SFO,KSFO,2019-05-21 12:56:00,KSFO 211256Z 26009KT 8SM FEW035 SCT047 BKN065 12/09 A2994 RMK AO2 RAE01 SLP139 P0000 T01220089,Day: 21st Time: 12:56 UTC Wind direction: 260 Wind speed: 9kt Temperature: 12C Dew point: 9C Pressure: 29.94 inHg Visibility: 8 SM
SFO,KSFO,2019-05-21 11:56:00,KSFO 211156Z 30015G27KT 4SM -RA FEW027 BKN044 OVC055 12/09 A2994 RMK AO2 PK WND 29027/1147 RAB50 SLP140 P0000 60006 7//// T01170089 10133 20117 53001,Day: 21st Time: 11:56 UTC Wind direction: 300 Wind speed: 15kt Wind gust: 27kt Temperature: 12C Dew point: 9C Pressure: 29.94 inHg Visibility: 4 SM
SFO,KSFO,2019-05-21 10:56:00,KSFO 211056Z 28011KT 8SM FEW018 BKN046 OVC060 13/10 A2994 RMK AO2 SLP137 T01330100,Day: 21st Time: 10:56 UTC Wind direction: 280 Wind speed: 11kt Temperature: 13C Dew point: 10C Pressure: 29.94 inHg Visibility: 8 SM
SFO,KSFO,2019-05-21 09:56:00,KSFO 210956Z 24008KT 9SM FEW013 BKN042 OVC049 13/09 A2993 RMK AO2 SLP133 T01330094,Day: 21st Time: 09:56 UTC Wind direction: 240 Wind speed: 8kt Temperature: 13C Dew point: 9C Pressure: 29.93 inHg Visibility: 9 SM
SFO,KSFO,2019-05-21 08:56:00,KSFO 210856Z 25010KT 10SM FEW013 SCT021 OVC046 13/09 A2994 RMK AO2 RAB06E54 SLP138 P0004 60006 T01280094 56009,Day: 21st Time: 08:56 UTC Wind direction: 250 Wind speed: 10kt Temperature: 13C Dew point: 9C Pressure: 29.94 inHg Visibility: 10 SM
SFO,KSFO,2019-05-21 07:56:00,KSFO 210756Z 19008KT 9SM SCT020 BKN031 OVC070 13/11 A2995 RMK AO2 RAB12E43 SLP141 P0002 T01330106 401780089,Day: 21st Time: 07:56 UTC Wind direction: 190 Wind speed: 8kt Temperature: 13C Dew point: 11C Pressure: 29.95 inHg Visibility: 9 SM
SFO,KSFO,2019-05-21 06:56:00,KSFO 210656Z 20014KT 6SM HZ SCT024 BKN035 OVC070 13/09 A2997 RMK AO2 SLP148 T01330094,Day: 21st Time: 06:56 UTC Wind direction: 200 Wind speed: 14kt Temperature: 13C Dew point: 9C Pressure: 29.97 inHg Visibility: 6 SM
SFO,KSFO,2019-05-21 05:56:00,KSFO 210556Z 22005KT 10SM FEW021 BKN070 13/08 A2997 RMK AO2 SLP150 6//// T01280078 10161 20128 58007,Day: 21st Time: 05:56 UTC Wind direction: 220 Wind speed: 5kt Temperature: 13C Dew point: 8C Pressure: 29.97 inHg Visibility: 10 SM
SFO,KSFO,2019-05-21 04:56:00,KSFO 210456Z 20005KT 10SM FEW021 SCT070 13/08 A2999 RMK AO2 SLP156 T01330083,Day: 21st Time: 04:56 UTC Wind direction: 200 Wind speed: 5kt Temperature: 13C Dew point: 8C Pressure: 29.99 inHg Visibility: 10 SM
SFO,KSFO,2019-05-21 03:56:00,KSFO 210356Z 23008KT 10SM FEW020 BKN080 BKN200 13/08 A2999 RMK AO2 SLP155 T01280083 PNO $,Day: 21st Time: 03:56 UTC Wind direction: 230 Wind speed: 8kt Temperature: 13C Dew point: 8C Pressure: 29.99 inHg Visibility: 10 SM
SFO,KSFO,2019-05-21 02:56:00,KSFO 210256Z 24008KT 10SM FEW024 SCT085 BKN200 13/08 A3000 RMK AO2 SLP157 T01330078 58002 PNO $,Day: 21st Time: 02:56 UTC Wind direction: 240 Wind speed: 8kt Temperature: 13C Dew point: 8C Pressure: 30 inHg Visibility: 10 SM
SFO,KSFO,2019-05-21 01:56:00,KSFO 210156Z 23010KT 10SM FEW024 BKN029 BKN042 14/08 A3000 RMK AO2 SLP157 T01440083 PNO $,Day: 21st Time: 01:56 UTC Wind direction: 230 Wind speed: 10kt Temperature: 14C Dew point: 8C Pressure: 30 inHg Visibility: 10 SM
SFO,KSFO,2019-05-21 00:56:00,KSFO 210056Z 24013KT 10SM FEW024 BKN027 BKN200 15/08 A3001 RMK AO2 SLP162 T01500083 PNO $,Day: 21st Time: 00:56 UTC Wind direction: 240 Wind speed: 13kt Temperature: 15C Dew point: 8C Pressure: 30.01 inHg Visibility: 10 SM
MIA,KMIA,2019-05-21 23:53:00,KMIA 212353Z 11011KT 10SM FEW035 FEW060 FEW250 28/19 A2995 RMK AO2 SLP140 T02780194 10317 20278 53006,Day: 21st Time: 23:53 UTC Wind direction: 110 Wind speed: 11kt Temperature: 28C Dew point: 19C Pressure: 29.95 inHg Visibility: 10 SM
MIA,KMIA,2019-05-21 22:53:00,KMIA 212253Z 12012KT 10SM FEW040 FEW060 FEW250 29/20 A2993 RMK AO2 SLP136 T02890200,Day: 21st Time: 22:53 UTC Wind direction: 120 Wind speed: 12kt Temperature: 29C Dew point: 20C Pressure: 29.93 inHg Visibility: 10 SM
MIA,KMIA,2019-05-21 21:53:00,KMIA 212153Z 11011KT 10SM FEW044 FEW060 FEW250 31/19 A2992 RMK AO2 SLP133 T03060189,Day: 21st Time: 21:53 UTC Wind direction: 110 Wind speed: 11kt Temperature: 31C Dew point: 19C Pressure: 29.92 inHg Visibility: 10 SM
MIA,KMIA,2019-05-21 20:53:00,KMIA 212053Z 09013KT 10SM FEW040 FEW250 31/18 A2993 RMK AO2 SLP134 T03110178 56013,Day: 21st Time: 20:53 UTC Wind direction: 90 Wind speed: 13kt Temperature: 31C Dew point: 18C Pressure: 29.93 inHg Visibility: 10 SM
MIA,KMIA,2019-05-21 19:53:00,KMIA 211953Z 08012G18KT 10SM FEW038 FEW050 FEW250 31/19 A2993 RMK AO2 SLP136 CB DSNT SW T03110189,Day: 21st Time: 19:53 UTC Wind direction: 80 Wind speed: 12kt Wind gust: 18kt Temperature: 31C Dew point: 19C Pressure: 29.93 inHg Visibility: 10 SM
MIA,KMIA,2019-05-21 18:53:00,KMIA 211853Z 12013KT 10SM FEW038 FEW050 32/21 A2994 RMK AO2 SLP140 T03170206,Day: 21st Time: 18:53 UTC Wind direction: 120 Wind speed: 13kt Temperature: 32C Dew point: 21C Pressure: 29.94 inHg Visibility: 10 SM
MIA,KMIA,2019-05-21 17:53:00,KMIA 211753Z 08010KT 10SM SCT038 32/21 A2996 RMK AO2 SLP146 T03170206 10322 20272 58007,Day: 21st Time: 17:53 UTC Wind direction: 80 Wind speed: 10kt Temperature: 32C Dew point: 21C Pressure: 29.96 inHg Visibility: 10 SM
MIA,KMIA,2019-05-21 16:53:00,KMIA 211653Z 11011G16KT 10SM SCT035 31/21 A2998 RMK AO2 SLP150 T03110211,Day: 21st Time: 16:53 UTC Wind direction: 110 Wind speed: 11kt Wind gust: 16kt Temperature: 31C Dew point: 21C Pressure: 29.98 inHg Visibility: 10 SM
MIA,KMIA,2019-05-21 15:53:00,KMIA 211553Z 11008G14KT 10SM SCT035 31/21 A2998 RMK AO2 SLP152 T03110211,Day: 21st Time: 15:53 UTC Wind direction: 110 Wind speed: 8kt Wind gust: 14kt Temperature: 31C Dew point: 21C Pressure: 29.98 inHg Visibility: 10 SM
MIA,KMIA,2019-05-21 13:53:00,KMIA 211353Z 13006KT 10SM SCT030 BKN060 29/21 A2998 RMK AO2 SLP151 T02890211,Day: 21st Time: 13:53 UTC Wind direction: 130 Wind speed: 6kt Temperature: 29C Dew point: 21C Pressure: 29.98 inHg Visibility: 10 SM
MIA,KMIA,2019-05-21 12:53:00,KMIA 211253Z 12006KT 10SM FEW028 28/21 A2997 RMK AO2 SLP148 T02830211,Day: 21st Time: 12:53 UTC Wind direction: 120 Wind speed: 6kt Temperature: 28C Dew point: 21C Pressure: 29.97 inHg Visibility: 10 SM
MIA,KMIA,2019-05-21 11:53:00,KMIA 211153Z 12004KT 10SM FEW027 27/21 A2996 RMK AO2 SLP145 70001 T02720206 10272 20250 53011,Day: 21st Time: 11:53 UTC Wind direction: 120 Wind speed: 4kt Temperature: 27C Dew point: 21C Pressure: 29.96 inHg Visibility: 10 SM
MIA,KMIA,2019-05-21 10:53:00,KMIA 211053Z 13004KT 10SM FEW026 SCT045 26/20 A2994 RMK AO2 SLP139 T02610200,Day: 21st Time: 10:53 UTC Wind direction: 130 Wind speed: 4kt Temperature: 26C Dew point: 20C Pressure: 29.94 inHg Visibility: 10 SM
MIA,KMIA,2019-05-21 09:53:00,KMIA 210953Z 13004KT 10SM FEW027 26/21 A2993 RMK AO2 SLP135 T02560206,Day: 21st Time: 09:53 UTC Wind direction: 130 Wind speed: 4kt Temperature: 26C Dew point: 21C Pressure: 29.93 inHg Visibility: 10 SM
MIA,KMIA,2019-05-21 08:53:00,KMIA 210853Z 14003KT 10SM FEW028 26/21 A2993 RMK AO2 SLP134 T02560206 56014,Day: 21st Time: 08:53 UTC Wind direction: 140 Wind speed: 3kt Temperature: 26C Dew point: 21C Pressure: 29.93 inHg Visibility: 10 SM
MIA,KMIA,2019-05-21 07:53:00,KMIA 210753Z 12006KT 10SM FEW029 26/21 A2993 RMK AO2 SLP135 T02610211,Day: 21st Time: 07:53 UTC Wind direction: 120 Wind speed: 6kt Temperature: 26C Dew point: 21C Pressure: 29.93 inHg Visibility: 10 SM
MIA,KMIA,2019-05-21 06:53:00,KMIA 210653Z 11007KT 10SM FEW029 26/21 A2995 RMK AO2 SLP142 T02610206,Day: 21st Time: 06:53 UTC Wind direction: 110 Wind speed: 7kt Temperature: 26C Dew point: 21C Pressure: 29.95 inHg Visibility: 10 SM
MIA,KMIA,2019-05-21 05:53:00,KMIA 210553Z 11006KT 10SM FEW030 27/21 A2997 RMK AO2 SLP147 T02670206 10278 20261 58008,Day: 21st Time: 05:53 UTC Wind direction: 110 Wind speed: 6kt Temperature: 27C Dew point: 21C Pressure: 29.97 inHg Visibility: 10 SM
MIA,KMIA,2019-05-21 04:53:00,KMIA 210453Z 11006KT 10SM FEW029 27/21 A2998 RMK AO2 SLP151 T02670206 403060244,Day: 21st Time: 04:53 UTC Wind direction: 110 Wind speed: 6kt Temperature: 27C Dew point: 21C Pressure: 29.98 inHg Visibility: 10 SM
MIA,KMIA,2019-05-21 03:53:00,KMIA 210353Z 10006KT 10SM FEW027 27/21 A2999 RMK AO2 SLP154 T02670206,Day: 21st Time: 03:53 UTC Wind direction: 100 Wind speed: 6kt Temperature: 27C Dew point: 21C Pressure: 29.99 inHg Visibility: 10 SM
MIA,KMIA,2019-05-21 02:53:00,KMIA 210253Z 11006KT 10SM SCT027 27/22 A2999 RMK AO2 SLP155 T02720217 53011,Day: 21st Time: 02:53 UTC Wind direction: 110 Wind speed: 6kt Temperature: 27C Dew point: 22C Pressure: 29.99 inHg Visibility: 10 SM
MIA,KMIA,2019-05-21 01:53:00,KMIA 210153Z 10011KT 10SM FEW026 27/21 A2998 RMK AO2 SLP151 T02720211,Day: 21st Time: 01:53 UTC Wind direction: 100 Wind speed: 11kt Temperature: 27C Dew point: 21C Pressure: 29.98 inHg Visibility: 10 SM
MIA,KMIA,2019-05-21 00:53:00,KMIA 210053Z 10008KT 10SM SCT028 SCT120 SCT250 27/21 A2996 RMK AO2 SLP146 OCNL LTGIC DSNT W-NW CB DSNT W-NW T02720211,Day: 21st Time: 00:53 UTC Wind direction: 100 Wind speed: 8kt Temperature: 27C Dew point: 21C Pressure: 29.96 inHg Visibility: 10 SM
SYD,YSSY,2019-05-21 23:00:00,YSSY 212300Z 32005KT 9999 FEW030 20/11 Q1027 NOSIG,Day: 21st Time: 23:00 UTC Wind direction: 320 Wind speed: 5kt Temperature: 20C Dew point: 11C Pressure: 1027 hPa Visibility: 9999 m
SYD,YSSY,2019-05-21 22:30:00,YSSY 212230Z 32007KT 9999 FEW030 18/11 Q1027 NOSIG,Day: 21st Time: 22:30 UTC Wind direction: 320 Wind speed: 7kt Temperature: 18C Dew point: 11C Pressure: 1027 hPa Visibility: 9999 m
SYD,YSSY,2019-05-21 21:30:00,YSSY 212130Z 31007KT CAVOK 16/11 Q1027 NOSIG,Day: 21st Time: 21:30 UTC Wind direction: 310 Wind speed: 7kt Temperature: 16C Dew point: 11C Pressure: 1027 hPa Visibility: Sky and visibility OK
SYD,YSSY,2019-05-21 21:00:00,YSSY 212100Z 32007KT CAVOK 15/10 Q1027 NOSIG,Day: 21st Time: 21:00 UTC Wind direction: 320 Wind speed: 7kt Temperature: 15C Dew point: 10C Pressure: 1027 hPa Visibility: Sky and visibility OK
SYD,YSSY,2019-05-21 19:30:00,YSSY 211930Z 32008KT CAVOK 15/10 Q1025 NOSIG,Day: 21st Time: 19:30 UTC Wind direction: 320 Wind speed: 8kt Temperature: 15C Dew point: 10C Pressure: 1025 hPa Visibility: Sky and visibility OK
SYD,YSSY,2019-05-21 18:30:00,YSSY 211830Z 34006KT CAVOK 16/11 Q1025 NOSIG,Day: 21st Time: 18:30 UTC Wind direction: 340 Wind speed: 6kt Temperature: 16C Dew point: 11C Pressure: 1025 hPa Visibility: Sky and visibility OK
SYD,YSSY,2019-05-21 17:30:00,YSSY 211730Z 31007KT 9999 FEW030 BKN280 16/11 Q1025 NOSIG,Day: 21st Time: 17:30 UTC Wind direction: 310 Wind speed: 7kt Temperature: 16C Dew point: 11C Pressure: 1025 hPa Visibility: 9999 m
SYD,YSSY,2019-05-21 17:00:00,YSSY 211700Z 33007KT CAVOK 16/12 Q1025,Day: 21st Time: 17:00 UTC Wind direction: 330 Wind speed: 7kt Temperature: 16C Dew point: 12C Pressure: 1025 hPa Visibility: Sky and visibility OK
SYD,YSSY,2019-05-21 16:00:00,YSSY 211600Z 33007KT CAVOK 16/12 Q1025,Day: 21st Time: 16:00 UTC Wind direction: 330 Wind speed: 7kt Temperature: 16C Dew point: 12C Pressure: 1025 hPa Visibility: Sky and visibility OK
SYD,YSSY,2019-05-21 15:30:00,YSSY 211530Z 31007KT CAVOK 17/12 Q1025 NOSIG,Day: 21st Time: 15:30 UTC Wind direction: 310 Wind speed: 7kt Temperature: 17C Dew point: 12C Pressure: 1025 hPa Visibility: Sky and visibility OK
SYD,YSSY,2019-05-21 15:00:00,YSSY 211500Z 32007KT CAVOK 17/12 Q1025,Day: 21st Time: 15:00 UTC Wind direction: 320 Wind speed: 7kt Temperature: 17C Dew point: 12C Pressure: 1025 hPa Visibility: Sky and visibility OK
SYD,YSSY,2019-05-21 14:30:00,YSSY 211430Z 34007KT CAVOK 17/12 Q1025 NOSIG,Day: 21st Time: 14:30 UTC Wind direction: 340 Wind speed: 7kt Temperature: 17C Dew point: 12C Pressure: 1025 hPa Visibility: Sky and visibility OK
SYD,YSSY,2019-05-21 13:30:00,YSSY 211330Z 31007KT CAVOK 18/12 Q1025,Day: 21st Time: 13:30 UTC Wind direction: 310 Wind speed: 7kt Temperature: 18C Dew point: 12C Pressure: 1025 hPa Visibility: Sky and visibility OK
SYD,YSSY,2019-05-21 13:00:00,YSSY 211300Z 00000KT CAVOK 18/12 Q1025 NOSIG,Day: 21st Time: 13:00 UTC Wind direction: 0 Wind speed: 0kt Temperature: 18C Dew point: 12C Pressure: 1025 hPa Visibility: Sky and visibility OK
SYD,YSSY,2019-05-21 11:30:00,YSSY 211130Z 34006KT CAVOK 21/13 Q1025 NOSIG,Day: 21st Time: 11:30 UTC Wind direction: 340 Wind speed: 6kt Temperature: 21C Dew point: 13C Pressure: 1025 hPa Visibility: Sky and visibility OK
SYD,YSSY,2019-05-21 11:00:00,YSSY 211100Z 35007KT CAVOK 21/13 Q1024 NOSIG,Day: 21st Time: 11:00 UTC Wind direction: 350 Wind speed: 7kt Temperature: 21C Dew point: 13C Pressure: 1024 hPa Visibility: Sky and visibility OK
SYD,YSSY,2019-05-21 09:30:00,YSSY 210930Z 01006KT 9999 FEW035 BKN270 23/12 Q1024 NOSIG,Day: 21st Time: 09:30 UTC Wind direction: 10 Wind speed: 6kt Temperature: 23C Dew point: 12C Pressure: 1024 hPa Visibility: 9999 m
SYD,YSSY,2019-05-21 09:00:00,YSSY 210900Z 01009KT 9999 FEW035 BKN270 23/13 Q1024,Day: 21st Time: 09:00 UTC Wind direction: 10 Wind speed: 9kt Temperature: 23C Dew point: 13C Pressure: 1024 hPa Visibility: 9999 m
SYD,YSSY,2019-05-21 08:30:00,YSSY 210830Z 01009KT 9999 FEW035 BKN270 23/13 Q1023 NOSIG,Day: 21st Time: 08:30 UTC Wind direction: 10 Wind speed: 9kt Temperature: 23C Dew point: 13C Pressure: 1023 hPa Visibility: 9999 m
SYD,YSSY,2019-05-21 07:00:00,YSSY 210700Z 04007KT CAVOK 23/13 Q1022 NOSIG,Day: 21st Time: 07:00 UTC Wind direction: 40 Wind speed: 7kt Temperature: 23C Dew point: 13C Pressure: 1022 hPa Visibility: Sky and visibility OK
SYD,YSSY,2019-05-21 06:30:00,YSSY 210630Z 03009KT 9999 FEW047 SCT240 BKN270 24/12 Q1022 NOSIG,Day: 21st Time: 06:30 UTC Wind direction: 30 Wind speed: 9kt Temperature: 24C Dew point: 12C Pressure: 1022 hPa Visibility: 9999 m
SYD,YSSY,2019-05-21 06:00:00,YSSY 210600Z 35006KT CAVOK 25/11 Q1022 NOSIG,Day: 21st Time: 06:00 UTC Wind direction: 350 Wind speed: 6kt Temperature: 25C Dew point: 11C Pressure: 1022 hPa Visibility: Sky and visibility OK
SYD,YSSY,2019-05-21 04:00:00,YSSY 210400Z 30006KT CAVOK 27/10 Q1022 NOSIG,Day: 21st Time: 04:00 UTC Wind direction: 300 Wind speed: 6kt Temperature: 27C Dew point: 10C Pressure: 1022 hPa Visibility: Sky and visibility OK
SYD,YSSY,2019-05-21 03:30:00,YSSY 210330Z 30007KT CAVOK 26/10 Q1022 NOSIG,Day: 21st Time: 03:30 UTC Wind direction: 300 Wind speed: 7kt Temperature: 26C Dew point: 10C Pressure: 1022 hPa Visibility: Sky and visibility OK
SYD,YSSY,2019-05-21 02:30:00,YSSY 210230Z 30007KT CAVOK 25/09 Q1023,Day: 21st Time: 02:30 UTC Wind direction: 300 Wind speed: 7kt Temperature: 25C Dew point: 9C Pressure: 1023 hPa Visibility: Sky and visibility OK
SYD,YSSY,2019-05-21 02:00:00,YSSY 210200Z 32006KT 7000 FEW045 24/11 Q1023 FM0300 36006KT CAVOK TEMPO 0200/0300 3000 FU,Day: 21st Time: 02:00 UTC Wind direction: 320 Wind speed: 6kt Temperature: 24C Dew point: 11C Pressure: 1023 hPa Visibility: Sky and visibility OK
SYD,YSSY,2019-05-21 01:30:00,YSSY 210130Z 31008KT 6000 FEW044 23/11 Q1024,Day: 21st Time: 01:30 UTC Wind direction: 310 Wind speed: 8kt Temperature: 23C Dew point: 11C Pressure: 1024 hPa Visibility: 6000 m
SYD,YSSY,2019-05-21 00:41:00,YSSY 210041Z 31006KT 6000 FEW040 21/11 Q1025,Day: 21st Time: 00:41 UTC Wind direction: 310 Wind speed: 6kt Temperature: 21C Dew point: 11C Pressure: 1025 hPa Visibility: 6000 m
SYD,YSSY,2019-05-21 00:00:00,YSSY 210000Z 31008KT CAVOK 19/11 Q1025 NOSIG,Day: 21st Time: 00:00 UTC Wind direction: 310 Wind speed: 8kt Temperature: 19C Dew point: 11C Pressure: 1025 hPa Visibility: Sky and visibility OK
PMI,LEPA,2019-05-21 23:30:00,LEPA 212330Z 00000KT CAVOK 14/08 Q1017 NOSIG,Day: 21st Time: 23:30 UTC Wind direction: 0 Wind speed: 0kt Temperature: 14C Dew point: 8C Pressure: 1017 hPa Visibility: Sky and visibility OK
PMI,LEPA,2019-05-21 23:00:00,LEPA 212300Z VRB02KT CAVOK 14/09 Q1017 NOSIG,Day: 21st Time: 23:00 UTC Wind speed: 2kt Temperature: 14C Dew point: 9C Pressure: 1017 hPa Visibility: Sky and visibility OK
PMI,LEPA,2019-05-21 22:30:00,LEPA 212230Z 00000KT CAVOK 15/11 Q1017 NOSIG,Day: 21st Time: 22:30 UTC Wind direction: 0 Wind speed: 0kt Temperature: 15C Dew point: 11C Pressure: 1017 hPa Visibility: Sky and visibility OK
PMI,LEPA,2019-05-21 22:00:00,LEPA 212200Z VRB02KT CAVOK 16/13 Q1017 NOSIG,Day: 21st Time: 22:00 UTC Wind speed: 2kt Temperature: 16C Dew point: 13C Pressure: 1017 hPa Visibility: Sky and visibility OK
PMI,LEPA,2019-05-21 21:30:00,LEPA 212130Z VRB02KT CAVOK 16/12 Q1018 NOSIG,Day: 21st Time: 21:30 UTC Wind speed: 2kt Temperature: 16C Dew point: 12C Pressure: 1018 hPa Visibility: Sky and visibility OK
PMI,LEPA,2019-05-21 21:00:00,LEPA 212100Z VRB02KT CAVOK 18/14 Q1018 NOSIG,Day: 21st Time: 21:00 UTC Wind speed: 2kt Temperature: 18C Dew point: 14C Pressure: 1018 hPa Visibility: Sky and visibility OK
PMI,LEPA,2019-05-21 20:30:00,LEPA 212030Z 18002KT CAVOK 17/14 Q1017 NOSIG,Day: 21st Time: 20:30 UTC Wind direction: 180 Wind speed: 2kt Temperature: 17C Dew point: 14C Pressure: 1017 hPa Visibility: Sky and visibility OK
PMI,LEPA,2019-05-21 20:00:00,LEPA 212000Z 20003KT CAVOK 18/14 Q1017 NOSIG,Day: 21st Time: 20:00 UTC Wind direction: 200 Wind speed: 3kt Temperature: 18C Dew point: 14C Pressure: 1017 hPa Visibility: Sky and visibility OK
PMI,LEPA,2019-05-21 19:30:00,LEPA 211930Z VRB02KT CAVOK 18/14 Q1017 NOSIG,Day: 21st Time: 19:30 UTC Wind speed: 2kt Temperature: 18C Dew point: 14C Pressure: 1017 hPa Visibility: Sky and visibility OK
PMI,LEPA,2019-05-21 19:00:00,LEPA 211900Z VRB01KT CAVOK 19/14 Q1016 NOSIG,Day: 21st Time: 19:00 UTC Wind speed: 1kt Temperature: 19C Dew point: 14C Pressure: 1016 hPa Visibility: Sky and visibility OK
PMI,LEPA,2019-05-21 18:30:00,LEPA 211830Z 24003KT CAVOK 19/14 Q1016 NOSIG,Day: 21st Time: 18:30 UTC Wind direction: 240 Wind speed: 3kt Temperature: 19C Dew point: 14C Pressure: 1016 hPa Visibility: Sky and visibility OK
PMI,LEPA,2019-05-21 18:00:00,LEPA 211800Z 22006KT CAVOK 19/14 Q1016 NOSIG,Day: 21st Time: 18:00 UTC Wind direction: 220 Wind speed: 6kt Temperature: 19C Dew point: 14C Pressure: 1016 hPa Visibility: Sky and visibility OK
PMI,LEPA,2019-05-21 17:30:00,LEPA 211730Z 22008KT CAVOK 20/11 Q1016 NOSIG,Day: 21st Time: 17:30 UTC Wind direction: 220 Wind speed: 8kt Temperature: 20C Dew point: 11C Pressure: 1016 hPa Visibility: Sky and visibility OK
PMI,LEPA,2019-05-21 17:00:00,LEPA 211700Z 23006KT CAVOK 20/07 Q1016 NOSIG,Day: 21st Time: 17:00 UTC Wind direction: 230 Wind speed: 6kt Temperature: 20C Dew point: 7C Pressure: 1016 hPa Visibility: Sky and visibility OK
PMI,LEPA,2019-05-21 16:30:00,LEPA 211630Z 23005KT 200V260 CAVOK 20/10 Q1016 NOSIG,Day: 21st Time: 16:30 UTC Wind direction: 230 Wind speed: 5kt Temperature: 20C Dew point: 10C Pressure: 1016 hPa Visibility: Sky and visibility OK
PMI,LEPA,2019-05-21 16:00:00,LEPA 211600Z VRB02KT CAVOK 20/12 Q1016 NOSIG,Day: 21st Time: 16:00 UTC Wind speed: 2kt Temperature: 20C Dew point: 12C Pressure: 1016 hPa Visibility: Sky and visibility OK
PMI,LEPA,2019-05-21 15:30:00,LEPA 211530Z VRB02KT CAVOK 20/14 Q1016 NOSIG,Day: 21st Time: 15:30 UTC Wind speed: 2kt Temperature: 20C Dew point: 14C Pressure: 1016 hPa Visibility: Sky and visibility OK
PMI,LEPA,2019-05-21 15:00:00,LEPA 211500Z 25004KT 200V330 CAVOK 20/13 Q1016 NOSIG,Day: 21st Time: 15:00 UTC Wind direction: 250 Wind speed: 4kt Temperature: 20C Dew point: 13C Pressure: 1016 hPa Visibility: Sky and visibility OK
PMI,LEPA,2019-05-21 14:30:00,LEPA 211430Z 26007KT 230V290 9999 FEW018 20/14 Q1016 NOSIG,Day: 21st Time: 14:30 UTC Wind direction: 260 Wind speed: 7kt Temperature: 20C Dew point: 14C Pressure: 1016 hPa Visibility: 9999 m
PMI,LEPA,2019-05-21 14:00:00,LEPA 211400Z 26007KT 9999 FEW018 20/13 Q1016 NOSIG,Day: 21st Time: 14:00 UTC Wind direction: 260 Wind speed: 7kt Temperature: 20C Dew point: 13C Pressure: 1016 hPa Visibility: 9999 m
PMI,LEPA,2019-05-21 13:30:00,LEPA 211330Z 23005KT 170V260 9999 FEW018 20/12 Q1016 NOSIG,Day: 21st Time: 13:30 UTC Wind direction: 230 Wind speed: 5kt Temperature: 20C Dew point: 12C Pressure: 1016 hPa Visibility: 9999 m
PMI,LEPA,2019-05-21 13:00:00,LEPA 211300Z 21007KT 160V230 9999 FEW018 19/12 Q1016 NOSIG,Day: 21st Time: 13:00 UTC Wind direction: 210 Wind speed: 7kt Temperature: 19C Dew point: 12C Pressure: 1016 hPa Visibility: 9999 m
PMI,LEPA,2019-05-21 12:30:00,LEPA 211230Z 20006KT 180V240 9999 FEW018 20/12 Q1016 NOSIG,Day: 21st Time: 12:30 UTC Wind direction: 200 Wind speed: 6kt Temperature: 20C Dew point: 12C Pressure: 1016 hPa Visibility: 9999 m
PMI,LEPA,2019-05-21 12:00:00,LEPA 211200Z 22005KT 9999 FEW018 20/12 Q1016 NOSIG,Day: 21st Time: 12:00 UTC Wind direction: 220 Wind speed: 5kt Temperature: 20C Dew point: 12C Pressure: 1016 hPa Visibility: 9999 m
PMI,LEPA,2019-05-21 11:30:00,LEPA 211130Z 23010KT CAVOK 20/11 Q1016 NOSIG,Day: 21st Time: 11:30 UTC Wind direction: 230 Wind speed: 10kt Temperature: 20C Dew point: 11C Pressure: 1016 hPa Visibility: Sky and visibility OK
PMI,LEPA,2019-05-21 11:00:00,LEPA 211100Z 23014KT CAVOK 20/11 Q1016 NOSIG,Day: 21st Time: 11:00 UTC Wind direction: 230 Wind speed: 14kt Temperature: 20C Dew point: 11C Pressure: 1016 hPa Visibility: Sky and visibility OK
PMI,LEPA,2019-05-21 10:30:00,LEPA 211030Z 22011KT CAVOK 21/11 Q1016 NOSIG,Day: 21st Time: 10:30 UTC Wind direction: 220 Wind speed: 11kt Temperature: 21C Dew point: 11C Pressure: 1016 hPa Visibility: Sky and visibility OK
PMI,LEPA,2019-05-21 10:00:00,LEPA 211000Z 23011KT CAVOK 21/10 Q1016 NOSIG,Day: 21st Time: 10:00 UTC Wind direction: 230 Wind speed: 11kt Temperature: 21C Dew point: 10C Pressure: 1016 hPa Visibility: Sky and visibility OK
PMI,LEPA,2019-05-21 09:30:00,LEPA 210930Z 22011KT CAVOK 24/08 Q1016 NOSIG,Day: 21st Time: 09:30 UTC Wind direction: 220 Wind speed: 11kt Temperature: 24C Dew point: 8C Pressure: 1016 hPa Visibility: Sky and visibility OK
PMI,LEPA,2019-05-21 09:00:00,LEPA 210900Z 02003KT 300V110 CAVOK 23/06 Q1015 NOSIG,Day: 21st Time: 09:00 UTC Wind direction: 20 Wind speed: 3kt Temperature: 23C Dew point: 6C Pressure: 1015 hPa Visibility: Sky and visibility OK
PMI,LEPA,2019-05-21 08:30:00,LEPA 210830Z 03003KT 330V110 CAVOK 22/07 Q1015 NOSIG,Day: 21st Time: 08:30 UTC Wind direction: 30 Wind speed: 3kt Temperature: 22C Dew point: 7C Pressure: 1015 hPa Visibility: Sky and visibility OK
PMI,LEPA,2019-05-21 08:00:00,LEPA 210800Z 04004KT 330V110 CAVOK 21/08 Q1015 NOSIG,Day: 21st Time: 08:00 UTC Wind direction: 40 Wind speed: 4kt Temperature: 21C Dew point: 8C Pressure: 1015 hPa Visibility: Sky and visibility OK
PMI,LEPA,2019-05-21 07:30:00,LEPA 210730Z 05003KT CAVOK 20/09 Q1015 NOSIG,Day: 21st Time: 07:30 UTC Wind direction: 50 Wind speed: 3kt Temperature: 20C Dew point: 9C Pressure: 1015 hPa Visibility: Sky and visibility OK
PMI,LEPA,2019-05-21 07:00:00,LEPA 210700Z 03004KT 330V070 CAVOK 18/09 Q1015 NOSIG,Day: 21st Time: 07:00 UTC Wind direction: 30 Wind speed: 4kt Temperature: 18C Dew point: 9C Pressure: 1015 hPa Visibility: Sky and visibility OK
PMI,LEPA,2019-05-21 06:30:00,LEPA 210630Z 04005KT 020V080 CAVOK 17/09 Q1015 NOSIG,Day: 21st Time: 06:30 UTC Wind direction: 40 Wind speed: 5kt Temperature: 17C Dew point: 9C Pressure: 1015 hPa Visibility: Sky and visibility OK
PMI,LEPA,2019-05-21 06:00:00,LEPA 210600Z VRB01KT CAVOK 15/07 Q1015 NOSIG,Day: 21st Time: 06:00 UTC Wind speed: 1kt Temperature: 15C Dew point: 7C Pressure: 1015 hPa Visibility: Sky and visibility OK
PMI,LEPA,2019-05-21 05:30:00,LEPA 210530Z 02003KT 320V070 CAVOK 15/07 Q1015 NOSIG,Day: 21st Time: 05:30 UTC Wind direction: 20 Wind speed: 3kt Temperature: 15C Dew point: 7C Pressure: 1015 hPa Visibility: Sky and visibility OK
PMI,LEPA,2019-05-21 05:00:00,LEPA 210500Z VRB03KT CAVOK 12/07 Q1015 NOSIG,Day: 21st Time: 05:00 UTC Wind speed: 3kt Temperature: 12C Dew point: 7C Pressure: 1015 hPa Visibility: Sky and visibility OK
PMI,LEPA,2019-05-21 04:30:00,LEPA 210430Z 05003KT 020V080 CAVOK 11/06 Q1015 NOSIG,Day: 21st Time: 04:30 UTC Wind direction: 50 Wind speed: 3kt Temperature: 11C Dew point: 6C Pressure: 1015 hPa Visibility: Sky and visibility OK
PMI,LEPA,2019-05-21 04:00:00,LEPA 210400Z VRB02KT CAVOK 13/05 Q1015 NOSIG,Day: 21st Time: 04:00 UTC Wind speed: 2kt Temperature: 13C Dew point: 5C Pressure: 1015 hPa Visibility: Sky and visibility OK
PMI,LEPA,2019-05-21 03:30:00,LEPA 210330Z 00000KT CAVOK 13/06 Q1015 NOSIG,Day: 21st Time: 03:30 UTC Wind direction: 0 Wind speed: 0kt Temperature: 13C Dew point: 6C Pressure: 1015 hPa Visibility: Sky and visibility OK
PMI,LEPA,2019-05-21 03:00:00,LEPA 210300Z 07001KT CAVOK 14/07 Q1015 NOSIG,Day: 21st Time: 03:00 UTC Wind direction: 70 Wind speed: 1kt Temperature: 14C Dew point: 7C Pressure: 1015 hPa Visibility: Sky and visibility OK
PMI,LEPA,2019-05-21 02:30:00,LEPA 210230Z VRB02KT CAVOK 14/07 Q1015 NOSIG,Day: 21st Time: 02:30 UTC Wind speed: 2kt Temperature: 14C Dew point: 7C Pressure: 1015 hPa Visibility: Sky and visibility OK
PMI,LEPA,2019-05-21 02:00:00,LEPA 210200Z 36003KT CAVOK 14/07 Q1015 NOSIG,Day: 21st Time: 02:00 UTC Wind direction: 360 Wind speed: 3kt Temperature: 14C Dew point: 7C Pressure: 1015 hPa Visibility: Sky and visibility OK
PMI,LEPA,2019-05-21 01:30:00,LEPA 210130Z VRB02KT CAVOK 13/07 Q1015 NOSIG,Day: 21st Time: 01:30 UTC Wind speed: 2kt Temperature: 13C Dew point: 7C Pressure: 1015 hPa Visibility: Sky and visibility OK
PMI,LEPA,2019-05-21 01:00:00,LEPA 210100Z 05004KT CAVOK 12/09 Q1015 NOSIG,Day: 21st Time: 01:00 UTC Wind direction: 50 Wind speed: 4kt Temperature: 12C Dew point: 9C Pressure: 1015 hPa Visibility: Sky and visibility OK
PMI,LEPA,2019-05-21 00:30:00,LEPA 210030Z 06003KT CAVOK 13/09 Q1015 NOSIG,Day: 21st Time: 00:30 UTC Wind direction: 60 Wind speed: 3kt Temperature: 13C Dew point: 9C Pressure: 1015 hPa Visibility: Sky and visibility OK
PMI,LEPA,2019-05-21 00:00:00,LEPA 210000Z 00000KT CAVOK 13/09 Q1015 NOSIG,Day: 21st Time: 00:00 UTC Wind direction: 0 Wind speed: 0kt Temperature: 13C Dew point: 9C Pressure: 1015 hPa Visibility: Sky and visibility OK
IBZ,LEIB,2019-05-21 23:30:00,LEIB 212330Z VRB02KT CAVOK 15/13 Q1017 NOSIG,Day: 21st Time: 23:30 UTC Wind speed: 2kt Temperature: 15C Dew point: 13C Pressure: 1017 hPa Visibility: Sky and visibility OK
IBZ,LEIB,2019-05-21 23:00:00,LEIB 212300Z 34004KT CAVOK 15/13 Q1017 NOSIG,Day: 21st Time: 23:00 UTC Wind direction: 340 Wind speed: 4kt Temperature: 15C Dew point: 13C Pressure: 1017 hPa Visibility: Sky and visibility OK
IBZ,LEIB,2019-05-21 22:30:00,LEIB 212230Z 32002KT CAVOK 15/13 Q1017 NOSIG,Day: 21st Time: 22:30 UTC Wind direction: 320 Wind speed: 2kt Temperature: 15C Dew point: 13C Pressure: 1017 hPa Visibility: Sky and visibility OK
IBZ,LEIB,2019-05-21 22:00:00,LEIB 212200Z 00000KT CAVOK 16/13 Q1017 NOSIG,Day: 21st Time: 22:00 UTC Wind direction: 0 Wind speed: 0kt Temperature: 16C Dew point: 13C Pressure: 1017 hPa Visibility: Sky and visibility OK
IBZ,LEIB,2019-05-21 21:30:00,LEIB 212130Z VRB01KT CAVOK 16/13 Q1017 NOSIG,Day: 21st Time: 21:30 UTC Wind speed: 1kt Temperature: 16C Dew point: 13C Pressure: 1017 hPa Visibility: Sky and visibility OK
IBZ,LEIB,2019-05-21 21:00:00,LEIB 212100Z 35003KT 320V060 CAVOK 17/14 Q1017 NOSIG,Day: 21st Time: 21:00 UTC Wind direction: 350 Wind speed: 3kt Temperature: 17C Dew point: 14C Pressure: 1017 hPa Visibility: Sky and visibility OK
IBZ,LEIB,2019-05-21 20:30:00,LEIB 212030Z 35004KT 290V070 CAVOK 18/15 Q1017 NOSIG,Day: 21st Time: 20:30 UTC Wind direction: 350 Wind speed: 4kt Temperature: 18C Dew point: 15C Pressure: 1017 hPa Visibility: Sky and visibility OK
IBZ,LEIB,2019-05-21 20:00:00,LEIB 212000Z 08002KT CAVOK 18/15 Q1016 NOSIG,Day: 21st Time: 20:00 UTC Wind direction: 80 Wind speed: 2kt Temperature: 18C Dew point: 15C Pressure: 1016 hPa Visibility: Sky and visibility OK
IBZ,LEIB,2019-05-21 19:30:00,LEIB 211930Z 00000KT CAVOK 18/15 Q1016 NOSIG,Day: 21st Time: 19:30 UTC Wind direction: 0 Wind speed: 0kt Temperature: 18C Dew point: 15C Pressure: 1016 hPa Visibility: Sky and visibility OK
IBZ,LEIB,2019-05-21 19:00:00,LEIB 211900Z 12003KT 070V150 CAVOK 19/15 Q1016 NOSIG,Day: 21st Time: 19:00 UTC Wind direction: 120 Wind speed: 3kt Temperature: 19C Dew point: 15C Pressure: 1016 hPa Visibility: Sky and visibility OK
IBZ,LEIB,2019-05-21 18:30:00,LEIB 211830Z 13003KT 070V180 CAVOK 20/15 Q1016 NOSIG,Day: 21st Time: 18:30 UTC Wind direction: 130 Wind speed: 3kt Temperature: 20C Dew point: 15C Pressure: 1016 hPa Visibility: Sky and visibility OK
IBZ,LEIB,2019-05-21 18:00:00,LEIB 211800Z 10005KT 060V130 CAVOK 20/14 Q1016 NOSIG,Day: 21st Time: 18:00 UTC Wind direction: 100 Wind speed: 5kt Temperature: 20C Dew point: 14C Pressure: 1016 hPa Visibility: Sky and visibility OK
IBZ,LEIB,2019-05-21 17:30:00,LEIB 211730Z 09004KT 050V130 CAVOK 20/15 Q1016 NOSIG,Day: 21st Time: 17:30 UTC Wind direction: 90 Wind speed: 4kt Temperature: 20C Dew point: 15C Pressure: 1016 hPa Visibility: Sky and visibility OK
IBZ,LEIB,2019-05-21 17:00:00,LEIB 211700Z 10006KT 070V140 CAVOK 20/15 Q1016 NOSIG,Day: 21st Time: 17:00 UTC Wind direction: 100 Wind speed: 6kt Temperature: 20C Dew point: 15C Pressure: 1016 hPa Visibility: Sky and visibility OK
IBZ,LEIB,2019-05-21 16:30:00,LEIB 211630Z 10006KT 070V140 CAVOK 21/14 Q1016 NOSIG,Day: 21st Time: 16:30 UTC Wind direction: 100 Wind speed: 6kt Temperature: 21C Dew point: 14C Pressure: 1016 hPa Visibility: Sky and visibility OK
IBZ,LEIB,2019-05-21 16:00:00,LEIB 211600Z 11006KT 070V150 9999 FEW018 21/14 Q1015 NOSIG,Day: 21st Time: 16:00 UTC Wind direction: 110 Wind speed: 6kt Temperature: 21C Dew point: 14C Pressure: 1015 hPa Visibility: 9999 m
IBZ,LEIB,2019-05-21 15:30:00,LEIB 211530Z 09007KT 060V140 9999 FEW018 21/15 Q1016 NOSIG,Day: 21st Time: 15:30 UTC Wind direction: 90 Wind speed: 7kt Temperature: 21C Dew point: 15C Pressure: 1016 hPa Visibility: 9999 m
IBZ,LEIB,2019-05-21 15:00:00,LEIB 211500Z 09006KT 030V140 9999 FEW018 20/15 Q1016 NOSIG,Day: 21st Time: 15:00 UTC Wind direction: 90 Wind speed: 6kt Temperature: 20C Dew point: 15C Pressure: 1016 hPa Visibility: 9999 m
IBZ,LEIB,2019-05-21 14:30:00,LEIB 211430Z 09007KT 050V120 9999 FEW013 SCT017 20/14 Q1016 NOSIG,Day: 21st Time: 14:30 UTC Wind direction: 90 Wind speed: 7kt Temperature: 20C Dew point: 14C Pressure: 1016 hPa Visibility: 9999 m
IBZ,LEIB,2019-05-21 14:00:00,LEIB 211400Z 10007KT 070V130 9999 FEW013 SCT017 20/15 Q1016 NOSIG,Day: 21st Time: 14:00 UTC Wind direction: 100 Wind speed: 7kt Temperature: 20C Dew point: 15C Pressure: 1016 hPa Visibility: 9999 m
IBZ,LEIB,2019-05-21 13:30:00,LEIB 211330Z 11006KT 070V140 9999 FEW013 SCT017 BKN030 20/15 Q1016 NOSIG,Day: 21st Time: 13:30 UTC Wind direction: 110 Wind speed: 6kt Temperature: 20C Dew point: 15C Pressure: 1016 hPa Visibility: 9999 m
IBZ,LEIB,2019-05-21 13:00:00,LEIB 211300Z 08008KT 050V110 9999 FEW016 SCT018 BKN030 20/15 Q1016 NOSIG,Day: 21st Time: 13:00 UTC Wind direction: 80 Wind speed: 8kt Temperature: 20C Dew point: 15C Pressure: 1016 hPa Visibility: 9999 m
IBZ,LEIB,2019-05-21 12:30:00,LEIB 211230Z 09007KT 030V130 9999 FEW016 SCT018 BKN030 21/16 Q1016 NOSIG,Day: 21st Time: 12:30 UTC Wind direction: 90 Wind speed: 7kt Temperature: 21C Dew point: 16C Pressure: 1016 hPa Visibility: 9999 m
IBZ,LEIB,2019-05-21 12:00:00,LEIB 211200Z 09009KT 060V120 9999 FEW016 SCT018 BKN025 20/15 Q1016 NOSIG,Day: 21st Time: 12:00 UTC Wind direction: 90 Wind speed: 9kt Temperature: 20C Dew point: 15C Pressure: 1016 hPa Visibility: 9999 m
IBZ,LEIB,2019-05-21 11:30:00,LEIB 211130Z 11007KT 060V150 9999 FEW020 SCT027 21/15 Q1016 NOSIG,Day: 21st Time: 11:30 UTC Wind direction: 110 Wind speed: 7kt Temperature: 21C Dew point: 15C Pressure: 1016 hPa Visibility: 9999 m
IBZ,LEIB,2019-05-21 11:00:00,LEIB 211100Z 11007KT 080V140 9999 FEW018 SCT025 20/15 Q1016 NOSIG,Day: 21st Time: 11:00 UTC Wind direction: 110 Wind speed: 7kt Temperature: 20C Dew point: 15C Pressure: 1016 hPa Visibility: 9999 m
IBZ,LEIB,2019-05-21 10:30:00,LEIB 211030Z 09006KT 060V120 9999 FEW018 SCT025 20/15 Q1016 NOSIG,Day: 21st Time: 10:30 UTC Wind direction: 90 Wind speed: 6kt Temperature: 20C Dew point: 15C Pressure: 1016 hPa Visibility: 9999 m
IBZ,LEIB,2019-05-21 10:00:00,LEIB 211000Z 10006KT 070V130 9999 FEW018 SCT025 20/15 Q1016 NOSIG,Day: 21st Time: 10:00 UTC Wind direction: 100 Wind speed: 6kt Temperature: 20C Dew point: 15C Pressure: 1016 hPa Visibility: 9999 m
IBZ,LEIB,2019-05-21 09:30:00,LEIB 210930Z 11007KT 060V140 9999 FEW018 SCT025 20/15 Q1016 NOSIG,Day: 21st Time: 09:30 UTC Wind direction: 110 Wind speed: 7kt Temperature: 20C Dew point: 15C Pressure: 1016 hPa Visibility: 9999 m
IBZ,LEIB,2019-05-21 09:00:00,LEIB 210900Z 20004KT 140V260 9999 FEW014 SCT018 BKN025 20/16 Q1016 NOSIG,Day: 21st Time: 09:00 UTC Wind direction: 200 Wind speed: 4kt Temperature: 20C Dew point: 16C Pressure: 1016 hPa Visibility: 9999 m
IBZ,LEIB,2019-05-21 08:30:00,LEIB 210830Z 20004KT 160V240 9999 FEW014 BKN018 20/15 Q1016 NOSIG,Day: 21st Time: 08:30 UTC Wind direction: 200 Wind speed: 4kt Temperature: 20C Dew point: 15C Pressure: 1016 hPa Visibility: 9999 m
IBZ,LEIB,2019-05-21 08:00:00,LEIB 210800Z 11003KT 050V150 9999 FEW014 SCT018 BKN020 20/15 Q1016 NOSIG,Day: 21st Time: 08:00 UTC Wind direction: 110 Wind speed: 3kt Temperature: 20C Dew point: 15C Pressure: 1016 hPa Visibility: 9999 m
IBZ,LEIB,2019-05-21 07:30:00,LEIB 210730Z VRB01KT 9999 FEW012 SCT014 BKN018 19/15 Q1015 NOSIG,Day: 21st Time: 07:30 UTC Wind speed: 1kt Temperature: 19C Dew point: 15C Pressure: 1015 hPa Visibility: 9999 m
IBZ,LEIB,2019-05-21 07:00:00,LEIB 210700Z 03004KT 330V090 9999 FEW010 SCT012 BKN015 19/16 Q1015 NOSIG,Day: 21st Time: 07:00 UTC Wind direction: 30 Wind speed: 4kt Temperature: 19C Dew point: 16C Pressure: 1015 hPa Visibility: 9999 m
IBZ,LEIB,2019-05-21 06:30:00,LEIB 210630Z VRB02KT 9999 FEW008 SCT010 BKN014 18/16 Q1015 NOSIG,Day: 21st Time: 06:30 UTC Wind speed: 2kt Temperature: 18C Dew point: 16C Pressure: 1015 hPa Visibility: 9999 m
IBZ,LEIB,2019-05-21 06:00:00,LEIB 210600Z VRB01KT 9999 FEW008 SCT010 BKN015 17/16 Q1015 NOSIG,Day: 21st Time: 06:00 UTC Wind speed: 1kt Temperature: 17C Dew point: 16C Pressure: 1015 hPa Visibility: 9999 m
IBZ,LEIB,2019-05-21 05:30:00,LEIB 210530Z VRB01KT 9999 FEW010 SCT014 16/15 Q1014 NOSIG,Day: 21st Time: 05:30 UTC Wind speed: 1kt Temperature: 16C Dew point: 15C Pressure: 1014 hPa Visibility: 9999 m
IBZ,LEIB,2019-05-21 05:00:00,LEIB 210500Z VRB01KT 9999 FEW008 SCT012 15/14 Q1014 NOSIG,Day: 21st Time: 05:00 UTC Wind speed: 1kt Temperature: 15C Dew point: 14C Pressure: 1014 hPa Visibility: 9999 m
IBZ,LEIB,2019-05-21 04:30:00,LEIB 210430Z 01003KT CAVOK 14/13 Q1014 NOSIG,Day: 21st Time: 04:30 UTC Wind direction: 10 Wind speed: 3kt Temperature: 14C Dew point: 13C Pressure: 1014 hPa Visibility: Sky and visibility OK
IBZ,LEIB,2019-05-21 04:00:00,LEIB 210400Z 01003KT CAVOK 14/13 Q1014 NOSIG,Day: 21st Time: 04:00 UTC Wind direction: 10 Wind speed: 3kt Temperature: 14C Dew point: 13C Pressure: 1014 hPa Visibility: Sky and visibility OK
IBZ,LEIB,2019-05-21 03:30:00,LEIB 210330Z 34003KT CAVOK 15/13 Q1014 NOSIG,Day: 21st Time: 03:30 UTC Wind direction: 340 Wind speed: 3kt Temperature: 15C Dew point: 13C Pressure: 1014 hPa Visibility: Sky and visibility OK
IBZ,LEIB,2019-05-21 03:00:00,LEIB 210300Z VRB02KT CAVOK 15/14 Q1014 NOSIG,Day: 21st Time: 03:00 UTC Wind speed: 2kt Temperature: 15C Dew point: 14C Pressure: 1014 hPa Visibility: Sky and visibility OK
IBZ,LEIB,2019-05-21 02:30:00,LEIB 210230Z 35003KT CAVOK 15/14 Q1014 NOSIG,Day: 21st Time: 02:30 UTC Wind direction: 350 Wind speed: 3kt Temperature: 15C Dew point: 14C Pressure: 1014 hPa Visibility: Sky and visibility OK
IBZ,LEIB,2019-05-21 02:00:00,LEIB 210200Z 34002KT CAVOK 15/13 Q1014 NOSIG,Day: 21st Time: 02:00 UTC Wind direction: 340 Wind speed: 2kt Temperature: 15C Dew point: 13C Pressure: 1014 hPa Visibility: Sky and visibility OK
IBZ,LEIB,2019-05-21 01:30:00,LEIB 210130Z 34002KT CAVOK 15/13 Q1014 NOSIG,Day: 21st Time: 01:30 UTC Wind direction: 340 Wind speed: 2kt Temperature: 15C Dew point: 13C Pressure: 1014 hPa Visibility: Sky and visibility OK
IBZ,LEIB,2019-05-21 01:00:00,LEIB 210100Z 35004KT CAVOK 15/13 Q1014 NOSIG,Day: 21st Time: 01:00 UTC Wind direction: 350 Wind speed: 4kt Temperature: 15C Dew point: 13C Pressure: 1014 hPa Visibility: Sky and visibility OK
IBZ,LEIB,2019-05-21 00:30:00,LEIB 210030Z 34002KT CAVOK 15/13 Q1014 NOSIG,Day: 21st Time: 00:30 UTC Wind direction: 340 Wind speed: 2kt Temperature: 15C Dew point: 13C Pressure: 1014 hPa Visibility: Sky and visibility OK
IBZ,LEIB,2019-05-21 00:00:00,LEIB 210000Z 35003KT CAVOK 16/13 Q1014 NOSIG,Day: 21st Time: 00:00 UTC Wind direction: 350 Wind speed: 3kt Temperature: 16C Dew point: 13C Pressure: 1014 hPa Visibility: Sky and visibility OK
