


<table border="1" class="dataframe">  
    <thead>    
        <tr style="text-align: right;">
            <th>AIRPORT_IATA</th>
            <th>AIRPORT_ICAO</th>
            <th>UTC DATE/TIME</th>
            <th>METAR</th>
            <th>DESCRIPTION</th>
        </tr>  
    </thead>  
    <tbody>
        <tr>      
            <td>LHR</td>      
            <td>EGLL</td>
            <td>2019-05-18 23:50:00</td>
            <td>EGLL 182350Z AUTO 01003KT 9999 NCD 11/09 Q1009...</td>
            <td>Day: 18th Time: 23:50 UTC Wind direction: 10 W...</td>    
        </tr>    
        <tr>
            <td>LHR</td>
            <td>EGLL</td>
            <td>2019-05-18 23:20:00</td>
            <td>EGLL 182320Z AUTO 02002KT 9999 NCD 10/08 Q1009...</td>
            <td>Day: 18th Time: 23:20 UTC Wind direction: 20 W...</td>    
        </tr>
        <tr>
            <td>LHR</td>
            <td>EGLL</td>
            <td>2019-05-18 22:50:00</td>
            <td>EGLL 182250Z AUTO 04002KT 9999 NCD 12/09 Q1009...</td>
            <td>Day: 18th Time: 22:50 UTC Wind direction: 40 W...</td>    
        </tr>    
        <tr>
            <td>LHR</td>
            <td>EGLL</td>
            <td>2019-05-18 22:20:00</td>
            <td>EGLL 182220Z AUTO 06002KT 9999 NCD 12/09 Q1008</td>
            <td>Day: 18th Time: 22:20 UTC Wind direction: 60 W...</td>    
        </tr>    
        <tr>
            <td>LHR</td>
            <td>EGLL</td>
            <td>2019-05-18 21:50:00</td>
            <td>EGLL 182150Z AUTO VRB02KT 9999 NCD 13/09 Q1008...</td>
            <td>Day: 18th Time: 21:50 UTC Wind speed: 2kt Temp...</td>    
        </tr>  
    </tbody>
</table>








